{
  "type": "FeatureCollection",
  "name": "Dhanbad_District_Boundary",
  "features": [
    {
      "type": "Feature",
      "properties": {
        "district_code": 336,
        "district_name": "Dhanbad",
        "state_code": 20,
        "state_name": "Jharkhand",
        "total_blocks": 10,
        "total_panchayats": 239,
        "area_sq_km": 4281.71,
        "centroid_lat": 23.851,
        "centroid_lon": 86.486
      },
      "geometry": {
        "type": "Polygon",
        "coordinates": [
          [
            [
              86.595125,
              23.62
            ],
            [
              86.55572222222222,
              23.62
            ],
            [
              86.52475757575758,
              23.62
            ],
            [
              86.490125,
              23.62
            ],
            [
              86.33850000000001,
              23.62
            ],
            [
              86.26806622921546,
              23.62
            ],
            [
              86.26216386987905,
              23.62
            ],
            [
              86.23852958716559,
              23.62
            ],
            [
              86.19806622921548,
              23.62
            ],
            [
              86.19216386987905,
              23.62
            ],
            [
              86.16852958716558,
              23.62
            ],
            [
              86.07499999999999,
              23.62
            ],
            [
              86.07499999999999,
              23.763103736330276
            ],
            [
              86.07499999999999,
              23.767421402570594
            ],
            [
              86.07499999999999,
              23.791814504305478
            ],
            [
              86.07499999999999,
              23.86531249999999
            ],
            [
              86.07499999999999,
              23.89340476190478
            ],
            [
              86.07499999999999,
              23.908523809523796
            ],
            [
              86.07499999999999,
              23.931312499999994
            ],
            [
              86.07499999999999,
              23.959404761904782
            ],
            [
              86.07499999999999,
              24.082
            ],
            [
              86.13149647887325,
              24.082
            ],
            [
              86.17777597402598,
              24.082
            ],
            [
              86.25127027027028,
              24.082
            ],
            [
              86.40068627450981,
              24.082
            ],
            [
              86.48684873949581,
              24.082
            ],
            [
              86.58091549295776,
              24.082
            ],
            [
              86.6504044117647,
              24.082
            ],
            [
              86.897,
              24.082
            ],
            [
              86.897,
              24.01575
            ],
            [
              86.897,
              24.002709940652824
            ],
            [
              86.897,
              23.942227348993278
            ],
            [
              86.897,
              23.771969155844175
            ],
            [
              86.897,
              23.75706039325842
            ],
            [
              86.897,
              23.729304775280887
            ],
            [
              86.897,
              23.62
            ],
            [
              86.83180371559986,
              23.62
            ],
            [
              86.82919897480403,
              23.62
            ],
            [
              86.72108159960978,
              23.62
            ],
            [
              86.68248787922774,
              23.62
            ],
            [
              86.65727009381789,
              23.62
            ],
            [
              86.595125,
              23.62
            ]
          ]
        ]
      }
    }
  ]
}