{
  "type": "FeatureCollection",
  "name": "Dhanbad_Administrative_Blocks",
  "crs": {
    "type": "name",
    "properties": {
      "name": "urn:ogc:def:crs:OGC:1.3:CRS84"
    }
  },
  "features": [
    {
      "type": "Feature",
      "id": 2354,
      "properties": {
        "block_code": 2354,
        "block_name": "Baghmara",
        "district_code": 336,
        "district_name": "Dhanbad",
        "state_code": 20,
        "state_name": "Jharkhand",
        "area_sq_km": 701.8,
        "centroid_lat": 23.73992,
        "centroid_lon": 86.21225,
        "total_panchayats": 54,
        "source": "LGD / Ministry of Panchayati Raj",
        "last_updated": "2026-09-25T18:00:00Z"
      },
      "geometry": {
        "type": "Polygon",
        "coordinates": [
          [
            [
              86.07499999999999,
              23.62
            ],
            [
              86.07499999999999,
              23.763103736330276
            ],
            [
              86.07499999999999,
              23.767421402570594
            ],
            [
              86.07499999999999,
              23.791814504305478
            ],
            [
              86.08490835168608,
              23.796617320799314
            ],
            [
              86.10708442932992,
              23.810548517940685
            ],
            [
              86.11900464120816,
              23.821756991733118
            ],
            [
              86.13182222397974,
              23.842651550597456
            ],
            [
              86.13468746021617,
              23.85825013020161
            ],
            [
              86.13180628571429,
              23.86767942857143
            ],
            [
              86.13404484173505,
              23.874050703399753
            ],
            [
              86.16249440901643,
              23.870171216952308
            ],
            [
              86.17183797607743,
              23.88870231350438
            ],
            [
              86.17373655213308,
              23.887654121530154
            ],
            [
              86.18529256653387,
              23.86804356509201
            ],
            [
              86.17981529739923,
              23.858914600625305
            ],
            [
              86.18617390733236,
              23.846360860971348
            ],
            [
              86.19718922202375,
              23.857783959905483
            ],
            [
              86.18661547604253,
              23.867917573710233
            ],
            [
              86.20932726700332,
              23.877818167508295
            ],
            [
              86.20974013157894,
              23.878850328947383
            ],
            [
              86.23253973188476,
              23.8692043442026
            ],
            [
              86.24661448705726,
              23.887774810756454
            ],
            [
              86.24753660022103,
              23.888161343829015
            ],
            [
              86.25728649312768,
              23.866061261577514
            ],
            [
              86.25419863487832,
              23.859417594196835
            ],
            [
              86.25581765342285,
              23.853961181876986
            ],
            [
              86.27907707969294,
              23.852534512334184
            ],
            [
              86.28365281385844,
              23.867316800659918
            ],
            [
              86.31043938371963,
              23.89087247432166
            ],
            [
              86.32384674543793,
              23.897521302349578
            ],
            [
              86.33781888200232,
              23.88198228433321
            ],
            [
              86.3304575091147,
              23.838587558004274
            ],
            [
              86.33054871922249,
              23.82996676601898
            ],
            [
              86.33227703926582,
              23.822499999999998
            ],
            [
              86.33085281946393,
              23.805741977308692
            ],
            [
              86.331956626275,
              23.7975
            ],
            [
              86.33049228269611,
              23.789299839961483
            ],
            [
              86.33050750609314,
              23.780676796889264
            ],
            [
              86.33232617062659,
              23.7725
            ],
            [
              86.33081767206643,
              23.75645862346855
            ],
            [
              86.346,
              23.634999999999994
            ],
            [
              86.33850000000001,
              23.62
            ],
            [
              86.26806622921546,
              23.62
            ],
            [
              86.26216386987905,
              23.62
            ],
            [
              86.23852958716559,
              23.62
            ],
            [
              86.19806622921548,
              23.62
            ],
            [
              86.19216386987905,
              23.62
            ],
            [
              86.16852958716558,
              23.62
            ],
            [
              86.07499999999999,
              23.62
            ]
          ],
          [
            [
              86.1408387777311,
              23.85789719443278
            ],
            [
              86.16323744962287,
              23.847344582826754
            ],
            [
              86.16633039579642,
              23.857367190951454
            ],
            [
              86.16281225707733,
              23.86339056426933
            ],
            [
              86.1408387777311,
              23.85789719443278
            ]
          ],
          [
            [
              86.233473154984,
              23.84160916427439
            ],
            [
              86.23864096685367,
              23.857632331929967
            ],
            [
              86.2327402789379,
              23.864926073917854
            ],
            [
              86.21995964147527,
              23.857373879053572
            ],
            [
              86.233473154984,
              23.84160916427439
            ]
          ]
        ]
      }
    },
    {
      "type": "Feature",
      "id": 2355,
      "properties": {
        "block_code": 2355,
        "block_name": "Baliapur",
        "district_code": 336,
        "district_name": "Dhanbad",
        "state_code": 20,
        "state_name": "Jharkhand",
        "area_sq_km": 378.16,
        "centroid_lat": 23.68598,
        "centroid_lon": 86.51002,
        "total_panchayats": 23,
        "source": "LGD / Ministry of Panchayati Raj",
        "last_updated": "2026-09-25T18:00:00Z"
      },
      "geometry": {
        "type": "Polygon",
        "coordinates": [
          [
            [
              86.346,
              23.634999999999994
            ],
            [
              86.38199197247705,
              23.670991972477047
            ],
            [
              86.39667772693933,
              23.69125524344242
            ],
            [
              86.41672860756708,
              23.70517372415309
            ],
            [
              86.43435348410759,
              23.72465385085576
            ],
            [
              86.44263835037012,
              23.74383005816003
            ],
            [
              86.47883012820513,
              23.753169871794874
            ],
            [
              86.4575,
              23.7745
            ],
            [
              86.48019387755103,
              23.780173469387755
            ],
            [
              86.48870588235295,
              23.77870588235294
            ],
            [
              86.491,
              23.781
            ],
            [
              86.52211764705882,
              23.781
            ],
            [
              86.52361663479924,
              23.779301147227535
            ],
            [
              86.55740789473684,
              23.781631578947366
            ],
            [
              86.57090747225159,
              23.767232029598308
            ],
            [
              86.58648685622317,
              23.767776287553648
            ],
            [
              86.59360294117647,
              23.753544117647067
            ],
            [
              86.62840675,
              23.746216999999994
            ],
            [
              86.62848817567567,
              23.745689671814674
            ],
            [
              86.59782608695652,
              23.72816847826087
            ],
            [
              86.62450354609929,
              23.72149911347518
            ],
            [
              86.60232529527559,
              23.70008562992126
            ],
            [
              86.62618092105264,
              23.6932697368421
            ],
            [
              86.60111067708333,
              23.673213541666673
            ],
            [
              86.63850845009823,
              23.6653403262951
            ],
            [
              86.65727009381789,
              23.62
            ],
            [
              86.595125,
              23.62
            ],
            [
              86.55572222222222,
              23.62
            ],
            [
              86.52475757575758,
              23.62
            ],
            [
              86.490125,
              23.62
            ],
            [
              86.33850000000001,
              23.62
            ],
            [
              86.346,
              23.634999999999994
            ]
          ]
        ]
      }
    },
    {
      "type": "Feature",
      "id": 2356,
      "properties": {
        "block_code": 2356,
        "block_name": "Dhanbad",
        "district_code": 336,
        "district_name": "Dhanbad",
        "state_code": 20,
        "state_name": "Jharkhand",
        "area_sq_km": 243.2,
        "centroid_lat": 23.776,
        "centroid_lon": 86.3867,
        "total_panchayats": 12,
        "source": "LGD / Ministry of Panchayati Raj",
        "last_updated": "2026-09-25T18:00:00Z"
      },
      "geometry": {
        "type": "Polygon",
        "coordinates": [
          [
            [
              86.33049228269611,
              23.789299839961483
            ],
            [
              86.331956626275,
              23.7975
            ],
            [
              86.33085281946393,
              23.805741977308692
            ],
            [
              86.33227703926582,
              23.822499999999998
            ],
            [
              86.33054871922249,
              23.82996676601898
            ],
            [
              86.3304575091147,
              23.838587558004274
            ],
            [
              86.33781888200232,
              23.88198228433321
            ],
            [
              86.3926379694182,
              23.878936779476767
            ],
            [
              86.39369845635,
              23.877499999999998
            ],
            [
              86.39441504863606,
              23.87599514115067
            ],
            [
              86.41972297674418,
              23.8591665
            ],
            [
              86.43166074418605,
              23.840833500000002
            ],
            [
              86.42816743927906,
              23.8235
            ],
            [
              86.42912869509303,
              23.822499999999998
            ],
            [
              86.43111809302326,
              23.8041665
            ],
            [
              86.4269011627907,
              23.7985
            ],
            [
              86.43736627906976,
              23.7735
            ],
            [
              86.44205137659783,
              23.770537364798425
            ],
            [
              86.4475,
              23.7745
            ],
            [
              86.45583333333333,
              23.799500000000002
            ],
            [
              86.45252789583334,
              23.8041665
            ],
            [
              86.45354616897917,
              23.822499999999998
            ],
            [
              86.45518508564584,
              23.8245
            ],
            [
              86.45155564583334,
              23.840833500000002
            ],
            [
              86.45793776824034,
              23.852615879828317
            ],
            [
              86.4730331,
              23.8418335
            ],
            [
              86.46552249445,
              23.8245
            ],
            [
              86.46758919445,
              23.823500000000003
            ],
            [
              86.4718664,
              23.8051665
            ],
            [
              86.46279999999999,
              23.799500000000002
            ],
            [
              86.48019387755103,
              23.780173469387755
            ],
            [
              86.4575,
              23.7745
            ],
            [
              86.47883012820513,
              23.753169871794874
            ],
            [
              86.44263835037012,
              23.74383005816003
            ],
            [
              86.43435348410759,
              23.72465385085576
            ],
            [
              86.41672860756708,
              23.70517372415309
            ],
            [
              86.39667772693933,
              23.69125524344242
            ],
            [
              86.38199197247705,
              23.670991972477047
            ],
            [
              86.346,
              23.634999999999994
            ],
            [
              86.33081767206643,
              23.75645862346855
            ],
            [
              86.33232617062659,
              23.7725
            ],
            [
              86.33050750609314,
              23.780676796889264
            ],
            [
              86.33049228269611,
              23.789299839961483
            ]
          ]
        ]
      }
    },
    {
      "type": "Feature",
      "id": 2363,
      "properties": {
        "block_code": 2363,
        "block_name": "Egarkund",
        "district_code": 336,
        "district_name": "Dhanbad",
        "state_code": 20,
        "state_name": "Jharkhand",
        "area_sq_km": 310.4,
        "centroid_lat": 23.7476,
        "centroid_lon": 86.83895,
        "total_panchayats": 18,
        "source": "LGD / Ministry of Panchayati Raj",
        "last_updated": "2026-09-25T18:00:00Z"
      },
      "geometry": {
        "type": "MultiPolygon",
        "coordinates": [
          [
            [
              [
                86.72241579746307,
                23.719168622111454
              ],
              [
                86.72453179393408,
                23.725803916823054
              ],
              [
                86.76461929202316,
                23.728568571863654
              ],
              [
                86.76510964739936,
                23.729973058628946
              ],
              [
                86.7655609811876,
                23.730587380331475
              ],
              [
                86.76687813744728,
                23.75366922662612
              ],
              [
                86.76462856115883,
                23.757739931330494
              ],
              [
                86.76435258698909,
                23.76043836996555
              ],
              [
                86.76813600916267,
                23.773448164928105
              ],
              [
                86.80149219736663,
                23.758624674890278
              ],
              [
                86.78002186530787,
                23.752986435568424
              ],
              [
                86.79041986086315,
                23.73282188636972
              ],
              [
                86.80071298659067,
                23.731449606847725
              ],
              [
                86.80153560243436,
                23.73252356610731
              ],
              [
                86.80455284078072,
                23.75306174872896
              ],
              [
                86.80162927669996,
                23.758630386529166
              ],
              [
                86.80440334369982,
                23.77328300842245
              ],
              [
                86.80115270867886,
                23.779956200938837
              ],
              [
                86.76820807583968,
                23.774745365114157
              ],
              [
                86.7651498165744,
                23.7828208486188
              ],
              [
                86.76861863533804,
                23.792585033844443
              ],
              [
                86.80088970708,
                23.78907341436427
              ],
              [
                86.8070236995229,
                23.80724802503975
              ],
              [
                86.83991335888399,
                23.836482966791824
              ],
              [
                86.897,
                23.942227348993278
              ],
              [
                86.897,
                23.771969155844175
              ],
              [
                86.897,
                23.75706039325842
              ],
              [
                86.897,
                23.729304775280887
              ],
              [
                86.897,
                23.62
              ],
              [
                86.83180371559986,
                23.62
              ],
              [
                86.82919897480403,
                23.62
              ],
              [
                86.80260683787859,
                23.665797358100658
              ],
              [
                86.77339098619315,
                23.692638174818594
              ],
              [
                86.76497754600062,
                23.715074219294173
              ],
              [
                86.72471696093547,
                23.71191652634787
              ],
              [
                86.72241579746307,
                23.719168622111454
              ]
            ]
          ],
          [
            [
              [
                86.731739279742,
                23.749605410893448
              ],
              [
                86.74436250000001,
                23.750370454545454
              ],
              [
                86.75403492647058,
                23.73630147058824
              ],
              [
                86.73065989077669,
                23.74233373786407
              ],
              [
                86.731739279742,
                23.749605410893448
              ]
            ]
          ],
          [
            [
              [
                86.73263505384968,
                23.77479330889092
              ],
              [
                86.72880158730159,
                23.78351256613757
              ],
              [
                86.73328522099447,
                23.79546892265194
              ],
              [
                86.72849056603773,
                23.808981132075466
              ],
              [
                86.73281250000001,
                23.817625000000007
              ],
              [
                86.76427186763355,
                23.80863660924755
              ],
              [
                86.76901850221591,
                23.81983392022733
              ],
              [
                86.80066818677494,
                23.807777651102086
              ],
              [
                86.76848332014981,
                23.797050435055937
              ],
              [
                86.76427899577729,
                23.80838949788864
              ],
              [
                86.73801288659793,
                23.79525644329897
              ],
              [
                86.76304393305438,
                23.782996338912135
              ],
              [
                86.73811179577464,
                23.7745088028169
              ],
              [
                86.75496767241381,
                23.763271551724127
              ],
              [
                86.72890827265373,
                23.758739482200678
              ],
              [
                86.73263505384968,
                23.77479330889092
              ]
            ]
          ]
        ]
      }
    },
    {
      "type": "Feature",
      "id": 2357,
      "properties": {
        "block_code": 2357,
        "block_name": "Govindpur",
        "district_code": 336,
        "district_name": "Dhanbad",
        "state_code": 20,
        "state_name": "Jharkhand",
        "area_sq_km": 310.61,
        "centroid_lat": 23.85199,
        "centroid_lon": 86.52636,
        "total_panchayats": 39,
        "source": "LGD / Ministry of Panchayati Raj",
        "last_updated": "2026-09-25T18:00:00Z"
      },
      "geometry": {
        "type": "Polygon",
        "coordinates": [
          [
            [
              86.43736627906976,
              23.7735
            ],
            [
              86.4269011627907,
              23.7985
            ],
            [
              86.43111809302326,
              23.8041665
            ],
            [
              86.42912869509303,
              23.822499999999998
            ],
            [
              86.42816743927906,
              23.8235
            ],
            [
              86.43166074418605,
              23.840833500000002
            ],
            [
              86.41972297674418,
              23.8591665
            ],
            [
              86.39441504863606,
              23.87599514115067
            ],
            [
              86.39369845635,
              23.877499999999998
            ],
            [
              86.3926379694182,
              23.878936779476767
            ],
            [
              86.40209845847441,
              23.89497861780545
            ],
            [
              86.40450025,
              23.895833500000002
            ],
            [
              86.45099315068494,
              23.926828767123283
            ],
            [
              86.45767647058824,
              23.9165
            ],
            [
              86.49017741935484,
              23.9165
            ],
            [
              86.50077139874739,
              23.932920668058454
            ],
            [
              86.52709185007853,
              23.90367572213496
            ],
            [
              86.54575420162463,
              23.910491596750713
            ],
            [
              86.5563526789816,
              23.909175914625834
            ],
            [
              86.58165990853699,
              23.92414649387395
            ],
            [
              86.58853672728013,
              23.918028454315987
            ],
            [
              86.65150640886375,
              23.902064197264803
            ],
            [
              86.65486555097235,
              23.89650419956785
            ],
            [
              86.6371527013875,
              23.8795
            ],
            [
              86.6264583125,
              23.8611665
            ],
            [
              86.6241666875,
              23.842833499999998
            ],
            [
              86.62749999313887,
              23.832833333079215
            ],
            [
              86.62472214769512,
              23.8245
            ],
            [
              86.62669426695946,
              23.807174761123306
            ],
            [
              86.62664447199973,
              23.807066584000843
            ],
            [
              86.62444429166666,
              23.8061665
            ],
            [
              86.5942182877219,
              23.773192677514796
            ],
            [
              86.59028830687278,
              23.77206248694381
            ],
            [
              86.58648685622317,
              23.767776287553648
            ],
            [
              86.57090747225159,
              23.767232029598308
            ],
            [
              86.55740789473684,
              23.781631578947366
            ],
            [
              86.52361663479924,
              23.779301147227535
            ],
            [
              86.52211764705882,
              23.781
            ],
            [
              86.491,
              23.781
            ],
            [
              86.48870588235295,
              23.77870588235294
            ],
            [
              86.48019387755103,
              23.780173469387755
            ],
            [
              86.46279999999999,
              23.799500000000002
            ],
            [
              86.4718664,
              23.8051665
            ],
            [
              86.46758919445,
              23.823500000000003
            ],
            [
              86.46552249445,
              23.8245
            ],
            [
              86.4730331,
              23.8418335
            ],
            [
              86.45793776824034,
              23.852615879828317
            ],
            [
              86.45155564583334,
              23.840833500000002
            ],
            [
              86.45518508564584,
              23.8245
            ],
            [
              86.45354616897917,
              23.822499999999998
            ],
            [
              86.45252789583334,
              23.8041665
            ],
            [
              86.45583333333333,
              23.799500000000002
            ],
            [
              86.4475,
              23.7745
            ],
            [
              86.44205137659783,
              23.770537364798425
            ],
            [
              86.43736627906976,
              23.7735
            ]
          ]
        ]
      }
    },
    {
      "type": "Feature",
      "id": 2364,
      "properties": {
        "block_code": 2364,
        "block_name": "Kaliasol",
        "district_code": 336,
        "district_name": "Dhanbad",
        "state_code": 20,
        "state_name": "Jharkhand",
        "area_sq_km": 248.47,
        "centroid_lat": 23.69028,
        "centroid_lon": 86.69952,
        "total_panchayats": 18,
        "source": "LGD / Ministry of Panchayati Raj",
        "last_updated": "2026-09-25T18:00:00Z"
      },
      "geometry": {
        "type": "MultiPolygon",
        "coordinates": [
          [
            [
              [
                86.65727009381789,
                23.62
              ],
              [
                86.63850845009823,
                23.6653403262951
              ],
              [
                86.60111067708333,
                23.673213541666673
              ],
              [
                86.62618092105264,
                23.6932697368421
              ],
              [
                86.60232529527559,
                23.70008562992126
              ],
              [
                86.62450354609929,
                23.72149911347518
              ],
              [
                86.59782608695652,
                23.72816847826087
              ],
              [
                86.62848817567567,
                23.745689671814674
              ],
              [
                86.6363863521513,
                23.72237124602946
              ],
              [
                86.63692389031434,
                23.721958302804882
              ],
              [
                86.6595891257353,
                23.746133949514302
              ],
              [
                86.64681324722022,
                23.758548638785935
              ],
              [
                86.65861646240378,
                23.77332241008468
              ],
              [
                86.6466663448233,
                23.783944471264725
              ],
              [
                86.66324775306082,
                23.80482414899313
              ],
              [
                86.67321406062513,
                23.783230150393525
              ],
              [
                86.66620084762366,
                23.77387906221091
              ],
              [
                86.67422652942176,
                23.757696938725903
              ],
              [
                86.66672246819303,
                23.745872175479157
              ],
              [
                86.68175819216015,
                23.72062663805971
              ],
              [
                86.6818192861851,
                23.720658402341822
              ],
              [
                86.69684158041551,
                23.74669744626903
              ],
              [
                86.68815678770149,
                23.75827736615423
              ],
              [
                86.69868603995991,
                23.781802561443396
              ],
              [
                86.71380723392768,
                23.759182730506026
              ],
              [
                86.70126637523161,
                23.747022201851863
              ],
              [
                86.72449012314499,
                23.727526295547975
              ],
              [
                86.73065989077669,
                23.74233373786407
              ],
              [
                86.75403492647058,
                23.73630147058824
              ],
              [
                86.76510964739936,
                23.729973058628946
              ],
              [
                86.76461929202316,
                23.728568571863654
              ],
              [
                86.72453179393408,
                23.725803916823054
              ],
              [
                86.72241579746307,
                23.719168622111454
              ],
              [
                86.72471696093547,
                23.71191652634787
              ],
              [
                86.76497754600062,
                23.715074219294173
              ],
              [
                86.77339098619315,
                23.692638174818594
              ],
              [
                86.80260683787859,
                23.665797358100658
              ],
              [
                86.82919897480403,
                23.62
              ],
              [
                86.72108159960978,
                23.62
              ],
              [
                86.68248787922774,
                23.62
              ],
              [
                86.65727009381789,
                23.62
              ]
            ]
          ],
          [
            [
              [
                86.634,
                23.785000000000004
              ],
              [
                86.62748592342342,
                23.771971846846846
              ],
              [
                86.63383850078493,
                23.758068092621663
              ],
              [
                86.62840675,
                23.746216999999994
              ],
              [
                86.59360294117647,
                23.753544117647067
              ],
              [
                86.58648685622317,
                23.767776287553648
              ],
              [
                86.59028830687278,
                23.77206248694381
              ],
              [
                86.5942182877219,
                23.773192677514796
              ],
              [
                86.62444429166666,
                23.8061665
              ],
              [
                86.62664447199973,
                23.807066584000843
              ],
              [
                86.634,
                23.785000000000004
              ]
            ]
          ],
          [
            [
              [
                86.74436250000001,
                23.750370454545454
              ],
              [
                86.731739279742,
                23.749605410893448
              ],
              [
                86.72857564191533,
                23.757952029840393
              ],
              [
                86.72890827265373,
                23.758739482200678
              ],
              [
                86.75496767241381,
                23.763271551724127
              ],
              [
                86.76435258698909,
                23.76043836996555
              ],
              [
                86.76462856115883,
                23.757739931330494
              ],
              [
                86.74436250000001,
                23.750370454545454
              ]
            ]
          ]
        ]
      }
    },
    {
      "type": "Feature",
      "id": 2359,
      "properties": {
        "block_code": 2359,
        "block_name": "Nirsa",
        "district_code": 336,
        "district_name": "Dhanbad",
        "state_code": 20,
        "state_name": "Jharkhand",
        "area_sq_km": 406.87,
        "centroid_lat": 23.85628,
        "centroid_lon": 86.75693,
        "total_panchayats": 24,
        "source": "LGD / Ministry of Panchayati Raj",
        "last_updated": "2026-09-25T18:00:00Z"
      },
      "geometry": {
        "type": "MultiPolygon",
        "coordinates": [
          [
            [
              [
                86.68175819216015,
                23.72062663805971
              ],
              [
                86.66672246819303,
                23.745872175479157
              ],
              [
                86.67422652942176,
                23.757696938725903
              ],
              [
                86.66620084762366,
                23.77387906221091
              ],
              [
                86.67321406062513,
                23.783230150393525
              ],
              [
                86.66324775306082,
                23.80482414899313
              ],
              [
                86.6466663448233,
                23.783944471264725
              ],
              [
                86.65861646240378,
                23.77332241008468
              ],
              [
                86.64681324722022,
                23.758548638785935
              ],
              [
                86.6595891257353,
                23.746133949514302
              ],
              [
                86.63692389031434,
                23.721958302804882
              ],
              [
                86.6363863521513,
                23.72237124602946
              ],
              [
                86.62848817567567,
                23.745689671814674
              ],
              [
                86.62840675,
                23.746216999999994
              ],
              [
                86.63383850078493,
                23.758068092621663
              ],
              [
                86.62748592342342,
                23.771971846846846
              ],
              [
                86.634,
                23.785000000000004
              ],
              [
                86.62664447199973,
                23.807066584000843
              ],
              [
                86.62669426695946,
                23.807174761123306
              ],
              [
                86.62472214769512,
                23.8245
              ],
              [
                86.62749999313887,
                23.832833333079215
              ],
              [
                86.6241666875,
                23.842833499999998
              ],
              [
                86.6264583125,
                23.8611665
              ],
              [
                86.6371527013875,
                23.8795
              ],
              [
                86.65486555097235,
                23.89650419956785
              ],
              [
                86.6655421686747,
                23.891759036144578
              ],
              [
                86.69775392986699,
                23.89035852478839
              ],
              [
                86.73180807248764,
                23.902333607907742
              ],
              [
                86.81615384615385,
                23.963250000000002
              ],
              [
                86.87968946266571,
                23.992231158408917
              ],
              [
                86.897,
                24.002709940652824
              ],
              [
                86.897,
                23.942227348993278
              ],
              [
                86.83991335888399,
                23.836482966791824
              ],
              [
                86.8070236995229,
                23.80724802503975
              ],
              [
                86.80088970708,
                23.78907341436427
              ],
              [
                86.76861863533804,
                23.792585033844443
              ],
              [
                86.7651498165744,
                23.7828208486188
              ],
              [
                86.76820807583968,
                23.774745365114157
              ],
              [
                86.80115270867886,
                23.779956200938837
              ],
              [
                86.80440334369982,
                23.77328300842245
              ],
              [
                86.80162927669996,
                23.758630386529166
              ],
              [
                86.80455284078072,
                23.75306174872896
              ],
              [
                86.80153560243436,
                23.73252356610731
              ],
              [
                86.80071298659067,
                23.731449606847725
              ],
              [
                86.79041986086315,
                23.73282188636972
              ],
              [
                86.78002186530787,
                23.752986435568424
              ],
              [
                86.80149219736663,
                23.758624674890278
              ],
              [
                86.76813600916267,
                23.773448164928105
              ],
              [
                86.76435258698909,
                23.76043836996555
              ],
              [
                86.75496767241381,
                23.763271551724127
              ],
              [
                86.73811179577464,
                23.7745088028169
              ],
              [
                86.76304393305438,
                23.782996338912135
              ],
              [
                86.73801288659793,
                23.79525644329897
              ],
              [
                86.76427899577729,
                23.80838949788864
              ],
              [
                86.76848332014981,
                23.797050435055937
              ],
              [
                86.80066818677494,
                23.807777651102086
              ],
              [
                86.76901850221591,
                23.81983392022733
              ],
              [
                86.76427186763355,
                23.80863660924755
              ],
              [
                86.73281250000001,
                23.817625000000007
              ],
              [
                86.72849056603773,
                23.808981132075466
              ],
              [
                86.73328522099447,
                23.79546892265194
              ],
              [
                86.72880158730159,
                23.78351256613757
              ],
              [
                86.73263505384968,
                23.77479330889092
              ],
              [
                86.72890827265373,
                23.758739482200678
              ],
              [
                86.72857564191533,
                23.757952029840393
              ],
              [
                86.731739279742,
                23.749605410893448
              ],
              [
                86.73065989077669,
                23.74233373786407
              ],
              [
                86.72449012314499,
                23.727526295547975
              ],
              [
                86.70126637523161,
                23.747022201851863
              ],
              [
                86.71380723392768,
                23.759182730506026
              ],
              [
                86.69868603995991,
                23.781802561443396
              ],
              [
                86.68815678770149,
                23.75827736615423
              ],
              [
                86.69684158041551,
                23.74669744626903
              ],
              [
                86.6818192861851,
                23.720658402341822
              ],
              [
                86.68175819216015,
                23.72062663805971
              ]
            ]
          ],
          [
            [
              [
                86.76510964739936,
                23.729973058628946
              ],
              [
                86.75403492647058,
                23.73630147058824
              ],
              [
                86.74436250000001,
                23.750370454545454
              ],
              [
                86.76462856115883,
                23.757739931330494
              ],
              [
                86.76687813744728,
                23.75366922662612
              ],
              [
                86.7655609811876,
                23.730587380331475
              ],
              [
                86.76510964739936,
                23.729973058628946
              ]
            ]
          ]
        ]
      }
    },
    {
      "type": "Feature",
      "id": 2360,
      "properties": {
        "block_code": 2360,
        "block_name": "Purvi Tundi",
        "district_code": 336,
        "district_name": "Dhanbad",
        "state_code": 20,
        "state_name": "Jharkhand",
        "area_sq_km": 644.12,
        "centroid_lat": 24.00402,
        "centroid_lon": 86.69286,
        "total_panchayats": 9,
        "source": "LGD / Ministry of Panchayati Raj",
        "last_updated": "2026-09-25T18:00:00Z"
      },
      "geometry": {
        "type": "Polygon",
        "coordinates": [
          [
            [
              86.73180807248764,
              23.902333607907742
            ],
            [
              86.69775392986699,
              23.89035852478839
            ],
            [
              86.6655421686747,
              23.891759036144578
            ],
            [
              86.65486555097235,
              23.89650419956785
            ],
            [
              86.65150640886375,
              23.902064197264803
            ],
            [
              86.58853672728013,
              23.918028454315987
            ],
            [
              86.58165990853699,
              23.92414649387395
            ],
            [
              86.5563526789816,
              23.909175914625834
            ],
            [
              86.54575420162463,
              23.910491596750713
            ],
            [
              86.52869464830815,
              23.94461070338372
            ],
            [
              86.55438309502631,
              23.96125
            ],
            [
              86.5266060847395,
              23.984030817345783
            ],
            [
              86.54948560978572,
              24.01375
            ],
            [
              86.5001858833602,
              24.04224459871015
            ],
            [
              86.486723745681,
              24.06712573603813
            ],
            [
              86.48684873949581,
              24.082
            ],
            [
              86.58091549295776,
              24.082
            ],
            [
              86.6504044117647,
              24.082
            ],
            [
              86.897,
              24.082
            ],
            [
              86.897,
              24.01575
            ],
            [
              86.897,
              24.002709940652824
            ],
            [
              86.87968946266571,
              23.992231158408917
            ],
            [
              86.81615384615385,
              23.963250000000002
            ],
            [
              86.73180807248764,
              23.902333607907742
            ]
          ]
        ]
      }
    },
    {
      "type": "Feature",
      "id": 2361,
      "properties": {
        "block_code": 2361,
        "block_name": "Topchanchi",
        "district_code": 336,
        "district_name": "Dhanbad",
        "state_code": 20,
        "state_name": "Jharkhand",
        "area_sq_km": 582.44,
        "centroid_lat": 23.96155,
        "centroid_lon": 86.18381,
        "total_panchayats": 28,
        "source": "LGD / Ministry of Panchayati Raj",
        "last_updated": "2026-09-25T18:00:00Z"
      },
      "geometry": {
        "type": "MultiPolygon",
        "coordinates": [
          [
            [
              [
                86.10708442932992,
                23.810548517940685
              ],
              [
                86.08490835168608,
                23.796617320799314
              ],
              [
                86.07499999999999,
                23.791814504305478
              ],
              [
                86.07499999999999,
                23.86531249999999
              ],
              [
                86.07499999999999,
                23.89340476190478
              ],
              [
                86.07499999999999,
                23.908523809523796
              ],
              [
                86.07499999999999,
                23.931312499999994
              ],
              [
                86.07499999999999,
                23.959404761904782
              ],
              [
                86.07499999999999,
                24.082
              ],
              [
                86.13149647887325,
                24.082
              ],
              [
                86.17777597402598,
                24.082
              ],
              [
                86.25127027027028,
                24.082
              ],
              [
                86.25984347601857,
                24.06085275915421
              ],
              [
                86.29223037714257,
                24.02412534550843
              ],
              [
                86.31625407631522,
                23.98096212316649
              ],
              [
                86.32296813491621,
                23.946027491154585
              ],
              [
                86.32118062827226,
                23.935103839441513
              ],
              [
                86.32197700394218,
                23.906168856767422
              ],
              [
                86.32384674543793,
                23.897521302349578
              ],
              [
                86.31043938371963,
                23.89087247432166
              ],
              [
                86.28365281385844,
                23.867316800659918
              ],
              [
                86.27907707969294,
                23.852534512334184
              ],
              [
                86.25581765342285,
                23.853961181876986
              ],
              [
                86.25419863487832,
                23.859417594196835
              ],
              [
                86.25728649312768,
                23.866061261577514
              ],
              [
                86.24753660022103,
                23.888161343829015
              ],
              [
                86.24661448705726,
                23.887774810756454
              ],
              [
                86.23253973188476,
                23.8692043442026
              ],
              [
                86.20974013157894,
                23.878850328947383
              ],
              [
                86.20932726700332,
                23.877818167508295
              ],
              [
                86.18661547604253,
                23.867917573710233
              ],
              [
                86.19718922202375,
                23.857783959905483
              ],
              [
                86.18617390733236,
                23.846360860971348
              ],
              [
                86.17981529739923,
                23.858914600625305
              ],
              [
                86.18529256653387,
                23.86804356509201
              ],
              [
                86.17373655213308,
                23.887654121530154
              ],
              [
                86.17183797607743,
                23.88870231350438
              ],
              [
                86.16249440901643,
                23.870171216952308
              ],
              [
                86.13404484173505,
                23.874050703399753
              ],
              [
                86.13180628571429,
                23.86767942857143
              ],
              [
                86.13468746021617,
                23.85825013020161
              ],
              [
                86.13182222397974,
                23.842651550597456
              ],
              [
                86.11900464120816,
                23.821756991733118
              ],
              [
                86.10708442932992,
                23.810548517940685
              ]
            ]
          ],
          [
            [
              [
                86.16633039579642,
                23.857367190951454
              ],
              [
                86.16323744962287,
                23.847344582826754
              ],
              [
                86.1408387777311,
                23.85789719443278
              ],
              [
                86.16281225707733,
                23.86339056426933
              ],
              [
                86.16633039579642,
                23.857367190951454
              ]
            ]
          ],
          [
            [
              [
                86.2327402789379,
                23.864926073917854
              ],
              [
                86.23864096685367,
                23.857632331929967
              ],
              [
                86.233473154984,
                23.84160916427439
              ],
              [
                86.21995964147527,
                23.857373879053572
              ],
              [
                86.2327402789379,
                23.864926073917854
              ]
            ]
          ]
        ]
      }
    },
    {
      "type": "Feature",
      "id": 2362,
      "properties": {
        "block_code": 2362,
        "block_name": "Tundi",
        "district_code": 336,
        "district_name": "Dhanbad",
        "state_code": 20,
        "state_name": "Jharkhand",
        "area_sq_km": 455.65,
        "centroid_lat": 23.99316,
        "centroid_lon": 86.4082,
        "total_panchayats": 14,
        "source": "LGD / Ministry of Panchayati Raj",
        "last_updated": "2026-09-25T18:00:00Z"
      },
      "geometry": {
        "type": "Polygon",
        "coordinates": [
          [
            [
              86.31625407631522,
              23.98096212316649
            ],
            [
              86.29223037714257,
              24.02412534550843
            ],
            [
              86.25984347601857,
              24.06085275915421
            ],
            [
              86.25127027027028,
              24.082
            ],
            [
              86.40068627450981,
              24.082
            ],
            [
              86.48684873949581,
              24.082
            ],
            [
              86.486723745681,
              24.06712573603813
            ],
            [
              86.5001858833602,
              24.04224459871015
            ],
            [
              86.54948560978572,
              24.01375
            ],
            [
              86.5266060847395,
              23.984030817345783
            ],
            [
              86.55438309502631,
              23.96125
            ],
            [
              86.52869464830815,
              23.94461070338372
            ],
            [
              86.54575420162463,
              23.910491596750713
            ],
            [
              86.52709185007853,
              23.90367572213496
            ],
            [
              86.50077139874739,
              23.932920668058454
            ],
            [
              86.49017741935484,
              23.9165
            ],
            [
              86.45767647058824,
              23.9165
            ],
            [
              86.45099315068494,
              23.926828767123283
            ],
            [
              86.40450025,
              23.895833500000002
            ],
            [
              86.40209845847441,
              23.89497861780545
            ],
            [
              86.3926379694182,
              23.878936779476767
            ],
            [
              86.33781888200232,
              23.88198228433321
            ],
            [
              86.32384674543793,
              23.897521302349578
            ],
            [
              86.32197700394218,
              23.906168856767422
            ],
            [
              86.32118062827226,
              23.935103839441513
            ],
            [
              86.32296813491621,
              23.946027491154585
            ],
            [
              86.31625407631522,
              23.98096212316649
            ]
          ]
        ]
      }
    }
  ]
}