{
  "type": "FeatureCollection",
  "name": "Rajasthan_Districts",
  "features": [
    {
      "type": "Feature",
      "id": 99,
      "properties": {
        "district_code": 99,
        "district_name": "Ajmer",
        "state_code": 8,
        "state_name": "Rajasthan",
        "is_pilot": false,
        "total_blocks": 5,
        "total_gps": 25,
        "centroid_lat": 26.4499,
        "centroid_lon": 74.6399
      },
      "geometry": {
        "type": "Polygon",
        "coordinates": [
          [
            [
              75.03281,
              26.45035
            ],
            [
              75.08158,
              26.55684
            ],
            [
              75.00358,
              26.63936
            ],
            [
              74.92924,
              26.71093
            ],
            [
              74.82563,
              26.7405
            ],
            [
              74.72386,
              26.73445
            ],
            [
              74.63887,
              26.77891
            ],
            [
              74.55169,
              26.74216
            ],
            [
              74.44607,
              26.74923
            ],
            [
              74.35455,
              26.70446
            ],
            [
              74.2647,
              26.64281
            ],
            [
              74.20984,
              26.55173
            ],
            [
              74.24167,
              26.44834
            ],
            [
              74.304,
              26.36752
            ],
            [
              74.36639,
              26.3064
            ],
            [
              74.41514,
              26.24591
            ],
            [
              74.45327,
              26.15617
            ],
            [
              74.52056,
              26.04301
            ],
            [
              74.64125,
              26.0119
            ],
            [
              74.75875,
              26.05362
            ],
            [
              74.81506,
              26.17781
            ],
            [
              74.85606,
              26.25592
            ],
            [
              74.90155,
              26.3144
            ],
            [
              74.98118,
              26.36804
            ],
            [
              75.03281,
              26.45035
            ]
          ]
        ]
      }
    },
    {
      "type": "Feature",
      "id": 100,
      "properties": {
        "district_code": 100,
        "district_name": "Alwar",
        "state_code": 8,
        "state_name": "Rajasthan",
        "is_pilot": false,
        "total_blocks": 6,
        "total_gps": 30,
        "centroid_lat": 27.553,
        "centroid_lon": 76.6346
      },
      "geometry": {
        "type": "Polygon",
        "coordinates": [
          [
            [
              77.04511,
              27.54756
            ],
            [
              77.08967,
              27.65511
            ],
            [
              77.0246,
              27.7467
            ],
            [
              76.93397,
              27.8119
            ],
            [
              76.82605,
              27.83881
            ],
            [
              76.73067,
              27.85551
            ],
            [
              76.63909,
              27.85388
            ],
            [
              76.54306,
              27.87352
            ],
            [
              76.45492,
              27.83821
            ],
            [
              76.35546,
              27.8076
            ],
            [
              76.24204,
              27.76028
            ],
            [
              76.21249,
              27.65841
            ],
            [
              76.23164,
              27.55716
            ],
            [
              76.30895,
              27.47888
            ],
            [
              76.38272,
              27.42693
            ],
            [
              76.43156,
              27.37631
            ],
            [
              76.4534,
              27.28078
            ],
            [
              76.51811,
              27.18363
            ],
            [
              76.62814,
              27.11199
            ],
            [
              76.74458,
              27.1656
            ],
            [
              76.82268,
              27.2527
            ],
            [
              76.85937,
              27.34676
            ],
            [
              76.89226,
              27.41594
            ],
            [
              76.96395,
              27.46973
            ],
            [
              77.04511,
              27.54756
            ]
          ]
        ]
      }
    },
    {
      "type": "Feature",
      "id": 101,
      "properties": {
        "district_code": 101,
        "district_name": "Bikaner",
        "state_code": 8,
        "state_name": "Rajasthan",
        "is_pilot": false,
        "total_blocks": 6,
        "total_gps": 25,
        "centroid_lat": 28.0229,
        "centroid_lon": 73.3119
      },
      "geometry": {
        "type": "Polygon",
        "coordinates": [
          [
            [
              73.86451,
              28.02858
            ],
            [
              73.89527,
              28.1679
            ],
            [
              73.79212,
              28.27546
            ],
            [
              73.67262,
              28.35055
            ],
            [
              73.53869,
              28.38156
            ],
            [
              73.4271,
              28.42527
            ],
            [
              73.30549,
              28.42933
            ],
            [
              73.17847,
              28.43966
            ],
            [
              73.06493,
              28.38909
            ],
            [
              72.91033,
              28.36775
            ],
            [
              72.79573,
              28.27735
            ],
            [
              72.70704,
              28.15726
            ],
            [
              72.76741,
              28.01513
            ],
            [
              72.86856,
              27.9108
            ],
            [
              72.99117,
              27.85265
            ],
            [
              73.04422,
              27.7779
            ],
            [
              73.06223,
              27.62497
            ],
            [
              73.17022,
              27.52414
            ],
            [
              73.3208,
              27.44416
            ],
            [
              73.48001,
              27.49253
            ],
            [
              73.57626,
              27.62749
            ],
            [
              73.61731,
              27.75826
            ],
            [
              73.66929,
              27.84483
            ],
            [
              73.73453,
              27.92721
            ],
            [
              73.86451,
              28.02858
            ]
          ]
        ]
      }
    },
    {
      "type": "Feature",
      "id": 107,
      "properties": {
        "district_code": 107,
        "district_name": "Jaipur",
        "state_code": 8,
        "state_name": "Rajasthan",
        "is_pilot": true,
        "total_blocks": 6,
        "total_gps": 40,
        "centroid_lat": 26.9124,
        "centroid_lon": 75.7873
      },
      "geometry": {
        "type": "Polygon",
        "coordinates": [
          [
            [
              76.2229,
              26.9093
            ],
            [
              76.2109,
              27.0109
            ],
            [
              76.17633,
              27.10997
            ],
            [
              76.088,
              27.17767
            ],
            [
              75.98351,
              27.21177
            ],
            [
              75.88614,
              27.23403
            ],
            [
              75.78955,
              27.23408
            ],
            [
              75.70364,
              27.19872
            ],
            [
              75.59693,
              27.21139
            ],
            [
              75.50735,
              27.16567
            ],
            [
              75.40063,
              27.11453
            ],
            [
              75.35181,
              27.01885
            ],
            [
              75.36853,
              26.91411
            ],
            [
              75.46096,
              26.83553
            ],
            [
              75.52359,
              26.77745
            ],
            [
              75.55573,
              26.70679
            ],
            [
              75.59151,
              26.61176
            ],
            [
              75.67116,
              26.53188
            ],
            [
              75.7843,
              26.47472
            ],
            [
              75.8957,
              26.53928
            ],
            [
              75.9656,
              26.63073
            ],
            [
              76.00849,
              26.7111
            ],
            [
              76.06352,
              26.76692
            ],
            [
              76.1059,
              26.83355
            ],
            [
              76.2229,
              26.9093
            ]
          ]
        ]
      }
    },
    {
      "type": "Feature",
      "id": 108,
      "properties": {
        "district_code": 108,
        "district_name": "Jaisalmer",
        "state_code": 8,
        "state_name": "Rajasthan",
        "is_pilot": false,
        "total_blocks": 4,
        "total_gps": 20,
        "centroid_lat": 26.9157,
        "centroid_lon": 70.9083
      },
      "geometry": {
        "type": "Polygon",
        "coordinates": [
          [
            [
              71.45486,
              26.93051
            ],
            [
              71.47216,
              27.06754
            ],
            [
              71.37124,
              27.17229
            ],
            [
              71.25415,
              27.2452
            ],
            [
              71.13002,
              27.28602
            ],
            [
              71.009,
              27.30125
            ],
            [
              70.89377,
              27.31382
            ],
            [
              70.78051,
              27.2922
            ],
            [
              70.63893,
              27.30255
            ],
            [
              70.52433,
              27.23674
            ],
            [
              70.38027,
              27.16728
            ],
            [
              70.31495,
              27.03849
            ],
            [
              70.36445,
              26.89886
            ],
            [
              70.48858,
              26.80099
            ],
            [
              70.58776,
              26.73655
            ],
            [
              70.65535,
              26.67309
            ],
            [
              70.69328,
              26.55425
            ],
            [
              70.77659,
              26.40846
            ],
            [
              70.92786,
              26.3665
            ],
            [
              71.08458,
              26.39102
            ],
            [
              71.17576,
              26.52806
            ],
            [
              71.17737,
              26.68886
            ],
            [
              71.25136,
              26.75048
            ],
            [
              71.35765,
              26.82081
            ],
            [
              71.45486,
              26.93051
            ]
          ]
        ]
      }
    },
    {
      "type": "Feature",
      "id": 109,
      "properties": {
        "district_code": 109,
        "district_name": "Jodhpur",
        "state_code": 8,
        "state_name": "Rajasthan",
        "is_pilot": false,
        "total_blocks": 8,
        "total_gps": 35,
        "centroid_lat": 26.2389,
        "centroid_lon": 73.0243
      },
      "geometry": {
        "type": "Polygon",
        "coordinates": [
          [
            [
              73.44053,
              26.24402
            ],
            [
              73.44362,
              26.34573
            ],
            [
              73.38476,
              26.43249
            ],
            [
              73.29344,
              26.48837
            ],
            [
              73.2132,
              26.54376
            ],
            [
              73.11019,
              26.54593
            ],
            [
              73.0188,
              26.56134
            ],
            [
              72.92476,
              26.55357
            ],
            [
              72.82496,
              26.53861
            ],
            [
              72.72247,
              26.50196
            ],
            [
              72.66179,
              26.42029
            ],
            [
              72.60996,
              26.33225
            ],
            [
              72.63335,
              26.23299
            ],
            [
              72.68684,
              26.15191
            ],
            [
              72.75934,
              26.09564
            ],
            [
              72.81674,
              26.04547
            ],
            [
              72.84375,
              25.94588
            ],
            [
              72.91158,
              25.83372
            ],
            [
              73.03127,
              25.82228
            ],
            [
              73.14868,
              25.8429
            ],
            [
              73.20968,
              25.95843
            ],
            [
              73.22597,
              26.06207
            ],
            [
              73.28584,
              26.10708
            ],
            [
              73.3478,
              26.16506
            ],
            [
              73.44053,
              26.24402
            ]
          ]
        ]
      }
    },
    {
      "type": "Feature",
      "id": 112,
      "properties": {
        "district_code": 112,
        "district_name": "Kota",
        "state_code": 8,
        "state_name": "Rajasthan",
        "is_pilot": false,
        "total_blocks": 5,
        "total_gps": 25,
        "centroid_lat": 25.2138,
        "centroid_lon": 75.8648
      },
      "geometry": {
        "type": "Polygon",
        "coordinates": [
          [
            [
              76.27951,
              25.21079
            ],
            [
              76.27685,
              25.311
            ],
            [
              76.22357,
              25.39872
            ],
            [
              76.15755,
              25.47584
            ],
            [
              76.0519,
              25.50344
            ],
            [
              75.95781,
              25.52077
            ],
            [
              75.86691,
              25.51
            ],
            [
              75.78075,
              25.50598
            ],
            [
              75.69434,
              25.48573
            ],
            [
              75.59145,
              25.46493
            ],
            [
              75.49863,
              25.40823
            ],
            [
              75.4533,
              25.31603
            ],
            [
              75.45677,
              25.21562
            ],
            [
              75.54834,
              25.13825
            ],
            [
              75.60702,
              25.08003
            ],
            [
              75.66509,
              25.03404
            ],
            [
              75.67981,
              24.92578
            ],
            [
              75.75184,
              24.83868
            ],
            [
              75.86172,
              24.77271
            ],
            [
              75.9728,
              24.83635
            ],
            [
              76.04672,
              24.92207
            ],
            [
              76.07805,
              25.01683
            ],
            [
              76.12377,
              25.07538
            ],
            [
              76.1855,
              25.13322
            ],
            [
              76.27951,
              25.21079
            ]
          ]
        ]
      }
    },
    {
      "type": "Feature",
      "id": 120,
      "properties": {
        "district_code": 120,
        "district_name": "Sikar",
        "state_code": 8,
        "state_name": "Rajasthan",
        "is_pilot": false,
        "total_blocks": 5,
        "total_gps": 25,
        "centroid_lat": 27.6094,
        "centroid_lon": 75.1399
      },
      "geometry": {
        "type": "Polygon",
        "coordinates": [
          [
            [
              75.54914,
              27.60838
            ],
            [
              75.5853,
              27.71441
            ],
            [
              75.53859,
              27.81296
            ],
            [
              75.4281,
              27.86465
            ],
            [
              75.32586,
              27.89469
            ],
            [
              75.22683,
              27.8963
            ],
            [
              75.14031,
              27.92598
            ],
            [
              75.04449,
              27.92707
            ],
            [
              74.96084,
              27.88559
            ],
            [
              74.86629,
              27.85287
            ],
            [
              74.75144,
              27.8088
            ],
            [
              74.71172,
              27.71131
            ],
            [
              74.71755,
              27.60918
            ],
            [
              74.80377,
              27.52907
            ],
            [
              74.86793,
              27.46944
            ],
            [
              74.92702,
              27.4197
            ],
            [
              74.96166,
              27.3343
            ],
            [
              75.02093,
              27.2142
            ],
            [
              75.13934,
              27.16243
            ],
            [
              75.25209,
              27.23341
            ],
            [
              75.33118,
              27.31256
            ],
            [
              75.3595,
              27.41281
            ],
            [
              75.38019,
              27.48514
            ],
            [
              75.46901,
              27.53004
            ],
            [
              75.54914,
              27.60838
            ]
          ]
        ]
      }
    },
    {
      "type": "Feature",
      "id": 122,
      "properties": {
        "district_code": 122,
        "district_name": "Udaipur",
        "state_code": 8,
        "state_name": "Rajasthan",
        "is_pilot": false,
        "total_blocks": 7,
        "total_gps": 30,
        "centroid_lat": 24.5854,
        "centroid_lon": 73.7125
      },
      "geometry": {
        "type": "Polygon",
        "coordinates": [
          [
            [
              74.0971,
              24.5882
            ],
            [
              74.13649,
              24.6925
            ],
            [
              74.06296,
              24.77376
            ],
            [
              74.00203,
              24.85431
            ],
            [
              73.89991,
              24.88792
            ],
            [
              73.80375,
              24.90808
            ],
            [
              73.70948,
              24.8781
            ],
            [
              73.62472,
              24.87339
            ],
            [
              73.52073,
              24.8818
            ],
            [
              73.4252,
              24.84241
            ],
            [
              73.34684,
              24.77355
            ],
            [
              73.28136,
              24.68639
            ],
            [
              73.31707,
              24.5815
            ],
            [
              73.37725,
              24.49975
            ],
            [
              73.46077,
              24.44927
            ],
            [
              73.51211,
              24.3983
            ],
            [
              73.53655,
              24.29989
            ],
            [
              73.59917,
              24.18244
            ],
            [
              73.71674,
              24.16555
            ],
            [
              73.82524,
              24.21332
            ],
            [
              73.89315,
              24.3046
            ],
            [
              73.93195,
              24.38797
            ],
            [
              73.97933,
              24.44716
            ],
            [
              74.05757,
              24.50355
            ],
            [
              74.0971,
              24.5882
            ]
          ]
        ]
      }
    }
  ]
}