{"type": "FeatureCollection", "features": [{"type": "Feature", "properties": {"state": "Madhya Pradesh", "district": "Betul", "block": "Betul", "gp_name": "Betul Gram Panchayat", "state_code": 23, "district_code": 391, "block_code": 3400, "gp_code": 133051, "centroid_lat": 21.89, "centroid_lon": 78.086, "area_sq_km": 4.6, "boundary_source": "LGD Revenue Village Centroids + Block-Bounded Voronoi Tessellation", "boundary_quality": "DERIVED"}, "geometry": {"type": "Polygon", "coordinates": [[[78.0985, 21.88976], [78.0983, 21.89449], [78.09496, 21.89803], [78.09046, 21.89951], [78.08622, 21.90015], [78.08206, 21.8994], [78.0777, 21.89807], [78.07427, 21.89479], [78.07414, 21.89022], [78.07898, 21.88371], [78.08096, 21.87926], [78.08573, 21.8774], [78.09057, 21.8791], [78.09306, 21.88314], [78.0985, 21.88976]]]}}, {"type": "Feature", "properties": {"state": "Madhya Pradesh", "district": "Betul", "block": "Betul", "gp_name": "Betul Rural", "state_code": 23, "district_code": 391, "block_code": 3400, "gp_code": 133052, "centroid_lat": 21.91, "centroid_lon": 78.066, "area_sq_km": 4.7, "boundary_source": "LGD Revenue Village Centroids + Block-Bounded Voronoi Tessellation", "boundary_quality": "DERIVED"}, "geometry": {"type": "Polygon", "coordinates": [[[78.07853, 21.90977], [78.07835, 21.91451], [78.07496, 21.91804], [78.07042, 21.91942], [78.0619, 21.9198], [78.05757, 21.91819], [78.05417, 21.91483], [78.05355, 21.91023], [78.06119, 21.89975], [78.06572, 21.89691], [78.07048, 21.8993], [78.07278, 21.90341], [78.07853, 21.90977]]]}}, {"type": "Feature", "properties": {"state": "Madhya Pradesh", "district": "Betul", "block": "Amla", "gp_name": "Amla Gram Panchayat", "state_code": 23, "district_code": 391, "block_code": 3401, "gp_code": 133053, "centroid_lat": 22.0286, "centroid_lon": 77.998, "area_sq_km": 4.8, "boundary_source": "LGD Revenue Village Centroids + Block-Bounded Voronoi Tessellation", "boundary_quality": "DERIVED"}, "geometry": {"type": "Polygon", "coordinates": [[[78.01031, 22.02837], [78.00993, 22.03295], [78.00667, 22.03637], [78.00236, 22.0379], [77.99821, 22.03842], [77.99397, 22.0382], [77.9894, 22.03694], [77.98615, 22.03343], [77.98574, 22.02882], [77.99111, 22.02242], [77.99317, 22.01831], [77.99773, 22.01588], [78.00243, 22.01804], [78.01031, 22.02837]]]}}, {"type": "Feature", "properties": {"state": "Madhya Pradesh", "district": "Betul", "block": "Amla", "gp_name": "Amla Rural", "state_code": 23, "district_code": 391, "block_code": 3401, "gp_code": 133054, "centroid_lat": 22.0486, "centroid_lon": 77.978, "area_sq_km": 4.9, "boundary_source": "LGD Revenue Village Centroids + Block-Bounded Voronoi Tessellation", "boundary_quality": "DERIVED"}, "geometry": {"type": "Polygon", "coordinates": [[[77.99047, 22.04837], [77.99001, 22.05298], [77.98689, 22.05657], [77.98239, 22.05795], [77.97405, 22.058], [77.96966, 22.05668], [77.96581, 22.05357], [77.96558, 22.04883], [77.97314, 22.03823], [77.97773, 22.0355], [77.98248, 22.03793], [77.98733, 22.0448], [77.99047, 22.04837]]]}}, {"type": "Feature", "properties": {"state": "Madhya Pradesh", "district": "Betul", "block": "Bhainsdehi", "gp_name": "Bhainsdehi Gram Panchayat", "state_code": 23, "district_code": 391, "block_code": 3402, "gp_code": 133055, "centroid_lat": 22.0286, "centroid_lon": 77.822, "area_sq_km": 5.0, "boundary_source": "LGD Revenue Village Centroids + Block-Bounded Voronoi Tessellation", "boundary_quality": "DERIVED"}, "geometry": {"type": "Polygon", "coordinates": [[[77.83432, 22.02839], [77.83439, 22.03314], [77.83078, 22.03649], [77.82633, 22.03786], [77.81798, 22.03815], [77.81374, 22.03659], [77.81021, 22.03339], [77.80998, 22.02881], [77.81282, 22.02524], [77.81709, 22.01811], [77.82175, 22.01593], [77.82657, 22.01775], [77.82901, 22.02182], [77.83432, 22.02839]]]}}, {"type": "Feature", "properties": {"state": "Madhya Pradesh", "district": "Betul", "block": "Bhainsdehi", "gp_name": "Bhainsdehi Rural", "state_code": 23, "district_code": 391, "block_code": 3402, "gp_code": 133056, "centroid_lat": 22.0486, "centroid_lon": 77.802, "area_sq_km": 5.1, "boundary_source": "LGD Revenue Village Centroids + Block-Bounded Voronoi Tessellation", "boundary_quality": "DERIVED"}, "geometry": {"type": "Polygon", "coordinates": [[[77.81452, 22.04839], [77.81395, 22.05298], [77.81054, 22.05627], [77.80653, 22.05828], [77.8022, 22.05869], [77.79348, 22.05684], [77.7902, 22.0534], [77.78949, 22.04881], [77.79273, 22.0452], [77.797, 22.0379], [77.80174, 22.03554], [77.80642, 22.03812], [77.81452, 22.04839]]]}}, {"type": "Feature", "properties": {"state": "Madhya Pradesh", "district": "Betul", "block": "Chicholi", "gp_name": "Chicholi Gram Panchayat", "state_code": 23, "district_code": 391, "block_code": 3403, "gp_code": 133057, "centroid_lat": 21.89, "centroid_lon": 77.734, "area_sq_km": 5.2, "boundary_source": "LGD Revenue Village Centroids + Block-Bounded Voronoi Tessellation", "boundary_quality": "DERIVED"}, "geometry": {"type": "Polygon", "coordinates": [[[77.74608, 21.8898], [77.74607, 21.89443], [77.74282, 21.89795], [77.73829, 21.89919], [77.73419, 21.9], [77.72987, 21.8998], [77.72565, 21.89807], [77.72222, 21.89478], [77.72197, 21.8902], [77.72432, 21.88644], [77.72923, 21.87977], [77.73376, 21.87716], [77.73843, 21.8795], [77.74083, 21.88339], [77.74608, 21.8898]]]}}, {"type": "Feature", "properties": {"state": "Madhya Pradesh", "district": "Betul", "block": "Chicholi", "gp_name": "Chicholi Rural", "state_code": 23, "district_code": 391, "block_code": 3403, "gp_code": 133058, "centroid_lat": 21.91, "centroid_lon": 77.714, "area_sq_km": 5.3, "boundary_source": "LGD Revenue Village Centroids + Block-Bounded Voronoi Tessellation", "boundary_quality": "DERIVED"}, "geometry": {"type": "Polygon", "coordinates": [[[77.72598, 21.9098], [77.72616, 21.91447], [77.72263, 21.91777], [77.7183, 21.91923], [77.71418, 21.91975], [77.70999, 21.91952], [77.7057, 21.91802], [77.70207, 21.91484], [77.70195, 21.9102], [77.70694, 21.90364], [77.70923, 21.89978], [77.71376, 21.8971], [77.71848, 21.89937], [77.72084, 21.90339], [77.72355, 21.90612], [77.72598, 21.9098]]]}}, {"type": "Feature", "properties": {"state": "Madhya Pradesh", "district": "Betul", "block": "Multai", "gp_name": "Multai Gram Panchayat", "state_code": 23, "district_code": 391, "block_code": 3404, "gp_code": 133059, "centroid_lat": 21.7514, "centroid_lon": 77.822, "area_sq_km": 5.4, "boundary_source": "LGD Revenue Village Centroids + Block-Bounded Voronoi Tessellation", "boundary_quality": "DERIVED"}, "geometry": {"type": "Polygon", "coordinates": [[[77.8345, 21.75119], [77.83436, 21.75594], [77.83082, 21.75934], [77.8265, 21.76105], [77.81789, 21.76118], [77.81338, 21.75975], [77.81024, 21.75619], [77.8095, 21.75161], [77.81285, 21.74804], [77.81717, 21.74104], [77.82175, 21.73854], [77.82654, 21.7406], [77.82872, 21.74488], [77.8345, 21.75119]]]}}, {"type": "Feature", "properties": {"state": "Madhya Pradesh", "district": "Betul", "block": "Multai", "gp_name": "Multai Rural", "state_code": 23, "district_code": 391, "block_code": 3404, "gp_code": 133060, "centroid_lat": 21.7714, "centroid_lon": 77.802, "area_sq_km": 5.5, "boundary_source": "LGD Revenue Village Centroids + Block-Bounded Voronoi Tessellation", "boundary_quality": "DERIVED"}, "geometry": {"type": "Polygon", "coordinates": [[[77.8145, 21.77119], [77.81402, 21.77581], [77.8106, 21.77915], [77.80634, 21.7807], [77.79788, 21.7812], [77.79368, 21.77946], [77.78976, 21.77638], [77.79003, 21.7716], [77.79717, 21.76105], [77.80175, 21.75853], [77.80657, 21.76054], [77.80863, 21.76497], [77.8145, 21.77119]]]}}, {"type": "Feature", "properties": {"state": "Madhya Pradesh", "district": "Betul", "block": "Shahpur", "gp_name": "Shahpur Gram Panchayat", "state_code": 23, "district_code": 391, "block_code": 3405, "gp_code": 133061, "centroid_lat": 21.7514, "centroid_lon": 77.998, "area_sq_km": 5.6, "boundary_source": "LGD Revenue Village Centroids + Block-Bounded Voronoi Tessellation", "boundary_quality": "DERIVED"}, "geometry": {"type": "Polygon", "coordinates": [[[78.01027, 21.75118], [78.0102, 21.75586], [78.00666, 21.75918], [77.99821, 21.76157], [77.99399, 21.76097], [77.98972, 21.75944], [77.98585, 21.75636], [77.98592, 21.75162], [77.99094, 21.74505], [77.99298, 21.74067], [77.99774, 21.73868], [78.00238, 21.74095], [78.01027, 21.75118]]]}}, {"type": "Feature", "properties": {"state": "Madhya Pradesh", "district": "Betul", "block": "Shahpur", "gp_name": "Shahpur Rural", "state_code": 23, "district_code": 391, "block_code": 3405, "gp_code": 133062, "centroid_lat": 21.7714, "centroid_lon": 77.978, "area_sq_km": 5.7, "boundary_source": "LGD Revenue Village Centroids + Block-Bounded Voronoi Tessellation", "boundary_quality": "DERIVED"}, "geometry": {"type": "Polygon", "coordinates": [[[77.98992, 21.77118], [77.98999, 21.77579], [77.98687, 21.77937], [77.98251, 21.78105], [77.97391, 21.78114], [77.96977, 21.77939], [77.96593, 21.77632], [77.96589, 21.77162], [77.97104, 21.76515], [77.97321, 21.76116], [77.97773, 21.75829], [77.98257, 21.7605], [77.985, 21.7646], [77.98992, 21.77118]]]}}]}