{"type": "FeatureCollection", "features": [{"type": "Feature", "properties": {"state": "Madhya Pradesh", "district": "Chhindwara", "block": "Chhindwara", "gp_name": "Chhindwara Gram Panchayat", "state_code": 23, "district_code": 395, "block_code": 3500, "gp_code": 133095, "centroid_lat": 22.04, "centroid_lon": 79.116, "area_sq_km": 9.0, "boundary_source": "LGD Revenue Village Centroids + Block-Bounded Voronoi Tessellation", "boundary_quality": "DERIVED"}, "geometry": {"type": "Polygon", "coordinates": [[[79.12815, 22.03969], [79.12838, 22.04442], [79.12472, 22.0477], [79.12049, 22.04938], [79.11629, 22.05016], [79.11203, 22.04966], [79.10764, 22.04823], [79.10398, 22.045], [79.10406, 22.0403], [79.109, 22.03382], [79.11101, 22.02958], [79.11563, 22.02727], [79.12028, 22.02958], [79.12815, 22.03969]]]}}, {"type": "Feature", "properties": {"state": "Madhya Pradesh", "district": "Chhindwara", "block": "Chhindwara", "gp_name": "Chhindwara Rural", "state_code": 23, "district_code": 395, "block_code": 3500, "gp_code": 133096, "centroid_lat": 22.06, "centroid_lon": 79.096, "area_sq_km": 9.1, "boundary_source": "LGD Revenue Village Centroids + Block-Bounded Voronoi Tessellation", "boundary_quality": "DERIVED"}, "geometry": {"type": "Polygon", "coordinates": [[[79.10851, 22.05969], [79.10826, 22.06438], [79.10473, 22.06771], [79.10044, 22.06927], [79.09629, 22.07001], [79.09219, 22.06928], [79.0878, 22.06806], [79.08399, 22.06499], [79.08385, 22.0603], [79.08685, 22.05673], [79.0911, 22.04977], [79.09562, 22.04694], [79.10027, 22.0496], [79.10497, 22.05627], [79.10851, 22.05969]]]}}, {"type": "Feature", "properties": {"state": "Madhya Pradesh", "district": "Chhindwara", "block": "Amarwara", "gp_name": "Amarwara Gram Panchayat", "state_code": 23, "district_code": 395, "block_code": 3501, "gp_code": 133097, "centroid_lat": 22.1786, "centroid_lon": 79.028, "area_sq_km": 9.2, "boundary_source": "LGD Revenue Village Centroids + Block-Bounded Voronoi Tessellation", "boundary_quality": "DERIVED"}, "geometry": {"type": "Polygon", "coordinates": [[[79.03993, 22.1783], [79.03993, 22.18286], [79.03706, 22.1866], [79.03241, 22.18782], [79.02829, 22.18867], [79.024, 22.18831], [79.01952, 22.18693], [79.0158, 22.18366], [79.01603, 22.1789], [79.02302, 22.1682], [79.02763, 22.16548], [79.03234, 22.16806], [79.03469, 22.17203], [79.03742, 22.17469], [79.03993, 22.1783]]]}}, {"type": "Feature", "properties": {"state": "Madhya Pradesh", "district": "Chhindwara", "block": "Amarwara", "gp_name": "Amarwara Rural", "state_code": 23, "district_code": 395, "block_code": 3501, "gp_code": 133098, "centroid_lat": 22.1986, "centroid_lon": 79.008, "area_sq_km": 9.3, "boundary_source": "LGD Revenue Village Centroids + Block-Bounded Voronoi Tessellation", "boundary_quality": "DERIVED"}, "geometry": {"type": "Polygon", "coordinates": [[[79.02035, 22.1983], [79.02006, 22.20291], [79.01667, 22.20626], [79.0126, 22.20821], [79.00829, 22.20862], [79.00407, 22.20815], [78.99982, 22.20663], [78.99586, 22.20364], [78.99586, 22.1989], [79.0031, 22.18837], [79.00764, 22.186], [79.01245, 22.18781], [79.01467, 22.19205], [79.02035, 22.1983]]]}}, {"type": "Feature", "properties": {"state": "Madhya Pradesh", "district": "Chhindwara", "block": "Chaurai", "gp_name": "Chaurai Gram Panchayat", "state_code": 23, "district_code": 395, "block_code": 3502, "gp_code": 133099, "centroid_lat": 22.1786, "centroid_lon": 78.852, "area_sq_km": 9.4, "boundary_source": "LGD Revenue Village Centroids + Block-Bounded Voronoi Tessellation", "boundary_quality": "DERIVED"}, "geometry": {"type": "Polygon", "coordinates": [[[78.86428, 22.17831], [78.86416, 22.18296], [78.86073, 22.18633], [78.85639, 22.1878], [78.84795, 22.1884], [78.84379, 22.18664], [78.83979, 22.18365], [78.83987, 22.17889], [78.8449, 22.17232], [78.84717, 22.16848], [78.85165, 22.16579], [78.85647, 22.16777], [78.85862, 22.17211], [78.86151, 22.17467], [78.86428, 22.17831]]]}}, {"type": "Feature", "properties": {"state": "Madhya Pradesh", "district": "Chhindwara", "block": "Chaurai", "gp_name": "Chaurai Rural", "state_code": 23, "district_code": 395, "block_code": 3502, "gp_code": 133100, "centroid_lat": 22.1986, "centroid_lon": 78.832, "area_sq_km": 4.5, "boundary_source": "LGD Revenue Village Centroids + Block-Bounded Voronoi Tessellation", "boundary_quality": "DERIVED"}, "geometry": {"type": "Polygon", "coordinates": [[[78.84402, 22.19832], [78.84432, 22.20302], [78.84103, 22.20659], [78.83655, 22.20814], [78.83227, 22.20867], [78.82797, 22.20835], [78.82356, 22.20686], [78.81974, 22.20367], [78.81946, 22.1989], [78.82506, 22.19246], [78.82691, 22.18794], [78.83164, 22.18551], [78.83637, 22.18803], [78.83885, 22.19189], [78.84402, 22.19832]]]}}, {"type": "Feature", "properties": {"state": "Madhya Pradesh", "district": "Chhindwara", "block": "Jamai", "gp_name": "Jamai Gram Panchayat", "state_code": 23, "district_code": 395, "block_code": 3503, "gp_code": 133101, "centroid_lat": 22.04, "centroid_lon": 78.764, "area_sq_km": 4.6, "boundary_source": "LGD Revenue Village Centroids + Block-Bounded Voronoi Tessellation", "boundary_quality": "DERIVED"}, "geometry": {"type": "Polygon", "coordinates": [[[78.77635, 22.03972], [78.77591, 22.04428], [78.77265, 22.04767], [78.76858, 22.04962], [78.76427, 22.05002], [78.75567, 22.04815], [78.75231, 22.04483], [78.75208, 22.04027], [78.75706, 22.03384], [78.75899, 22.02947], [78.76366, 22.02734], [78.76839, 22.02938], [78.7707, 22.03344], [78.77352, 22.03607], [78.77635, 22.03972]]]}}, {"type": "Feature", "properties": {"state": "Madhya Pradesh", "district": "Chhindwara", "block": "Jamai", "gp_name": "Jamai Rural", "state_code": 23, "district_code": 395, "block_code": 3503, "gp_code": 133102, "centroid_lat": 22.06, "centroid_lon": 78.744, "area_sq_km": 4.7, "boundary_source": "LGD Revenue Village Centroids + Block-Bounded Voronoi Tessellation", "boundary_quality": "DERIVED"}, "geometry": {"type": "Polygon", "coordinates": [[[78.75612, 22.05972], [78.7564, 22.06446], [78.75293, 22.06792], [78.74839, 22.06922], [78.74006, 22.06952], [78.73577, 22.06806], [78.7322, 22.06488], [78.73206, 22.06027], [78.73479, 22.05669], [78.739, 22.04949], [78.74366, 22.04715], [78.74834, 22.04951], [78.7506, 22.05354], [78.75338, 22.05612], [78.75612, 22.05972]]]}}, {"type": "Feature", "properties": {"state": "Madhya Pradesh", "district": "Chhindwara", "block": "Parasia", "gp_name": "Parasia Gram Panchayat", "state_code": 23, "district_code": 395, "block_code": 3504, "gp_code": 133103, "centroid_lat": 21.9014, "centroid_lon": 78.852, "area_sq_km": 4.8, "boundary_source": "LGD Revenue Village Centroids + Block-Bounded Voronoi Tessellation", "boundary_quality": "DERIVED"}, "geometry": {"type": "Polygon", "coordinates": [[[78.86384, 21.90112], [78.86408, 21.90574], [78.86065, 21.90908], [78.85654, 21.91094], [78.84797, 21.91115], [78.84378, 21.90947], [78.83987, 21.90643], [78.83968, 21.90169], [78.84486, 21.89507], [78.84701, 21.89091], [78.85166, 21.88874], [78.8563, 21.89099], [78.86384, 21.90112]]]}}, {"type": "Feature", "properties": {"state": "Madhya Pradesh", "district": "Chhindwara", "block": "Parasia", "gp_name": "Parasia Rural", "state_code": 23, "district_code": 395, "block_code": 3504, "gp_code": 133104, "centroid_lat": 21.9214, "centroid_lon": 78.832, "area_sq_km": 4.9, "boundary_source": "LGD Revenue Village Centroids + Block-Bounded Voronoi Tessellation", "boundary_quality": "DERIVED"}, "geometry": {"type": "Polygon", "coordinates": [[[78.84449, 21.92111], [78.8443, 21.92582], [78.84098, 21.92937], [78.83227, 21.93139], [78.82379, 21.92945], [78.82022, 21.92628], [78.81963, 21.92169], [78.8227, 21.91806], [78.82715, 21.9112], [78.83166, 21.90868], [78.83629, 21.91101], [78.83882, 21.91471], [78.84449, 21.92111]]]}}, {"type": "Feature", "properties": {"state": "Madhya Pradesh", "district": "Chhindwara", "block": "Sausar", "gp_name": "Sausar Gram Panchayat", "state_code": 23, "district_code": 395, "block_code": 3505, "gp_code": 133105, "centroid_lat": 21.9014, "centroid_lon": 79.028, "area_sq_km": 5.0, "boundary_source": "LGD Revenue Village Centroids + Block-Bounded Voronoi Tessellation", "boundary_quality": "DERIVED"}, "geometry": {"type": "Polygon", "coordinates": [[[79.03995, 21.90111], [79.0405, 21.90588], [79.03697, 21.90934], [79.03253, 21.91089], [79.02829, 21.91157], [79.0241, 21.91089], [79.01964, 21.90962], [79.01583, 21.90646], [79.01596, 21.90169], [79.02093, 21.89514], [79.02302, 21.89097], [79.02764, 21.88853], [79.03232, 21.89088], [79.0348, 21.89471], [79.03746, 21.89747], [79.03995, 21.90111]]]}}, {"type": "Feature", "properties": {"state": "Madhya Pradesh", "district": "Chhindwara", "block": "Sausar", "gp_name": "Sausar Rural", "state_code": 23, "district_code": 395, "block_code": 3505, "gp_code": 133106, "centroid_lat": 21.9214, "centroid_lon": 79.008, "area_sq_km": 5.1, "boundary_source": "LGD Revenue Village Centroids + Block-Bounded Voronoi Tessellation", "boundary_quality": "DERIVED"}, "geometry": {"type": "Polygon", "coordinates": [[[79.02029, 21.9211], [79.02054, 21.92589], [79.01707, 21.92943], [79.01245, 21.93072], [79.00827, 21.93111], [79.0041, 21.93088], [78.99975, 21.92951], [78.99632, 21.92625], [78.9957, 21.9217], [79.00085, 21.91507], [79.00295, 21.91081], [79.00765, 21.90877], [79.0123, 21.91096], [79.02029, 21.9211]]]}}]}