{"type": "FeatureCollection", "features": [{"type": "Feature", "properties": {"state": "Madhya Pradesh", "district": "Guna", "block": "Guna", "gp_name": "Guna Gram Panchayat", "state_code": 23, "district_code": 400, "block_code": 3620, "gp_code": 133163, "centroid_lat": 24.63, "centroid_lon": 77.452, "area_sq_km": 5.8, "boundary_source": "LGD Revenue Village Centroids + Block-Bounded Voronoi Tessellation", "boundary_quality": "DERIVED"}, "geometry": {"type": "Polygon", "coordinates": [[[77.46468, 24.62979], [77.46439, 24.63446], [77.46076, 24.63772], [77.45643, 24.6393], [77.45219, 24.63994], [77.44779, 24.63977], [77.44341, 24.63814], [77.43997, 24.63478], [77.43951, 24.6302], [77.44475, 24.62361], [77.44712, 24.61975], [77.45175, 24.61727], [77.45662, 24.61928], [77.45884, 24.62352], [77.46468, 24.62979]]]}}, {"type": "Feature", "properties": {"state": "Madhya Pradesh", "district": "Guna", "block": "Guna", "gp_name": "Guna Rural", "state_code": 23, "district_code": 400, "block_code": 3620, "gp_code": 133164, "centroid_lat": 24.65, "centroid_lon": 77.432, "area_sq_km": 5.9, "boundary_source": "LGD Revenue Village Centroids + Block-Bounded Voronoi Tessellation", "boundary_quality": "DERIVED"}, "geometry": {"type": "Polygon", "coordinates": [[[77.44475, 24.64979], [77.44473, 24.65458], [77.44104, 24.65797], [77.43654, 24.65953], [77.42779, 24.65977], [77.42331, 24.65823], [77.41989, 24.65482], [77.41943, 24.6502], [77.42475, 24.64361], [77.42697, 24.63943], [77.43175, 24.63712], [77.43669, 24.6391], [77.43918, 24.6432], [77.44475, 24.64979]]]}}, {"type": "Feature", "properties": {"state": "Madhya Pradesh", "district": "Guna", "block": "Aron", "gp_name": "Aron Gram Panchayat", "state_code": 23, "district_code": 400, "block_code": 3621, "gp_code": 133165, "centroid_lat": 24.7441, "centroid_lon": 77.3608, "area_sq_km": 6.0, "boundary_source": "LGD Revenue Village Centroids + Block-Bounded Voronoi Tessellation", "boundary_quality": "DERIVED"}, "geometry": {"type": "Polygon", "coordinates": [[[77.37315, 24.7439], [77.37339, 24.74863], [77.36976, 24.75201], [77.36533, 24.75361], [77.3567, 24.7536], [77.3522, 24.75223], [77.34829, 24.74906], [77.34818, 24.7443], [77.35376, 24.73789], [77.35581, 24.73361], [77.36055, 24.7311], [77.3654, 24.73344], [77.36787, 24.73742], [77.37315, 24.7439]]]}}, {"type": "Feature", "properties": {"state": "Madhya Pradesh", "district": "Guna", "block": "Aron", "gp_name": "Aron Rural", "state_code": 23, "district_code": 400, "block_code": 3621, "gp_code": 133166, "centroid_lat": 24.7641, "centroid_lon": 77.3408, "area_sq_km": 6.1, "boundary_source": "LGD Revenue Village Centroids + Block-Bounded Voronoi Tessellation", "boundary_quality": "DERIVED"}, "geometry": {"type": "Polygon", "coordinates": [[[77.35323, 24.76391], [77.35326, 24.76858], [77.34961, 24.77188], [77.34534, 24.77364], [77.34099, 24.77403], [77.33198, 24.77244], [77.32831, 24.76905], [77.32867, 24.76429], [77.33087, 24.76052], [77.33377, 24.75789], [77.33592, 24.75383], [77.34056, 24.75149], [77.34545, 24.75333], [77.35022, 24.76036], [77.35323, 24.76391]]]}}, {"type": "Feature", "properties": {"state": "Madhya Pradesh", "district": "Guna", "block": "Bamori", "gp_name": "Bamori Gram Panchayat", "state_code": 23, "district_code": 400, "block_code": 3622, "gp_code": 133167, "centroid_lat": 24.7005, "centroid_lon": 77.2132, "area_sq_km": 6.2, "boundary_source": "LGD Revenue Village Centroids + Block-Bounded Voronoi Tessellation", "boundary_quality": "DERIVED"}, "geometry": {"type": "Polygon", "coordinates": [[[77.2259, 24.70031], [77.22542, 24.70491], [77.22202, 24.7083], [77.21758, 24.70974], [77.21338, 24.71058], [77.20897, 24.71028], [77.20454, 24.70867], [77.20095, 24.70535], [77.20066, 24.70068], [77.20608, 24.6942], [77.20831, 24.69019], [77.21297, 24.68749], [77.21782, 24.68982], [77.2259, 24.70031]]]}}, {"type": "Feature", "properties": {"state": "Madhya Pradesh", "district": "Guna", "block": "Bamori", "gp_name": "Bamori Rural", "state_code": 23, "district_code": 400, "block_code": 3622, "gp_code": 133168, "centroid_lat": 24.7205, "centroid_lon": 77.1932, "area_sq_km": 6.3, "boundary_source": "LGD Revenue Village Centroids + Block-Bounded Voronoi Tessellation", "boundary_quality": "DERIVED"}, "geometry": {"type": "Polygon", "coordinates": [[[77.2055, 24.72032], [77.20557, 24.72497], [77.20225, 24.7285], [77.19765, 24.72987], [77.19337, 24.73022], [77.18916, 24.72983], [77.18464, 24.72857], [77.18091, 24.72536], [77.18074, 24.72068], [77.1833, 24.71692], [77.18606, 24.71418], [77.18837, 24.71031], [77.19298, 24.7077], [77.19784, 24.70977], [77.2055, 24.72032]]]}}, {"type": "Feature", "properties": {"state": "Madhya Pradesh", "district": "Guna", "block": "Chachoda", "gp_name": "Chachoda Gram Panchayat", "state_code": 23, "district_code": 400, "block_code": 3623, "gp_code": 133169, "centroid_lat": 24.5595, "centroid_lon": 77.2132, "area_sq_km": 6.4, "boundary_source": "LGD Revenue Village Centroids + Block-Bounded Voronoi Tessellation", "boundary_quality": "DERIVED"}, "geometry": {"type": "Polygon", "coordinates": [[[77.22596, 24.55931], [77.22577, 24.56405], [77.22189, 24.56719], [77.21777, 24.56914], [77.20904, 24.56912], [77.20478, 24.56745], [77.20107, 24.56431], [77.201, 24.55968], [77.20391, 24.55614], [77.20819, 24.54893], [77.21297, 24.54658], [77.21767, 24.54916], [77.22596, 24.55931]]]}}, {"type": "Feature", "properties": {"state": "Madhya Pradesh", "district": "Guna", "block": "Chachoda", "gp_name": "Chachoda Rural", "state_code": 23, "district_code": 400, "block_code": 3623, "gp_code": 133170, "centroid_lat": 24.5795, "centroid_lon": 77.1932, "area_sq_km": 6.5, "boundary_source": "LGD Revenue Village Centroids + Block-Bounded Voronoi Tessellation", "boundary_quality": "DERIVED"}, "geometry": {"type": "Polygon", "coordinates": [[[77.20533, 24.57932], [77.20535, 24.5839], [77.20198, 24.58728], [77.19338, 24.58962], [77.18901, 24.58918], [77.18437, 24.58783], [77.18098, 24.58434], [77.18106, 24.57968], [77.18351, 24.57599], [77.18621, 24.5733], [77.18835, 24.56927], [77.19298, 24.56691], [77.19779, 24.5689], [77.20023, 24.57286], [77.20533, 24.57932]]]}}, {"type": "Feature", "properties": {"state": "Madhya Pradesh", "district": "Guna", "block": "Raghogarh", "gp_name": "Raghogarh Gram Panchayat", "state_code": 23, "district_code": 400, "block_code": 3624, "gp_code": 133171, "centroid_lat": 24.5159, "centroid_lon": 77.3608, "area_sq_km": 6.6, "boundary_source": "LGD Revenue Village Centroids + Block-Bounded Voronoi Tessellation", "boundary_quality": "DERIVED"}, "geometry": {"type": "Polygon", "coordinates": [[[77.3735, 24.5157], [77.37341, 24.52045], [77.3697, 24.52377], [77.36529, 24.52535], [77.35674, 24.52533], [77.35236, 24.52389], [77.34851, 24.52078], [77.34825, 24.5161], [77.35364, 24.50957], [77.35578, 24.50532], [77.36056, 24.50332], [77.36537, 24.5053], [77.36764, 24.50942], [77.3735, 24.5157]]]}}, {"type": "Feature", "properties": {"state": "Madhya Pradesh", "district": "Guna", "block": "Raghogarh", "gp_name": "Raghogarh Rural", "state_code": 23, "district_code": 400, "block_code": 3624, "gp_code": 133172, "centroid_lat": 24.5359, "centroid_lon": 77.3408, "area_sq_km": 6.7, "boundary_source": "LGD Revenue Village Centroids + Block-Bounded Voronoi Tessellation", "boundary_quality": "DERIVED"}, "geometry": {"type": "Polygon", "coordinates": [[[77.35326, 24.53571], [77.35306, 24.54032], [77.34962, 24.54369], [77.34525, 24.54527], [77.34098, 24.5458], [77.33663, 24.54556], [77.33241, 24.54384], [77.3286, 24.54075], [77.32846, 24.53609], [77.33088, 24.53232], [77.33341, 24.52937], [77.33577, 24.5253], [77.34056, 24.52289], [77.34529, 24.52549], [77.34778, 24.5293], [77.35326, 24.53571]]]}}]}