{"type": "FeatureCollection", "features": [{"type": "Feature", "properties": {"state": "Madhya Pradesh", "district": "Gwalior", "block": "Morar", "gp_name": "Morar Gram Panchayat", "state_code": 23, "district_code": 401, "block_code": 3640, "gp_code": 133173, "centroid_lat": 26.21, "centroid_lon": 78.322, "area_sq_km": 6.8, "boundary_source": "LGD Revenue Village Centroids + Block-Bounded Voronoi Tessellation", "boundary_quality": "DERIVED"}, "geometry": {"type": "Polygon", "coordinates": [[[78.33431, 26.20971], [78.33497, 26.2145], [78.33102, 26.21773], [78.32649, 26.21911], [78.32228, 26.21997], [78.3178, 26.21985], [78.31322, 26.21833], [78.30988, 26.21486], [78.30951, 26.21029], [78.31472, 26.20376], [78.31688, 26.19961], [78.32164, 26.19716], [78.32659, 26.19923], [78.32885, 26.2035], [78.33431, 26.20971]]]}}, {"type": "Feature", "properties": {"state": "Madhya Pradesh", "district": "Gwalior", "block": "Morar", "gp_name": "Morar Rural", "state_code": 23, "district_code": 401, "block_code": 3640, "gp_code": 133174, "centroid_lat": 26.23, "centroid_lon": 78.302, "area_sq_km": 6.9, "boundary_source": "LGD Revenue Village Centroids + Block-Bounded Voronoi Tessellation", "boundary_quality": "DERIVED"}, "geometry": {"type": "Polygon", "coordinates": [[[78.3147, 26.22971], [78.31456, 26.23436], [78.31092, 26.23765], [78.30669, 26.23951], [78.30228, 26.23993], [78.29321, 26.23835], [78.28965, 26.23495], [78.28915, 26.23029], [78.29443, 26.22351], [78.29673, 26.2193], [78.30163, 26.21706], [78.3065, 26.21944], [78.31125, 26.22629], [78.3147, 26.22971]]]}}, {"type": "Feature", "properties": {"state": "Madhya Pradesh", "district": "Gwalior", "block": "Ghatigaon", "gp_name": "Ghatigaon Gram Panchayat", "state_code": 23, "district_code": 401, "block_code": 3641, "gp_code": 133175, "centroid_lat": 26.33, "centroid_lon": 78.19, "area_sq_km": 7.0, "boundary_source": "LGD Revenue Village Centroids + Block-Bounded Voronoi Tessellation", "boundary_quality": "DERIVED"}, "geometry": {"type": "Polygon", "coordinates": [[[78.20275, 26.32972], [78.20299, 26.33451], [78.19909, 26.33779], [78.19469, 26.33953], [78.18584, 26.33972], [78.18149, 26.33806], [78.17781, 26.33487], [78.17766, 26.33027], [78.18494, 26.31972], [78.18964, 26.31692], [78.19448, 26.31954], [78.19938, 26.32625], [78.20275, 26.32972]]]}}, {"type": "Feature", "properties": {"state": "Madhya Pradesh", "district": "Gwalior", "block": "Ghatigaon", "gp_name": "Ghatigaon Rural", "state_code": 23, "district_code": 401, "block_code": 3641, "gp_code": 133176, "centroid_lat": 26.35, "centroid_lon": 78.17, "area_sq_km": 7.1, "boundary_source": "LGD Revenue Village Centroids + Block-Bounded Voronoi Tessellation", "boundary_quality": "DERIVED"}, "geometry": {"type": "Polygon", "coordinates": [[[78.18247, 26.34972], [78.18293, 26.35449], [78.17892, 26.35765], [78.17474, 26.35963], [78.1658, 26.35981], [78.16111, 26.35841], [78.15791, 26.35483], [78.15728, 26.35028], [78.16044, 26.34668], [78.16499, 26.33983], [78.16965, 26.3373], [78.17465, 26.33913], [78.17697, 26.3434], [78.18247, 26.34972]]]}}, {"type": "Feature", "properties": {"state": "Madhya Pradesh", "district": "Gwalior", "block": "Dabra", "gp_name": "Dabra Gram Panchayat", "state_code": 23, "district_code": 401, "block_code": 3642, "gp_code": 133177, "centroid_lat": 26.21, "centroid_lon": 78.058, "area_sq_km": 7.2, "boundary_source": "LGD Revenue Village Centroids + Block-Bounded Voronoi Tessellation", "boundary_quality": "DERIVED"}, "geometry": {"type": "Polygon", "coordinates": [[[78.07061, 26.20973], [78.07097, 26.21453], [78.06691, 26.21767], [78.05826, 26.21998], [78.0491, 26.21842], [78.04583, 26.21485], [78.04576, 26.21026], [78.04816, 26.20657], [78.05074, 26.20375], [78.05289, 26.19957], [78.05766, 26.19685], [78.06243, 26.19966], [78.065, 26.20338], [78.07061, 26.20973]]]}}, {"type": "Feature", "properties": {"state": "Madhya Pradesh", "district": "Gwalior", "block": "Dabra", "gp_name": "Dabra Rural", "state_code": 23, "district_code": 401, "block_code": 3642, "gp_code": 133178, "centroid_lat": 26.23, "centroid_lon": 78.038, "area_sq_km": 7.3, "boundary_source": "LGD Revenue Village Centroids + Block-Bounded Voronoi Tessellation", "boundary_quality": "DERIVED"}, "geometry": {"type": "Polygon", "coordinates": [[[78.05095, 26.22973], [78.05063, 26.23441], [78.04721, 26.23792], [78.04264, 26.23947], [78.03826, 26.24015], [78.02915, 26.23836], [78.02587, 26.23483], [78.02565, 26.23026], [78.02856, 26.22671], [78.033, 26.2198], [78.03766, 26.21704], [78.04263, 26.21921], [78.04487, 26.22351], [78.04782, 26.22608], [78.05095, 26.22973]]]}}, {"type": "Feature", "properties": {"state": "Madhya Pradesh", "district": "Gwalior", "block": "Bhitarwar", "gp_name": "Bhitarwar Gram Panchayat", "state_code": 23, "district_code": 401, "block_code": 3643, "gp_code": 133179, "centroid_lat": 26.09, "centroid_lon": 78.19, "area_sq_km": 7.4, "boundary_source": "LGD Revenue Village Centroids + Block-Bounded Voronoi Tessellation", "boundary_quality": "DERIVED"}, "geometry": {"type": "Polygon", "coordinates": [[[78.2025, 26.08972], [78.20285, 26.09448], [78.19921, 26.09791], [78.19451, 26.09918], [78.18588, 26.09965], [78.18142, 26.09813], [78.17785, 26.09486], [78.17758, 26.09027], [78.18268, 26.0837], [78.18474, 26.07928], [78.18966, 26.0773], [78.19459, 26.07925], [78.19709, 26.08328], [78.2025, 26.08972]]]}}, {"type": "Feature", "properties": {"state": "Madhya Pradesh", "district": "Gwalior", "block": "Bhitarwar", "gp_name": "Bhitarwar Rural", "state_code": 23, "district_code": 401, "block_code": 3643, "gp_code": 133180, "centroid_lat": 26.11, "centroid_lon": 78.17, "area_sq_km": 7.5, "boundary_source": "LGD Revenue Village Centroids + Block-Bounded Voronoi Tessellation", "boundary_quality": "DERIVED"}, "geometry": {"type": "Polygon", "coordinates": [[[78.18242, 26.10973], [78.18233, 26.1143], [78.17911, 26.11783], [78.17447, 26.11911], [78.17027, 26.11986], [78.16585, 26.11971], [78.16139, 26.11816], [78.15793, 26.11483], [78.1575, 26.11027], [78.16253, 26.10357], [78.16485, 26.0995], [78.16965, 26.09701], [78.17449, 26.09949], [78.18242, 26.10973]]]}}]}