{"type": "FeatureCollection", "features": [{"type": "Feature", "properties": {"state": "Madhya Pradesh", "district": "Indore", "block": "Indore", "gp_name": "Indore Gram Panchayat", "state_code": 23, "district_code": 407, "block_code": 3700, "gp_code": 133199, "centroid_lat": 22.71, "centroid_lon": 76.002, "area_sq_km": 9.4, "boundary_source": "LGD Revenue Village Centroids + Block-Bounded Voronoi Tessellation", "boundary_quality": "DERIVED"}, "geometry": {"type": "Polygon", "coordinates": [[[76.01442, 22.70992], [76.01432, 22.71464], [76.01063, 22.7179], [76.00631, 22.71946], [75.99781, 22.71957], [75.99347, 22.71802], [75.98955, 22.71488], [75.98969, 22.71008], [75.99507, 22.70366], [75.99732, 22.69971], [76.00191, 22.69726], [76.00658, 22.69954], [76.00898, 22.70343], [76.01442, 22.70992]]]}}, {"type": "Feature", "properties": {"state": "Madhya Pradesh", "district": "Indore", "block": "Indore", "gp_name": "Indore Rural", "state_code": 23, "district_code": 407, "block_code": 3700, "gp_code": 133200, "centroid_lat": 22.73, "centroid_lon": 75.982, "area_sq_km": 4.5, "boundary_source": "LGD Revenue Village Centroids + Block-Bounded Voronoi Tessellation", "boundary_quality": "DERIVED"}, "geometry": {"type": "Polygon", "coordinates": [[[75.99429, 22.72992], [75.99426, 22.73462], [75.99071, 22.73797], [75.98636, 22.73959], [75.98207, 22.73988], [75.97784, 22.7395], [75.97324, 22.73823], [75.96967, 22.73482], [75.96978, 22.73007], [75.97731, 22.71968], [75.98191, 22.71736], [75.98661, 22.71947], [75.98888, 22.72353], [75.99429, 22.72992]]]}}, {"type": "Feature", "properties": {"state": "Madhya Pradesh", "district": "Indore", "block": "Depalpur", "gp_name": "Depalpur Gram Panchayat", "state_code": 23, "district_code": 407, "block_code": 3701, "gp_code": 133201, "centroid_lat": 22.83, "centroid_lon": 75.87, "area_sq_km": 4.6, "boundary_source": "LGD Revenue Village Centroids + Block-Bounded Voronoi Tessellation", "boundary_quality": "DERIVED"}, "geometry": {"type": "Polygon", "coordinates": [[[75.88219, 22.82993], [75.88201, 22.83453], [75.87892, 22.83817], [75.87441, 22.8397], [75.87006, 22.83992], [75.8613, 22.83816], [75.85808, 22.83465], [75.85788, 22.83007], [75.86529, 22.81963], [75.86992, 22.81709], [75.87467, 22.81938], [75.87698, 22.82345], [75.88219, 22.82993]]]}}, {"type": "Feature", "properties": {"state": "Madhya Pradesh", "district": "Indore", "block": "Depalpur", "gp_name": "Depalpur Rural", "state_code": 23, "district_code": 407, "block_code": 3701, "gp_code": 133202, "centroid_lat": 22.85, "centroid_lon": 75.85, "area_sq_km": 4.7, "boundary_source": "LGD Revenue Village Centroids + Block-Bounded Voronoi Tessellation", "boundary_quality": "DERIVED"}, "geometry": {"type": "Polygon", "coordinates": [[[75.86207, 22.84994], [75.86238, 22.85467], [75.85848, 22.85777], [75.85416, 22.85916], [75.8457, 22.85978], [75.84142, 22.85805], [75.83773, 22.85479], [75.83754, 22.85007], [75.84298, 22.84357], [75.8453, 22.83965], [75.84992, 22.83679], [75.85461, 22.83951], [75.85687, 22.84356], [75.86207, 22.84994]]]}}, {"type": "Feature", "properties": {"state": "Madhya Pradesh", "district": "Indore", "block": "Sanwer", "gp_name": "Sanwer Gram Panchayat", "state_code": 23, "district_code": 407, "block_code": 3702, "gp_code": 133203, "centroid_lat": 22.71, "centroid_lon": 75.738, "area_sq_km": 4.8, "boundary_source": "LGD Revenue Village Centroids + Block-Bounded Voronoi Tessellation", "boundary_quality": "DERIVED"}, "geometry": {"type": "Polygon", "coordinates": [[[75.75032, 22.70994], [75.75038, 22.71469], [75.74655, 22.71785], [75.74233, 22.71955], [75.73805, 22.71997], [75.73381, 22.71953], [75.72948, 22.71799], [75.72557, 22.71484], [75.72562, 22.71006], [75.73333, 22.69968], [75.73793, 22.69717], [75.7427, 22.69931], [75.74479, 22.70364], [75.75032, 22.70994]]]}}, {"type": "Feature", "properties": {"state": "Madhya Pradesh", "district": "Indore", "block": "Sanwer", "gp_name": "Sanwer Rural", "state_code": 23, "district_code": 407, "block_code": 3702, "gp_code": 133204, "centroid_lat": 22.73, "centroid_lon": 75.718, "area_sq_km": 4.9, "boundary_source": "LGD Revenue Village Centroids + Block-Bounded Voronoi Tessellation", "boundary_quality": "DERIVED"}, "geometry": {"type": "Polygon", "coordinates": [[[75.73041, 22.72994], [75.73034, 22.73468], [75.72687, 22.73815], [75.72219, 22.73926], [75.71805, 22.74005], [75.70916, 22.73828], [75.70553, 22.73485], [75.70545, 22.73006], [75.70891, 22.72655], [75.71331, 22.71964], [75.71793, 22.71706], [75.72258, 22.7196], [75.73041, 22.72994]]]}}, {"type": "Feature", "properties": {"state": "Madhya Pradesh", "district": "Indore", "block": "Mhow", "gp_name": "Mhow Gram Panchayat", "state_code": 23, "district_code": 407, "block_code": 3703, "gp_code": 133205, "centroid_lat": 22.59, "centroid_lon": 75.87, "area_sq_km": 5.0, "boundary_source": "LGD Revenue Village Centroids + Block-Bounded Voronoi Tessellation", "boundary_quality": "DERIVED"}, "geometry": {"type": "Polygon", "coordinates": [[[75.88222, 22.58993], [75.88206, 22.59456], [75.87861, 22.5979], [75.87431, 22.59951], [75.87006, 22.5998], [75.86585, 22.59947], [75.86147, 22.59801], [75.85789, 22.59474], [75.85799, 22.59006], [75.86296, 22.58354], [75.86526, 22.57954], [75.86992, 22.57719], [75.87472, 22.57924], [75.87707, 22.58335], [75.88222, 22.58993]]]}}, {"type": "Feature", "properties": {"state": "Madhya Pradesh", "district": "Indore", "block": "Mhow", "gp_name": "Mhow Rural", "state_code": 23, "district_code": 407, "block_code": 3703, "gp_code": 133206, "centroid_lat": 22.61, "centroid_lon": 75.85, "area_sq_km": 5.1, "boundary_source": "LGD Revenue Village Centroids + Block-Bounded Voronoi Tessellation", "boundary_quality": "DERIVED"}, "geometry": {"type": "Polygon", "coordinates": [[[75.86195, 22.60994], [75.86243, 22.6147], [75.85871, 22.61799], [75.85425, 22.61938], [75.85006, 22.61998], [75.84592, 22.61929], [75.84161, 22.61787], [75.83771, 22.6148], [75.83796, 22.61006], [75.84036, 22.60635], [75.84305, 22.60362], [75.84532, 22.59967], [75.84992, 22.59705], [75.85452, 22.59971], [75.86195, 22.60994]]]}}, {"type": "Feature", "properties": {"state": "Madhya Pradesh", "district": "Indore", "block": "Sanwer", "gp_name": "Ajnod", "state_code": 23, "district_code": 407, "block_code": 3376, "gp_code": 133601, "centroid_lat": 23.015, "centroid_lon": 75.805, "area_sq_km": 9.19, "boundary_source": "LGD Centroids / Voronoi Block Tessellation", "boundary_quality": "DERIVED"}, "geometry": {"type": "Polygon", "coordinates": [[[75.82256429647502, 23.014909709657395], [75.82320915777149, 23.022134076016638], [75.81778408346008, 23.026841854585978], [75.8100665689019, 23.028699901446224], [75.80348933443447, 23.028980895386013], [75.79629475821586, 23.02814695856116], [75.78897110122799, 23.02504771872423], [75.78643895787859, 23.018902670017173], [75.78919984911191, 23.01127018295578], [75.79260889730844, 23.005095496776946], [75.79614093564314, 23.001941848610414], [75.8028388320268, 23.001037728525347], [75.81078875532467, 23.001244689777206], [75.81572176866563, 23.003037715074555], [75.81888265792286, 23.007701066472254], [75.82256429647502, 23.014909709657395]]]}}, {"type": "Feature", "properties": {"state": "Madhya Pradesh", "district": "Indore", "block": "Sanwer", "gp_name": "Dhamnay", "state_code": 23, "district_code": 407, "block_code": 3376, "gp_code": 133602, "centroid_lat": 22.995, "centroid_lon": 75.875, "area_sq_km": 9.19, "boundary_source": "LGD Centroids / Voronoi Block Tessellation", "boundary_quality": "DERIVED"}, "geometry": {"type": "Polygon", "coordinates": [[[75.89256138842448, 22.994902024149123], [75.89320983406112, 23.00212601291838], [75.88778805006665, 23.006836104444197], [75.8800727432766, 23.00869750629387], [75.87349672379895, 23.008981376949514], [75.86630289215259, 23.008150601744966], [75.85897884157484, 23.005054608674925], [75.85644396903074, 22.998910746038476], [75.85920051278706, 22.991277146188597], [75.86260585429827, 22.98510104598895], [75.86613570899694, 22.981945892415137], [75.87283205526415, 22.981038853725348], [75.88078079078421, 22.98124233482232], [75.88571391583694, 22.983033179046707], [75.88887667007396, 22.987695086655794], [75.89256138842448, 22.994902024149123]]]}}, {"type": "Feature", "properties": {"state": "Madhya Pradesh", "district": "Indore", "block": "Sanwer", "gp_name": "Kshipra", "state_code": 23, "district_code": 407, "block_code": 3376, "gp_code": 133603, "centroid_lat": 22.945, "centroid_lon": 75.885, "area_sq_km": 9.19, "boundary_source": "LGD Centroids / Voronoi Block Tessellation", "boundary_quality": "DERIVED"}, "geometry": {"type": "Polygon", "coordinates": [[[75.9025548830124, 22.944901119168467], [75.90320352151772, 22.95212510275531], [75.89778402775654, 22.956835491522074], [75.89007169011114, 22.958697298336396], [75.88349812303355, 22.958981509793045], [75.87630690512847, 22.958151103647776], [75.86898537894568, 22.955055478126386], [75.86645107254999, 22.948911722609843], [75.86920613417463, 22.941277949232617], [75.87260984261744, 22.935101647923968], [75.8761382013375, 22.931946299066993], [75.8828320164926, 22.93103891063529], [75.89077782452674, 22.93124198253451], [75.89570923246188, 22.933032579793952], [75.89887109625833, 22.937694342951286], [75.9025548830124, 22.944901119168467]]]}}, {"type": "Feature", "properties": {"state": "Madhya Pradesh", "district": "Indore", "block": "Sanwer", "gp_name": "Panod", "state_code": 23, "district_code": 407, "block_code": 3376, "gp_code": 133604, "centroid_lat": 23.025, "centroid_lon": 75.855, "area_sq_km": 9.19, "boundary_source": "LGD Centroids / Voronoi Block Tessellation", "boundary_quality": "DERIVED"}, "geometry": {"type": "Polygon", "coordinates": [[[75.87256536576844, 23.024904123181894], [75.87321295064315, 23.03212819542152], [75.86778928511386, 23.036837642798062], [75.86007197604128, 23.038698123389228], [75.85349443198139, 23.038981207326035], [75.84629909232093, 23.038149570225762], [75.838973821566, 23.035052697765842], [75.83643923618224, 23.02890852746359], [75.83919746861044, 23.02127525281282], [75.84260444067286, 23.015099556137358], [75.84613553169521, 23.011944822745097], [75.85283351436469, 23.011038584230935], [75.86078401405526, 23.01124301552655], [75.86571800221402, 23.013034450503092], [75.86888082029326, 23.01769673964336], [75.87256536576844, 23.024904123181894]]]}}, {"type": "Feature", "properties": {"state": "Madhya Pradesh", "district": "Indore", "block": "Mhow (Dr. Ambedkar Nagar)", "gp_name": "Hasalpur", "state_code": 23, "district_code": 407, "block_code": 3377, "gp_code": 133701, "centroid_lat": 22.58, "centroid_lon": 75.78, "area_sq_km": 9.19, "boundary_source": "LGD Centroids / Voronoi Block Tessellation", "boundary_quality": "DERIVED"}, "geometry": {"type": "Polygon", "coordinates": [[[75.79750876255467, 22.57991404830205], [75.79814949473213, 22.58713900283018], [75.79274022903611, 22.59184571336353], [75.785046607131, 22.593701960803163], [75.77849011183278, 22.59398135027778], [75.77131854785125, 22.59314559749942], [75.7640189535617, 22.5900443833809], [75.7614965669251, 22.583898354332348], [75.76425088958574, 22.57626609010726], [75.7676509114078, 22.57009187210151], [75.77117268030688, 22.56693890196205], [75.7778496609071, 22.566036371768785], [75.78577439402123, 22.566245303435217], [75.79069129737589, 22.568039654097632], [75.79384084903981, 22.57270406448853], [75.79750876255467, 22.57991404830205]]]}}, {"type": "Feature", "properties": {"state": "Madhya Pradesh", "district": "Indore", "block": "Mhow (Dr. Ambedkar Nagar)", "gp_name": "Patalpani", "state_code": 23, "district_code": 407, "block_code": 3377, "gp_code": 133702, "centroid_lat": 22.51, "centroid_lon": 75.79, "area_sq_km": 9.19, "boundary_source": "LGD Centroids / Voronoi Block Tessellation", "boundary_quality": "DERIVED"}, "geometry": {"type": "Polygon", "coordinates": [[[75.80749989285516, 22.509913214170275], [75.80814069767257, 22.517138185381597], [75.80273443126104, 22.521845183510656], [75.79504480971681, 22.523701809621784], [75.78849165167294, 22.52398151430381], [75.78132367443669, 22.52314609984687], [75.7740276048001, 22.52004521631403], [75.77150615226806, 22.513899268174015], [75.77425865454849, 22.50626682085372], [75.77765661169111, 22.500092398641993], [75.78117642332965, 22.496939238717026], [75.78784997572437, 22.496036382916316], [75.7957707108623, 22.496244937784002], [75.80068522522411, 22.49803906620206], [75.80383343972277, 22.50270335740419], [75.80749989285516, 22.509913214170275]]]}}, {"type": "Feature", "properties": {"state": "Madhya Pradesh", "district": "Indore", "block": "Mhow (Dr. Ambedkar Nagar)", "gp_name": "Choral", "state_code": 23, "district_code": 407, "block_code": 3377, "gp_code": 133703, "centroid_lat": 22.48, "centroid_lon": 75.81, "area_sq_km": 9.19, "boundary_source": "LGD Centroids / Voronoi Block Tessellation", "boundary_quality": "DERIVED"}, "geometry": {"type": "Polygon", "coordinates": [[[75.82749603374026, 22.47991115356337], [75.82813768241424, 22.487136045014374], [75.82273324724822, 22.49184367691619], [75.81504557067188, 22.493701207980845], [75.80849389219672, 22.493981685067727], [75.80132737709899, 22.493147116482035], [75.7940324875752, 22.490047095306906], [75.79151074897968, 22.48390144732848], [75.79426160360707, 22.47626867843076], [75.79765797126568, 22.470093858200237], [75.80117657957365, 22.46694028482877], [75.80784854318978, 22.466036643236247], [75.81576756691958, 22.46624426538057], [75.8206812460237, 22.46803781441708], [75.82382940419645, 22.47270173249079], [75.82749603374026, 22.47991115356337]]]}}, {"type": "Feature", "properties": {"state": "Madhya Pradesh", "district": "Indore", "block": "Mhow (Dr. Ambedkar Nagar)", "gp_name": "Badgonda", "state_code": 23, "district_code": 407, "block_code": 3377, "gp_code": 133704, "centroid_lat": 22.57, "centroid_lon": 75.72, "area_sq_km": 9.19, "boundary_source": "LGD Centroids / Voronoi Block Tessellation", "boundary_quality": "DERIVED"}, "geometry": {"type": "Polygon", "coordinates": [[[75.73750774380655, 22.569920619503744], [75.73814529198815, 22.57714590985775], [75.73273430235349, 22.58185065086024], [75.72504033637782, 22.583704032990887], [75.71848411605458, 22.58398096366509], [75.71131335083454, 22.583142506935154], [75.70401555041695, 22.580038512463243], [75.70149599267776, 22.573891458835767], [75.7042534690587, 22.566260131830585], [75.70765597017613, 22.56008711116833], [75.71117889672296, 22.55693542199391], [75.71785586560335, 22.55603538489322], [75.72578002920496, 22.55624729211772], [75.7306958557367, 22.55804351085394], [75.73384318862975, 22.562709164162438], [75.73750774380655, 22.569920619503744]]]}}, {"type": "Feature", "properties": {"state": "Madhya Pradesh", "district": "Indore", "block": "Mhow (Dr. Ambedkar Nagar)", "gp_name": "Beriakhedi", "state_code": 23, "district_code": 407, "block_code": 3377, "gp_code": 133705, "centroid_lat": 22.6, "centroid_lon": 75.75, "area_sq_km": 9.19, "boundary_source": "LGD Centroids / Voronoi Block Tessellation", "boundary_quality": "DERIVED"}, "geometry": {"type": "Polygon", "coordinates": [[[75.76751141565306, 22.59991724790969], [75.76815071311226, 22.607142345873104], [75.7627396347482, 22.61184808469722], [75.75504446059718, 22.61370293191575], [75.74848691911247, 22.613981123109344], [75.74131445347027, 22.61314405538025], [75.73401441970277, 22.61004149499956], [75.7314929582901, 22.603894983694033], [75.73424931390058, 22.596263197541152], [75.73765115565507, 22.590089580235162], [75.74117412190934, 22.586937243034058], [75.74785229704953, 22.586035929878694], [75.75577817720928, 22.58624631008973], [75.76069543998761, 22.58804156530432], [75.76384447753175, 22.59270656782293], [75.76751141565306, 22.59991724790969]]]}}]}