{"type": "FeatureCollection", "features": [{"type": "Feature", "properties": {"state": "Madhya Pradesh", "district": "Narsinghpur", "block": "Narsinghpur", "gp_name": "Narsinghpur Gram Panchayat", "state_code": 23, "district_code": 414, "block_code": 3880, "gp_code": 133313, "centroid_lat": 22.94, "centroid_lon": 79.376, "area_sq_km": 5.8, "boundary_source": "LGD Revenue Village Centroids + Block-Bounded Voronoi Tessellation", "boundary_quality": "DERIVED"}, "geometry": {"type": "Polygon", "coordinates": [[[79.38832, 22.93966], [79.38855, 22.94441], [79.38513, 22.94796], [79.38062, 22.94952], [79.37633, 22.95009], [79.36754, 22.94832], [79.36419, 22.94492], [79.36345, 22.94035], [79.36654, 22.93667], [79.37098, 22.92966], [79.37559, 22.92719], [79.38031, 22.92949], [79.38275, 22.93336], [79.38832, 22.93966]]]}}, {"type": "Feature", "properties": {"state": "Madhya Pradesh", "district": "Narsinghpur", "block": "Narsinghpur", "gp_name": "Narsinghpur Rural", "state_code": 23, "district_code": 414, "block_code": 3880, "gp_code": 133314, "centroid_lat": 22.96, "centroid_lon": 79.356, "area_sq_km": 5.9, "boundary_source": "LGD Revenue Village Centroids + Block-Bounded Voronoi Tessellation", "boundary_quality": "DERIVED"}, "geometry": {"type": "Polygon", "coordinates": [[[79.368, 22.95967], [79.36821, 22.96429], [79.36499, 22.96784], [79.3605, 22.96928], [79.35197, 22.96983], [79.34747, 22.96838], [79.34365, 22.96514], [79.34357, 22.96034], [79.34873, 22.95366], [79.3509, 22.94948], [79.35559, 22.94712], [79.36033, 22.94945], [79.368, 22.95967]]]}}, {"type": "Feature", "properties": {"state": "Madhya Pradesh", "district": "Narsinghpur", "block": "Babai Chichali", "gp_name": "Babai Chichali Gram Panchayat", "state_code": 23, "district_code": 414, "block_code": 3881, "gp_code": 133315, "centroid_lat": 23.0786, "centroid_lon": 79.288, "area_sq_km": 6.0, "boundary_source": "LGD Revenue Village Centroids + Block-Bounded Voronoi Tessellation", "boundary_quality": "DERIVED"}, "geometry": {"type": "Polygon", "coordinates": [[[79.30017, 23.07827], [79.30012, 23.08286], [79.29709, 23.08653], [79.29247, 23.08782], [79.28416, 23.08794], [79.27961, 23.08684], [79.27601, 23.08358], [79.27568, 23.07893], [79.28087, 23.07238], [79.28302, 23.06833], [79.28759, 23.06582], [79.29244, 23.06778], [79.29468, 23.07205], [79.30017, 23.07827]]]}}, {"type": "Feature", "properties": {"state": "Madhya Pradesh", "district": "Narsinghpur", "block": "Babai Chichali", "gp_name": "Babai Chichali Rural", "state_code": 23, "district_code": 414, "block_code": 3881, "gp_code": 133316, "centroid_lat": 23.0986, "centroid_lon": 79.268, "area_sq_km": 6.1, "boundary_source": "LGD Revenue Village Centroids + Block-Bounded Voronoi Tessellation", "boundary_quality": "DERIVED"}, "geometry": {"type": "Polygon", "coordinates": [[[79.28018, 23.09827], [79.28042, 23.10297], [79.27673, 23.10622], [79.27267, 23.10822], [79.26399, 23.10836], [79.25974, 23.1067], [79.25608, 23.10355], [79.25599, 23.09892], [79.25878, 23.09536], [79.26283, 23.08795], [79.26759, 23.08579], [79.27236, 23.08799], [79.2746, 23.09213], [79.28018, 23.09827]]]}}, {"type": "Feature", "properties": {"state": "Madhya Pradesh", "district": "Narsinghpur", "block": "Chawarpatha", "gp_name": "Chawarpatha Gram Panchayat", "state_code": 23, "district_code": 414, "block_code": 3882, "gp_code": 133317, "centroid_lat": 23.0786, "centroid_lon": 79.112, "area_sq_km": 6.2, "boundary_source": "LGD Revenue Village Centroids + Block-Bounded Voronoi Tessellation", "boundary_quality": "DERIVED"}, "geometry": {"type": "Polygon", "coordinates": [[[79.12414, 23.07828], [79.12436, 23.08296], [79.12079, 23.08629], [79.11658, 23.08806], [79.1123, 23.08859], [79.10802, 23.08825], [79.10339, 23.08703], [79.10012, 23.08352], [79.0994, 23.07893], [79.1022, 23.07514], [79.10496, 23.07245], [79.10686, 23.06797], [79.11161, 23.06578], [79.11641, 23.0679], [79.11884, 23.0719], [79.12414, 23.07828]]]}}, {"type": "Feature", "properties": {"state": "Madhya Pradesh", "district": "Narsinghpur", "block": "Chawarpatha", "gp_name": "Chawarpatha Rural", "state_code": 23, "district_code": 414, "block_code": 3882, "gp_code": 133318, "centroid_lat": 23.0986, "centroid_lon": 79.092, "area_sq_km": 6.3, "boundary_source": "LGD Revenue Village Centroids + Block-Bounded Voronoi Tessellation", "boundary_quality": "DERIVED"}, "geometry": {"type": "Polygon", "coordinates": [[[79.10452, 23.09827], [79.10402, 23.10284], [79.10075, 23.10625], [79.09649, 23.10787], [79.0923, 23.10846], [79.08808, 23.10811], [79.08337, 23.10704], [79.07981, 23.10365], [79.08001, 23.09891], [79.08486, 23.09236], [79.08708, 23.08842], [79.09162, 23.08604], [79.09636, 23.08804], [79.09882, 23.09192], [79.10452, 23.09827]]]}}, {"type": "Feature", "properties": {"state": "Madhya Pradesh", "district": "Narsinghpur", "block": "Gotegaon", "gp_name": "Gotegaon Gram Panchayat", "state_code": 23, "district_code": 414, "block_code": 3883, "gp_code": 133319, "centroid_lat": 22.94, "centroid_lon": 79.024, "area_sq_km": 6.4, "boundary_source": "LGD Revenue Village Centroids + Block-Bounded Voronoi Tessellation", "boundary_quality": "DERIVED"}, "geometry": {"type": "Polygon", "coordinates": [[[79.03661, 22.93968], [79.03609, 22.94428], [79.03286, 22.94777], [79.02865, 22.94964], [79.02015, 22.94932], [79.01571, 22.94811], [79.01212, 22.94491], [79.01143, 22.94032], [79.01667, 22.93357], [79.0189, 22.92943], [79.02362, 22.92701], [79.0285, 22.9291], [79.03314, 22.93622], [79.03661, 22.93968]]]}}, {"type": "Feature", "properties": {"state": "Madhya Pradesh", "district": "Narsinghpur", "block": "Gotegaon", "gp_name": "Gotegaon Rural", "state_code": 23, "district_code": 414, "block_code": 3883, "gp_code": 133320, "centroid_lat": 22.96, "centroid_lon": 79.004, "area_sq_km": 6.5, "boundary_source": "LGD Revenue Village Centroids + Block-Bounded Voronoi Tessellation", "boundary_quality": "DERIVED"}, "geometry": {"type": "Polygon", "coordinates": [[[79.01642, 22.95969], [79.01663, 22.96447], [79.01315, 22.96802], [79.00845, 22.96922], [79.00429, 22.96982], [79.00013, 22.96936], [78.99562, 22.96819], [78.99222, 22.96487], [78.99177, 22.96031], [78.99691, 22.95378], [78.99897, 22.94957], [79.00363, 22.94744], [79.0084, 22.94935], [79.01081, 22.95334], [79.01642, 22.95969]]]}}, {"type": "Feature", "properties": {"state": "Madhya Pradesh", "district": "Narsinghpur", "block": "Kareli", "gp_name": "Kareli Gram Panchayat", "state_code": 23, "district_code": 414, "block_code": 3884, "gp_code": 133321, "centroid_lat": 22.8014, "centroid_lon": 79.112, "area_sq_km": 6.6, "boundary_source": "LGD Revenue Village Centroids + Block-Bounded Voronoi Tessellation", "boundary_quality": "DERIVED"}, "geometry": {"type": "Polygon", "coordinates": [[[79.12421, 22.80108], [79.12459, 22.80586], [79.12109, 22.80937], [79.11655, 22.81083], [79.1123, 22.81154], [79.10812, 22.81081], [79.10379, 22.80944], [79.10004, 22.80636], [79.10008, 22.80171], [79.10493, 22.7952], [79.10691, 22.79084], [79.11162, 22.78883], [79.11633, 22.79088], [79.12111, 22.79762], [79.12421, 22.80108]]]}}, {"type": "Feature", "properties": {"state": "Madhya Pradesh", "district": "Narsinghpur", "block": "Kareli", "gp_name": "Kareli Rural", "state_code": 23, "district_code": 414, "block_code": 3884, "gp_code": 133322, "centroid_lat": 22.8214, "centroid_lon": 79.092, "area_sq_km": 6.7, "boundary_source": "LGD Revenue Village Centroids + Block-Bounded Voronoi Tessellation", "boundary_quality": "DERIVED"}, "geometry": {"type": "Polygon", "coordinates": [[[79.10441, 22.82108], [79.10399, 22.82565], [79.10067, 22.82901], [79.09661, 22.83096], [79.08799, 22.83113], [79.0835, 22.82973], [79.08004, 22.82636], [79.07982, 22.82171], [79.08685, 22.81073], [79.09161, 22.80842], [79.09646, 22.81057], [79.0987, 22.81483], [79.10441, 22.82108]]]}}, {"type": "Feature", "properties": {"state": "Madhya Pradesh", "district": "Narsinghpur", "block": "Sainkheda", "gp_name": "Sainkheda Gram Panchayat", "state_code": 23, "district_code": 414, "block_code": 3885, "gp_code": 133323, "centroid_lat": 22.8014, "centroid_lon": 79.288, "area_sq_km": 6.8, "boundary_source": "LGD Revenue Village Centroids + Block-Bounded Voronoi Tessellation", "boundary_quality": "DERIVED"}, "geometry": {"type": "Polygon", "coordinates": [[[79.30016, 22.80107], [79.3003, 22.80574], [79.29665, 22.80896], [79.29261, 22.81092], [79.28413, 22.81082], [79.2794, 22.80985], [79.27599, 22.80639], [79.27542, 22.80174], [79.28079, 22.79509], [79.28307, 22.79122], [79.28759, 22.78844], [79.29238, 22.79074], [79.30016, 22.80107]]]}}, {"type": "Feature", "properties": {"state": "Madhya Pradesh", "district": "Narsinghpur", "block": "Sainkheda", "gp_name": "Sainkheda Rural", "state_code": 23, "district_code": 414, "block_code": 3885, "gp_code": 133324, "centroid_lat": 22.8214, "centroid_lon": 79.268, "area_sq_km": 6.9, "boundary_source": "LGD Revenue Village Centroids + Block-Bounded Voronoi Tessellation", "boundary_quality": "DERIVED"}, "geometry": {"type": "Polygon", "coordinates": [[[79.2803, 22.82107], [79.28045, 22.82579], [79.27708, 22.82935], [79.27253, 22.83077], [79.26401, 22.83111], [79.25942, 22.82983], [79.25626, 22.82628], [79.25559, 22.82173], [79.26076, 22.81507], [79.26296, 22.81099], [79.26759, 22.80829], [79.27246, 22.81053], [79.27469, 22.81483], [79.2803, 22.82107]]]}}]}