{"type": "FeatureCollection", "features": [{"type": "Feature", "properties": {"state": "Madhya Pradesh", "district": "Rewa", "block": "Rewa", "gp_name": "Rewa Gram Panchayat", "state_code": 23, "district_code": 419, "block_code": 4020, "gp_code": 133385, "centroid_lat": 24.52, "centroid_lon": 81.486, "area_sq_km": 8.0, "boundary_source": "LGD Revenue Village Centroids + Block-Bounded Voronoi Tessellation", "boundary_quality": "DERIVED"}, "geometry": {"type": "Polygon", "coordinates": [[[81.49828, 24.51947], [81.49856, 24.52413], [81.49512, 24.52759], [81.49083, 24.52939], [81.48652, 24.53002], [81.48218, 24.52972], [81.47779, 24.52825], [81.47393, 24.5252], [81.47391, 24.52052], [81.47614, 24.51675], [81.47876, 24.51397], [81.48059, 24.50949], [81.48535, 24.50732], [81.49013, 24.50949], [81.49257, 24.51339], [81.49828, 24.51947]]]}}, {"type": "Feature", "properties": {"state": "Madhya Pradesh", "district": "Rewa", "block": "Rewa", "gp_name": "Rewa Rural", "state_code": 23, "district_code": 419, "block_code": 4020, "gp_code": 133386, "centroid_lat": 24.54, "centroid_lon": 81.466, "area_sq_km": 8.1, "boundary_source": "LGD Revenue Village Centroids + Block-Bounded Voronoi Tessellation", "boundary_quality": "DERIVED"}, "geometry": {"type": "Polygon", "coordinates": [[[81.47819, 24.53947], [81.47821, 24.54402], [81.4751, 24.54757], [81.47082, 24.54937], [81.46651, 24.5499], [81.46213, 24.54983], [81.45789, 24.54815], [81.45366, 24.54531], [81.4536, 24.54053], [81.45858, 24.53382], [81.46085, 24.52998], [81.46533, 24.52702], [81.47027, 24.52915], [81.47819, 24.53947]]]}}, {"type": "Feature", "properties": {"state": "Madhya Pradesh", "district": "Rewa", "block": "Gangev", "gp_name": "Gangev Gram Panchayat", "state_code": 23, "district_code": 419, "block_code": 4021, "gp_code": 133387, "centroid_lat": 24.6065, "centroid_lon": 81.4581, "area_sq_km": 8.2, "boundary_source": "LGD Revenue Village Centroids + Block-Bounded Voronoi Tessellation", "boundary_quality": "DERIVED"}, "geometry": {"type": "Polygon", "coordinates": [[[81.47063, 24.60596], [81.47067, 24.61064], [81.46721, 24.61408], [81.46283, 24.61569], [81.45861, 24.61637], [81.45423, 24.61632], [81.44971, 24.61492], [81.44629, 24.61158], [81.44593, 24.60702], [81.44812, 24.60322], [81.45068, 24.60032], [81.45292, 24.59644], [81.45746, 24.59399], [81.46235, 24.5957], [81.46729, 24.60255], [81.47063, 24.60596]]]}}, {"type": "Feature", "properties": {"state": "Madhya Pradesh", "district": "Rewa", "block": "Gangev", "gp_name": "Gangev Rural", "state_code": 23, "district_code": 419, "block_code": 4021, "gp_code": 133388, "centroid_lat": 24.6265, "centroid_lon": 81.4381, "area_sq_km": 8.3, "boundary_source": "LGD Revenue Village Centroids + Block-Bounded Voronoi Tessellation", "boundary_quality": "DERIVED"}, "geometry": {"type": "Polygon", "coordinates": [[[81.45016, 24.62598], [81.45041, 24.63055], [81.44731, 24.63416], [81.44299, 24.63601], [81.43443, 24.63582], [81.42958, 24.63505], [81.42576, 24.63181], [81.42574, 24.62703], [81.42811, 24.62321], [81.43052, 24.62019], [81.43276, 24.61612], [81.43744, 24.61366], [81.44241, 24.61557], [81.44475, 24.61982], [81.44756, 24.62243], [81.45016, 24.62598]]]}}, {"type": "Feature", "properties": {"state": "Madhya Pradesh", "district": "Rewa", "block": "Hanumana", "gp_name": "Hanumana Gram Panchayat", "state_code": 23, "district_code": 419, "block_code": 4022, "gp_code": 133389, "centroid_lat": 24.6655, "centroid_lon": 81.3831, "area_sq_km": 8.4, "boundary_source": "LGD Revenue Village Centroids + Block-Bounded Voronoi Tessellation", "boundary_quality": "DERIVED"}, "geometry": {"type": "Polygon", "coordinates": [[[81.39518, 24.66498], [81.3956, 24.66962], [81.39229, 24.67315], [81.38795, 24.67493], [81.37922, 24.67534], [81.37479, 24.67383], [81.37105, 24.67067], [81.37075, 24.66603], [81.3778, 24.65519], [81.38244, 24.65264], [81.38738, 24.65465], [81.39518, 24.66498]]]}}, {"type": "Feature", "properties": {"state": "Madhya Pradesh", "district": "Rewa", "block": "Hanumana", "gp_name": "Hanumana Rural", "state_code": 23, "district_code": 419, "block_code": 4022, "gp_code": 133390, "centroid_lat": 24.6855, "centroid_lon": 81.3631, "area_sq_km": 8.5, "boundary_source": "LGD Revenue Village Centroids + Block-Bounded Voronoi Tessellation", "boundary_quality": "DERIVED"}, "geometry": {"type": "Polygon", "coordinates": [[[81.37522, 24.68498], [81.37588, 24.68971], [81.37203, 24.69294], [81.36361, 24.69556], [81.3592, 24.69537], [81.35498, 24.69364], [81.35097, 24.69071], [81.35076, 24.68602], [81.35326, 24.68226], [81.35584, 24.67946], [81.35774, 24.67509], [81.36243, 24.67236], [81.36726, 24.67496], [81.36977, 24.67881], [81.37522, 24.68498]]]}}, {"type": "Feature", "properties": {"state": "Madhya Pradesh", "district": "Rewa", "block": "Huzur", "gp_name": "Huzur Gram Panchayat", "state_code": 23, "district_code": 419, "block_code": 4023, "gp_code": 133391, "centroid_lat": 24.6784, "centroid_lon": 81.285, "area_sq_km": 8.6, "boundary_source": "LGD Revenue Village Centroids + Block-Bounded Voronoi Tessellation", "boundary_quality": "DERIVED"}, "geometry": {"type": "Polygon", "coordinates": [[[81.29717, 24.67789], [81.29783, 24.68263], [81.29424, 24.6861], [81.28985, 24.68785], [81.28113, 24.68819], [81.27689, 24.68653], [81.27283, 24.68362], [81.27257, 24.67892], [81.27983, 24.66834], [81.28434, 24.66538], [81.2893, 24.66753], [81.29166, 24.67173], [81.29717, 24.67789]]]}}, {"type": "Feature", "properties": {"state": "Madhya Pradesh", "district": "Rewa", "block": "Huzur", "gp_name": "Huzur Rural", "state_code": 23, "district_code": 419, "block_code": 4023, "gp_code": 133392, "centroid_lat": 24.6984, "centroid_lon": 81.265, "area_sq_km": 8.7, "boundary_source": "LGD Revenue Village Centroids + Block-Bounded Voronoi Tessellation", "boundary_quality": "DERIVED"}, "geometry": {"type": "Polygon", "coordinates": [[[81.27716, 24.69789], [81.27773, 24.7026], [81.27408, 24.70597], [81.26984, 24.70783], [81.26125, 24.70787], [81.25682, 24.70659], [81.25308, 24.70351], [81.25296, 24.6989], [81.25964, 24.68796], [81.26435, 24.68554], [81.2693, 24.68754], [81.2716, 24.69179], [81.27462, 24.69428], [81.27716, 24.69789]]]}}, {"type": "Feature", "properties": {"state": "Madhya Pradesh", "district": "Rewa", "block": "Jawa", "gp_name": "Jawa Gram Panchayat", "state_code": 23, "district_code": 419, "block_code": 4024, "gp_code": 133393, "centroid_lat": 24.6409, "centroid_lon": 81.1947, "area_sq_km": 8.8, "boundary_source": "LGD Revenue Village Centroids + Block-Bounded Voronoi Tessellation", "boundary_quality": "DERIVED"}, "geometry": {"type": "Polygon", "coordinates": [[[81.20693, 24.64039], [81.20731, 24.64507], [81.20407, 24.64872], [81.19932, 24.64991], [81.19519, 24.6507], [81.19099, 24.65026], [81.18639, 24.64921], [81.18254, 24.6461], [81.18218, 24.64142], [81.18506, 24.63771], [81.1893, 24.63035], [81.19406, 24.62798], [81.19887, 24.63038], [81.20693, 24.64039]]]}}, {"type": "Feature", "properties": {"state": "Madhya Pradesh", "district": "Rewa", "block": "Jawa", "gp_name": "Jawa Rural", "state_code": 23, "district_code": 419, "block_code": 4024, "gp_code": 133394, "centroid_lat": 24.6609, "centroid_lon": 81.1747, "area_sq_km": 8.9, "boundary_source": "LGD Revenue Village Centroids + Block-Bounded Voronoi Tessellation", "boundary_quality": "DERIVED"}, "geometry": {"type": "Polygon", "coordinates": [[[81.18733, 24.66038], [81.18707, 24.665], [81.18391, 24.66859], [81.17951, 24.67028], [81.1752, 24.67097], [81.16613, 24.66947], [81.1629, 24.66595], [81.16234, 24.66141], [81.16713, 24.65458], [81.16937, 24.65049], [81.17406, 24.64791], [81.17896, 24.65015], [81.18157, 24.65403], [81.18733, 24.66038]]]}}, {"type": "Feature", "properties": {"state": "Madhya Pradesh", "district": "Rewa", "block": "Mauganj", "gp_name": "Mauganj Gram Panchayat", "state_code": 23, "district_code": 419, "block_code": 4025, "gp_code": 133395, "centroid_lat": 24.5651, "centroid_lon": 81.1411, "area_sq_km": 9.0, "boundary_source": "LGD Revenue Village Centroids + Block-Bounded Voronoi Tessellation", "boundary_quality": "DERIVED"}, "geometry": {"type": "Polygon", "coordinates": [[[81.15327, 24.5646], [81.15385, 24.56933], [81.15047, 24.57293], [81.14597, 24.57463], [81.14159, 24.57518], [81.1372, 24.57493], [81.13298, 24.57322], [81.12906, 24.57025], [81.12896, 24.5656], [81.13594, 24.55501], [81.14046, 24.55202], [81.14531, 24.55448], [81.14784, 24.55836], [81.15327, 24.5646]]]}}, {"type": "Feature", "properties": {"state": "Madhya Pradesh", "district": "Rewa", "block": "Mauganj", "gp_name": "Mauganj Rural", "state_code": 23, "district_code": 419, "block_code": 4025, "gp_code": 133396, "centroid_lat": 24.5851, "centroid_lon": 81.1211, "area_sq_km": 9.1, "boundary_source": "LGD Revenue Village Centroids + Block-Bounded Voronoi Tessellation", "boundary_quality": "DERIVED"}, "geometry": {"type": "Polygon", "coordinates": [[[81.13376, 24.58458], [81.13368, 24.58927], [81.1304, 24.59288], [81.12158, 24.59488], [81.11722, 24.59487], [81.1129, 24.5933], [81.10914, 24.59021], [81.10845, 24.58562], [81.11346, 24.57871], [81.11576, 24.57465], [81.12048, 24.57242], [81.12536, 24.57438], [81.12775, 24.57845], [81.13376, 24.58458]]]}}, {"type": "Feature", "properties": {"state": "Madhya Pradesh", "district": "Rewa", "block": "Naigarhi", "gp_name": "Naigarhi Gram Panchayat", "state_code": 23, "district_code": 419, "block_code": 4026, "gp_code": 133397, "centroid_lat": 24.4749, "centroid_lon": 81.1411, "area_sq_km": 9.2, "boundary_source": "LGD Revenue Village Centroids + Block-Bounded Voronoi Tessellation", "boundary_quality": "DERIVED"}, "geometry": {"type": "Polygon", "coordinates": [[[81.1534, 24.4744], [81.15345, 24.479], [81.15037, 24.48266], [81.14582, 24.48414], [81.14159, 24.48491], [81.13254, 24.48346], [81.12894, 24.4801], [81.1286, 24.47541], [81.13387, 24.46885], [81.13586, 24.46464], [81.14049, 24.46231], [81.14545, 24.46393], [81.14767, 24.46833], [81.15065, 24.47081], [81.1534, 24.4744]]]}}, {"type": "Feature", "properties": {"state": "Madhya Pradesh", "district": "Rewa", "block": "Naigarhi", "gp_name": "Naigarhi Rural", "state_code": 23, "district_code": 419, "block_code": 4026, "gp_code": 133398, "centroid_lat": 24.4949, "centroid_lon": 81.1211, "area_sq_km": 9.3, "boundary_source": "LGD Revenue Village Centroids + Block-Bounded Voronoi Tessellation", "boundary_quality": "DERIVED"}, "geometry": {"type": "Polygon", "coordinates": [[[81.13335, 24.4944], [81.13353, 24.49903], [81.13001, 24.50236], [81.12585, 24.5042], [81.11727, 24.50454], [81.11269, 24.50331], [81.10898, 24.50008], [81.10868, 24.4954], [81.11123, 24.49162], [81.1139, 24.48887], [81.11591, 24.48474], [81.12046, 24.48179], [81.12538, 24.48411], [81.12796, 24.48804], [81.13335, 24.4944]]]}}, {"type": "Feature", "properties": {"state": "Madhya Pradesh", "district": "Rewa", "block": "Raipur Karchuliyan", "gp_name": "Raipur Karchuliyan Gram Panchayat", "state_code": 23, "district_code": 419, "block_code": 4027, "gp_code": 133399, "centroid_lat": 24.3991, "centroid_lon": 81.1947, "area_sq_km": 9.4, "boundary_source": "LGD Revenue Village Centroids + Block-Bounded Voronoi Tessellation", "boundary_quality": "DERIVED"}, "geometry": {"type": "Polygon", "coordinates": [[[81.20705, 24.39859], [81.20712, 24.40323], [81.20403, 24.40691], [81.19941, 24.40832], [81.19518, 24.40898], [81.19087, 24.40877], [81.18645, 24.40736], [81.18287, 24.40417], [81.18209, 24.39962], [81.18749, 24.39307], [81.18959, 24.3891], [81.19408, 24.38646], [81.19894, 24.3884], [81.20705, 24.39859]]]}}, {"type": "Feature", "properties": {"state": "Madhya Pradesh", "district": "Rewa", "block": "Raipur Karchuliyan", "gp_name": "Raipur Karchuliyan Rural", "state_code": 23, "district_code": 419, "block_code": 4027, "gp_code": 133400, "centroid_lat": 24.4191, "centroid_lon": 81.1747, "area_sq_km": 4.5, "boundary_source": "LGD Revenue Village Centroids + Block-Bounded Voronoi Tessellation", "boundary_quality": "DERIVED"}, "geometry": {"type": "Polygon", "coordinates": [[[81.18683, 24.4186], [81.18707, 24.42321], [81.1839, 24.4268], [81.17941, 24.42832], [81.17517, 24.42882], [81.16616, 24.42765], [81.16277, 24.42421], [81.16204, 24.41962], [81.16716, 24.41279], [81.16948, 24.40888], [81.17409, 24.40659], [81.17886, 24.40859], [81.18142, 24.41237], [81.18683, 24.4186]]]}}, {"type": "Feature", "properties": {"state": "Madhya Pradesh", "district": "Rewa", "block": "Semariya", "gp_name": "Semariya Gram Panchayat", "state_code": 23, "district_code": 419, "block_code": 4028, "gp_code": 133401, "centroid_lat": 24.3616, "centroid_lon": 81.285, "area_sq_km": 4.6, "boundary_source": "LGD Revenue Village Centroids + Block-Bounded Voronoi Tessellation", "boundary_quality": "DERIVED"}, "geometry": {"type": "Polygon", "coordinates": [[[81.29746, 24.36108], [81.29774, 24.36582], [81.29397, 24.3691], [81.28975, 24.37089], [81.28122, 24.37116], [81.27675, 24.36988], [81.27305, 24.36673], [81.27245, 24.36212], [81.27744, 24.35528], [81.2796, 24.35103], [81.28437, 24.34897], [81.28916, 24.35108], [81.29746, 24.36108]]]}}, {"type": "Feature", "properties": {"state": "Madhya Pradesh", "district": "Rewa", "block": "Semariya", "gp_name": "Semariya Rural", "state_code": 23, "district_code": 419, "block_code": 4028, "gp_code": 133402, "centroid_lat": 24.3816, "centroid_lon": 81.265, "area_sq_km": 4.7, "boundary_source": "LGD Revenue Village Centroids + Block-Bounded Voronoi Tessellation", "boundary_quality": "DERIVED"}, "geometry": {"type": "Polygon", "coordinates": [[[81.27715, 24.38109], [81.27743, 24.38572], [81.27415, 24.38925], [81.26974, 24.39087], [81.26548, 24.39137], [81.25668, 24.38995], [81.25309, 24.38671], [81.25286, 24.3821], [81.2575, 24.37532], [81.25965, 24.37114], [81.26437, 24.36888], [81.26916, 24.37108], [81.27174, 24.37484], [81.27715, 24.38109]]]}}, {"type": "Feature", "properties": {"state": "Madhya Pradesh", "district": "Rewa", "block": "Sirmaur", "gp_name": "Sirmaur Gram Panchayat", "state_code": 23, "district_code": 419, "block_code": 4029, "gp_code": 133403, "centroid_lat": 24.3745, "centroid_lon": 81.3831, "area_sq_km": 4.8, "boundary_source": "LGD Revenue Village Centroids + Block-Bounded Voronoi Tessellation", "boundary_quality": "DERIVED"}, "geometry": {"type": "Polygon", "coordinates": [[[81.39534, 24.37398], [81.39561, 24.37864], [81.39226, 24.38215], [81.38775, 24.38357], [81.3792, 24.3844], [81.3746, 24.38304], [81.37094, 24.37973], [81.37097, 24.37501], [81.37329, 24.37125], [81.3779, 24.36435], [81.38244, 24.3615], [81.38736, 24.3637], [81.38985, 24.36772], [81.39534, 24.37398]]]}}, {"type": "Feature", "properties": {"state": "Madhya Pradesh", "district": "Rewa", "block": "Sirmaur", "gp_name": "Sirmaur Rural", "state_code": 23, "district_code": 419, "block_code": 4029, "gp_code": 133404, "centroid_lat": 24.3945, "centroid_lon": 81.3631, "area_sq_km": 4.9, "boundary_source": "LGD Revenue Village Centroids + Block-Bounded Voronoi Tessellation", "boundary_quality": "DERIVED"}, "geometry": {"type": "Polygon", "coordinates": [[[81.37522, 24.39399], [81.37556, 24.39862], [81.37215, 24.40206], [81.3636, 24.40448], [81.35485, 24.40278], [81.35134, 24.39955], [81.35072, 24.39502], [81.35569, 24.38831], [81.35778, 24.38412], [81.36245, 24.38159], [81.36733, 24.38377], [81.37211, 24.39063], [81.37522, 24.39399]]]}}, {"type": "Feature", "properties": {"state": "Madhya Pradesh", "district": "Rewa", "block": "Teonthar", "gp_name": "Teonthar Gram Panchayat", "state_code": 23, "district_code": 419, "block_code": 4030, "gp_code": 133405, "centroid_lat": 24.4335, "centroid_lon": 81.4581, "area_sq_km": 5.0, "boundary_source": "LGD Revenue Village Centroids + Block-Bounded Voronoi Tessellation", "boundary_quality": "DERIVED"}, "geometry": {"type": "Polygon", "coordinates": [[[81.47075, 24.43296], [81.47056, 24.43761], [81.46733, 24.44119], [81.46272, 24.44249], [81.45436, 24.44301], [81.44957, 24.44208], [81.44584, 24.43877], [81.44578, 24.43403], [81.45074, 24.42736], [81.4528, 24.42317], [81.45744, 24.42053], [81.4624, 24.42258], [81.4647, 24.42686], [81.47075, 24.43296]]]}}, {"type": "Feature", "properties": {"state": "Madhya Pradesh", "district": "Rewa", "block": "Teonthar", "gp_name": "Teonthar Rural", "state_code": 23, "district_code": 419, "block_code": 4030, "gp_code": 133406, "centroid_lat": 24.4535, "centroid_lon": 81.4381, "area_sq_km": 5.1, "boundary_source": "LGD Revenue Village Centroids + Block-Bounded Voronoi Tessellation", "boundary_quality": "DERIVED"}, "geometry": {"type": "Polygon", "coordinates": [[[81.45027, 24.45298], [81.45095, 24.45774], [81.44744, 24.46129], [81.43862, 24.46362], [81.43423, 24.46333], [81.42984, 24.4618], [81.42628, 24.45858], [81.42588, 24.45402], [81.43076, 24.44738], [81.43295, 24.44347], [81.43745, 24.44084], [81.44224, 24.443], [81.44477, 24.4468], [81.44766, 24.44939], [81.45027, 24.45298]]]}}]}