{"type": "FeatureCollection", "features": [{"type": "Feature", "properties": {"state": "Madhya Pradesh", "district": "Satna", "block": "Satna", "gp_name": "Satna Gram Panchayat", "state_code": 23, "district_code": 421, "block_code": 4060, "gp_code": 133429, "centroid_lat": 24.57, "centroid_lon": 81.016, "area_sq_km": 7.4, "boundary_source": "LGD Revenue Village Centroids + Block-Bounded Voronoi Tessellation", "boundary_quality": "DERIVED"}, "geometry": {"type": "Polygon", "coordinates": [[[81.02845, 24.5695], [81.02848, 24.57415], [81.02494, 24.57749], [81.0207, 24.57922], [81.01216, 24.57964], [81.00767, 24.57831], [81.00373, 24.57523], [81.00383, 24.57049], [81.00876, 24.56393], [81.01082, 24.55984], [81.01537, 24.55692], [81.02023, 24.55936], [81.02521, 24.56607], [81.02845, 24.5695]]]}}, {"type": "Feature", "properties": {"state": "Madhya Pradesh", "district": "Satna", "block": "Satna", "gp_name": "Satna Rural", "state_code": 23, "district_code": 421, "block_code": 4060, "gp_code": 133430, "centroid_lat": 24.59, "centroid_lon": 80.996, "area_sq_km": 7.5, "boundary_source": "LGD Revenue Village Centroids + Block-Bounded Voronoi Tessellation", "boundary_quality": "DERIVED"}, "geometry": {"type": "Polygon", "coordinates": [[[81.00858, 24.5895], [81.00824, 24.59407], [81.00533, 24.59782], [81.00081, 24.59944], [80.99207, 24.59987], [80.9877, 24.59829], [80.98383, 24.59519], [80.98334, 24.59051], [80.98644, 24.58682], [80.99067, 24.57955], [80.99537, 24.57691], [81.00022, 24.5794], [81.00261, 24.5834], [81.00553, 24.58593], [81.00858, 24.5895]]]}}, {"type": "Feature", "properties": {"state": "Madhya Pradesh", "district": "Satna", "block": "Amarpatan", "gp_name": "Amarpatan Gram Panchayat", "state_code": 23, "district_code": 421, "block_code": 4061, "gp_code": 133431, "centroid_lat": 24.6831, "centroid_lon": 80.9645, "area_sq_km": 7.6, "boundary_source": "LGD Revenue Village Centroids + Block-Bounded Voronoi Tessellation", "boundary_quality": "DERIVED"}, "geometry": {"type": "Polygon", "coordinates": [[[80.97722, 24.68259], [80.97734, 24.68737], [80.97389, 24.69096], [80.96935, 24.6926], [80.96073, 24.69256], [80.95619, 24.69138], [80.95211, 24.68838], [80.9523, 24.68359], [80.95471, 24.67984], [80.95937, 24.67304], [80.96388, 24.67007], [80.96884, 24.6722], [80.97149, 24.67613], [80.97722, 24.68259]]]}}, {"type": "Feature", "properties": {"state": "Madhya Pradesh", "district": "Satna", "block": "Amarpatan", "gp_name": "Amarpatan Rural", "state_code": 23, "district_code": 421, "block_code": 4061, "gp_code": 133432, "centroid_lat": 24.7031, "centroid_lon": 80.9445, "area_sq_km": 7.7, "boundary_source": "LGD Revenue Village Centroids + Block-Bounded Voronoi Tessellation", "boundary_quality": "DERIVED"}, "geometry": {"type": "Polygon", "coordinates": [[[80.9566, 24.70262], [80.95725, 24.70734], [80.95351, 24.71064], [80.94924, 24.7124], [80.94079, 24.71241], [80.93597, 24.7116], [80.93251, 24.70821], [80.93243, 24.70358], [80.93453, 24.69978], [80.93723, 24.69701], [80.93927, 24.69284], [80.9439, 24.69058], [80.94869, 24.69258], [80.9566, 24.70262]]]}}, {"type": "Feature", "properties": {"state": "Madhya Pradesh", "district": "Satna", "block": "Majhgawan", "gp_name": "Majhgawan Gram Panchayat", "state_code": 23, "district_code": 421, "block_code": 4062, "gp_code": 133433, "centroid_lat": 24.73, "centroid_lon": 80.84, "area_sq_km": 7.8, "boundary_source": "LGD Revenue Village Centroids + Block-Bounded Voronoi Tessellation", "boundary_quality": "DERIVED"}, "geometry": {"type": "Polygon", "coordinates": [[[80.85262, 24.72951], [80.85235, 24.73412], [80.84931, 24.73781], [80.84485, 24.73951], [80.83615, 24.73964], [80.83158, 24.73837], [80.82766, 24.73524], [80.82737, 24.73049], [80.83275, 24.72392], [80.83463, 24.71946], [80.8394, 24.71715], [80.84422, 24.71945], [80.85262, 24.72951]]]}}, {"type": "Feature", "properties": {"state": "Madhya Pradesh", "district": "Satna", "block": "Majhgawan", "gp_name": "Majhgawan Rural", "state_code": 23, "district_code": 421, "block_code": 4062, "gp_code": 133434, "centroid_lat": 24.75, "centroid_lon": 80.82, "area_sq_km": 7.9, "boundary_source": "LGD Revenue Village Centroids + Block-Bounded Voronoi Tessellation", "boundary_quality": "DERIVED"}, "geometry": {"type": "Polygon", "coordinates": [[[80.83217, 24.74953], [80.83236, 24.75412], [80.82919, 24.7577], [80.8248, 24.75943], [80.82046, 24.7599], [80.81167, 24.75829], [80.80797, 24.75511], [80.80744, 24.75049], [80.81236, 24.74359], [80.81467, 24.73953], [80.81939, 24.73694], [80.82437, 24.73907], [80.82909, 24.74614], [80.83217, 24.74953]]]}}, {"type": "Feature", "properties": {"state": "Madhya Pradesh", "district": "Satna", "block": "Nagod", "gp_name": "Nagod Gram Panchayat", "state_code": 23, "district_code": 421, "block_code": 4063, "gp_code": 133435, "centroid_lat": 24.6831, "centroid_lon": 80.7155, "area_sq_km": 8.0, "boundary_source": "LGD Revenue Village Centroids + Block-Bounded Voronoi Tessellation", "boundary_quality": "DERIVED"}, "geometry": {"type": "Polygon", "coordinates": [[[80.72822, 24.68261], [80.72818, 24.68734], [80.72456, 24.69071], [80.72015, 24.69226], [80.71595, 24.69292], [80.71168, 24.69263], [80.70688, 24.69166], [80.70355, 24.68817], [80.703, 24.68358], [80.70809, 24.67687], [80.71019, 24.67264], [80.71491, 24.67028], [80.71988, 24.67218], [80.72234, 24.67631], [80.72822, 24.68261]]]}}, {"type": "Feature", "properties": {"state": "Madhya Pradesh", "district": "Satna", "block": "Nagod", "gp_name": "Nagod Rural", "state_code": 23, "district_code": 421, "block_code": 4063, "gp_code": 133436, "centroid_lat": 24.7031, "centroid_lon": 80.6955, "area_sq_km": 8.1, "boundary_source": "LGD Revenue Village Centroids + Block-Bounded Voronoi Tessellation", "boundary_quality": "DERIVED"}, "geometry": {"type": "Polygon", "coordinates": [[[80.70784, 24.70263], [80.7081, 24.70732], [80.70463, 24.71077], [80.70013, 24.71221], [80.69595, 24.71292], [80.69167, 24.71265], [80.68729, 24.71125], [80.68308, 24.70836], [80.68289, 24.70358], [80.68558, 24.69978], [80.68829, 24.69704], [80.69011, 24.69249], [80.69491, 24.69008], [80.69987, 24.6922], [80.70234, 24.69631], [80.70784, 24.70263]]]}}, {"type": "Feature", "properties": {"state": "Madhya Pradesh", "district": "Satna", "block": "Ramnagar", "gp_name": "Ramnagar Gram Panchayat", "state_code": 23, "district_code": 421, "block_code": 4064, "gp_code": 133437, "centroid_lat": 24.57, "centroid_lon": 80.664, "area_sq_km": 8.2, "boundary_source": "LGD Revenue Village Centroids + Block-Bounded Voronoi Tessellation", "boundary_quality": "DERIVED"}, "geometry": {"type": "Polygon", "coordinates": [[[80.67642, 24.56953], [80.67674, 24.57427], [80.67303, 24.5776], [80.66881, 24.57949], [80.66022, 24.57942], [80.65547, 24.57847], [80.6522, 24.575], [80.6516, 24.57047], [80.65446, 24.5668], [80.65862, 24.55939], [80.66343, 24.55744], [80.66821, 24.5595], [80.67074, 24.5633], [80.67642, 24.56953]]]}}, {"type": "Feature", "properties": {"state": "Madhya Pradesh", "district": "Satna", "block": "Ramnagar", "gp_name": "Ramnagar Rural", "state_code": 23, "district_code": 421, "block_code": 4064, "gp_code": 133438, "centroid_lat": 24.59, "centroid_lon": 80.644, "area_sq_km": 8.3, "boundary_source": "LGD Revenue Village Centroids + Block-Bounded Voronoi Tessellation", "boundary_quality": "DERIVED"}, "geometry": {"type": "Polygon", "coordinates": [[[80.65639, 24.58953], [80.65674, 24.59427], [80.65316, 24.59772], [80.64864, 24.59916], [80.64444, 24.59972], [80.64022, 24.59943], [80.6358, 24.59814], [80.63191, 24.59512], [80.63194, 24.59045], [80.63404, 24.58666], [80.63665, 24.58381], [80.63876, 24.57965], [80.64342, 24.57717], [80.64825, 24.5794], [80.6531, 24.58614], [80.65639, 24.58953]]]}}, {"type": "Feature", "properties": {"state": "Madhya Pradesh", "district": "Satna", "block": "Rampur Baghelan", "gp_name": "Rampur Baghelan Gram Panchayat", "state_code": 23, "district_code": 421, "block_code": 4065, "gp_code": 133439, "centroid_lat": 24.4569, "centroid_lon": 80.7155, "area_sq_km": 8.4, "boundary_source": "LGD Revenue Village Centroids + Block-Bounded Voronoi Tessellation", "boundary_quality": "DERIVED"}, "geometry": {"type": "Polygon", "coordinates": [[[80.72793, 24.45643], [80.72787, 24.46105], [80.7247, 24.46465], [80.72027, 24.46631], [80.71156, 24.46675], [80.70723, 24.46512], [80.70354, 24.46198], [80.70348, 24.45736], [80.71031, 24.44665], [80.71492, 24.44415], [80.71966, 24.4465], [80.7222, 24.45023], [80.72793, 24.45643]]]}}, {"type": "Feature", "properties": {"state": "Madhya Pradesh", "district": "Satna", "block": "Rampur Baghelan", "gp_name": "Rampur Baghelan Rural", "state_code": 23, "district_code": 421, "block_code": 4065, "gp_code": 133440, "centroid_lat": 24.4769, "centroid_lon": 80.6955, "area_sq_km": 8.5, "boundary_source": "LGD Revenue Village Centroids + Block-Bounded Voronoi Tessellation", "boundary_quality": "DERIVED"}, "geometry": {"type": "Polygon", "coordinates": [[[80.70819, 24.47642], [80.70805, 24.48111], [80.70464, 24.4846], [80.70014, 24.48607], [80.69596, 24.487], [80.69159, 24.48667], [80.68688, 24.48547], [80.68358, 24.48195], [80.68299, 24.47737], [80.6883, 24.47083], [80.69034, 24.46671], [80.69492, 24.46411], [80.69984, 24.46607], [80.70216, 24.47028], [80.70819, 24.47642]]]}}, {"type": "Feature", "properties": {"state": "Madhya Pradesh", "district": "Satna", "block": "Sohawal", "gp_name": "Sohawal Gram Panchayat", "state_code": 23, "district_code": 421, "block_code": 4066, "gp_code": 133441, "centroid_lat": 24.41, "centroid_lon": 80.84, "area_sq_km": 8.6, "boundary_source": "LGD Revenue Village Centroids + Block-Bounded Voronoi Tessellation", "boundary_quality": "DERIVED"}, "geometry": {"type": "Polygon", "coordinates": [[[80.85244, 24.40952], [80.85276, 24.41427], [80.84893, 24.41751], [80.84046, 24.42005], [80.83152, 24.41845], [80.82803, 24.41509], [80.82733, 24.41049], [80.83246, 24.40365], [80.83468, 24.39952], [80.83941, 24.39718], [80.84426, 24.39933], [80.85244, 24.40952]]]}}, {"type": "Feature", "properties": {"state": "Madhya Pradesh", "district": "Satna", "block": "Sohawal", "gp_name": "Sohawal Rural", "state_code": 23, "district_code": 421, "block_code": 4066, "gp_code": 133442, "centroid_lat": 24.43, "centroid_lon": 80.82, "area_sq_km": 8.7, "boundary_source": "LGD Revenue Village Centroids + Block-Bounded Voronoi Tessellation", "boundary_quality": "DERIVED"}, "geometry": {"type": "Polygon", "coordinates": [[[80.8323, 24.42952], [80.83221, 24.43409], [80.82886, 24.43745], [80.82472, 24.4393], [80.82045, 24.43977], [80.81618, 24.43957], [80.81148, 24.43849], [80.80766, 24.43525], [80.80788, 24.43047], [80.81005, 24.42667], [80.8126, 24.42377], [80.81469, 24.41954], [80.81941, 24.41724], [80.82435, 24.4191], [80.82689, 24.42314], [80.8323, 24.42952]]]}}, {"type": "Feature", "properties": {"state": "Madhya Pradesh", "district": "Satna", "block": "Uchehara", "gp_name": "Uchehara Gram Panchayat", "state_code": 23, "district_code": 421, "block_code": 4067, "gp_code": 133443, "centroid_lat": 24.4569, "centroid_lon": 80.9645, "area_sq_km": 8.8, "boundary_source": "LGD Revenue Village Centroids + Block-Bounded Voronoi Tessellation", "boundary_quality": "DERIVED"}, "geometry": {"type": "Polygon", "coordinates": [[[80.97679, 24.45641], [80.97723, 24.46114], [80.97359, 24.46453], [80.96915, 24.46604], [80.96496, 24.46668], [80.95615, 24.46523], [80.95266, 24.46195], [80.95192, 24.4574], [80.95736, 24.45091], [80.95916, 24.4464], [80.96391, 24.44431], [80.9687, 24.44635], [80.97113, 24.45028], [80.97679, 24.45641]]]}}, {"type": "Feature", "properties": {"state": "Madhya Pradesh", "district": "Satna", "block": "Uchehara", "gp_name": "Uchehara Rural", "state_code": 23, "district_code": 421, "block_code": 4067, "gp_code": 133444, "centroid_lat": 24.4769, "centroid_lon": 80.9445, "area_sq_km": 8.9, "boundary_source": "LGD Revenue Village Centroids + Block-Bounded Voronoi Tessellation", "boundary_quality": "DERIVED"}, "geometry": {"type": "Polygon", "coordinates": [[[80.95679, 24.47641], [80.95721, 24.48114], [80.95348, 24.48443], [80.94924, 24.48622], [80.94067, 24.48652], [80.93636, 24.48503], [80.93215, 24.48216], [80.9318, 24.4774], [80.93936, 24.46679], [80.94391, 24.46439], [80.94874, 24.46625], [80.95679, 24.47641]]]}}]}