{"type": "FeatureCollection", "features": [{"type": "Feature", "properties": {"state": "Madhya Pradesh", "district": "Tikamgarh", "block": "Tikamgarh", "gp_name": "Tikamgarh Gram Panchayat", "state_code": 23, "district_code": 428, "block_code": 4240, "gp_code": 133529, "centroid_lat": 24.73, "centroid_lon": 78.972, "area_sq_km": 7.4, "boundary_source": "LGD Revenue Village Centroids + Block-Bounded Voronoi Tessellation", "boundary_quality": "DERIVED"}, "geometry": {"type": "Polygon", "coordinates": [[[78.98418, 24.72968], [78.98454, 24.73436], [78.98111, 24.73785], [78.97654, 24.73925], [78.97231, 24.73975], [78.96806, 24.73946], [78.96371, 24.73802], [78.95993, 24.73495], [78.95974, 24.73032], [78.96208, 24.72655], [78.96464, 24.72366], [78.96699, 24.7198], [78.97159, 24.717], [78.97636, 24.71953], [78.97875, 24.72346], [78.98418, 24.72968]]]}}, {"type": "Feature", "properties": {"state": "Madhya Pradesh", "district": "Tikamgarh", "block": "Tikamgarh", "gp_name": "Tikamgarh Rural", "state_code": 23, "district_code": 428, "block_code": 4240, "gp_code": 133530, "centroid_lat": 24.75, "centroid_lon": 78.952, "area_sq_km": 7.5, "boundary_source": "LGD Revenue Village Centroids + Block-Bounded Voronoi Tessellation", "boundary_quality": "DERIVED"}, "geometry": {"type": "Polygon", "coordinates": [[[78.96437, 24.74967], [78.96467, 24.75441], [78.96111, 24.75785], [78.95666, 24.75949], [78.95232, 24.76], [78.94792, 24.75979], [78.94359, 24.75814], [78.93955, 24.7551], [78.93985, 24.75032], [78.94219, 24.74659], [78.94692, 24.73965], [78.9516, 24.73729], [78.95641, 24.73941], [78.96437, 24.74967]]]}}, {"type": "Feature", "properties": {"state": "Madhya Pradesh", "district": "Tikamgarh", "block": "Baldeogarh", "gp_name": "Baldeogarh Gram Panchayat", "state_code": 23, "district_code": 428, "block_code": 4241, "gp_code": 133531, "centroid_lat": 24.85, "centroid_lon": 78.84, "area_sq_km": 7.6, "boundary_source": "LGD Revenue Village Centroids + Block-Bounded Voronoi Tessellation", "boundary_quality": "DERIVED"}, "geometry": {"type": "Polygon", "coordinates": [[[78.8521, 24.84969], [78.85283, 24.85447], [78.84925, 24.85798], [78.8403, 24.85984], [78.83593, 24.85973], [78.83126, 24.85844], [78.82806, 24.85488], [78.8275, 24.85032], [78.8349, 24.83961], [78.83959, 24.83684], [78.8445, 24.83924], [78.8521, 24.84969]]]}}, {"type": "Feature", "properties": {"state": "Madhya Pradesh", "district": "Tikamgarh", "block": "Baldeogarh", "gp_name": "Baldeogarh Rural", "state_code": 23, "district_code": 428, "block_code": 4241, "gp_code": 133532, "centroid_lat": 24.87, "centroid_lon": 78.82, "area_sq_km": 7.7, "boundary_source": "LGD Revenue Village Centroids + Block-Bounded Voronoi Tessellation", "boundary_quality": "DERIVED"}, "geometry": {"type": "Polygon", "coordinates": [[[78.83277, 24.86967], [78.83249, 24.87435], [78.82929, 24.87801], [78.82466, 24.8795], [78.81595, 24.87968], [78.81151, 24.87819], [78.808, 24.8749], [78.80778, 24.87031], [78.81263, 24.86364], [78.81492, 24.85964], [78.81959, 24.85681], [78.8245, 24.85924], [78.82699, 24.86326], [78.83277, 24.86967]]]}}, {"type": "Feature", "properties": {"state": "Madhya Pradesh", "district": "Tikamgarh", "block": "Jatara", "gp_name": "Jatara Gram Panchayat", "state_code": 23, "district_code": 428, "block_code": 4242, "gp_code": 133533, "centroid_lat": 24.73, "centroid_lon": 78.708, "area_sq_km": 7.8, "boundary_source": "LGD Revenue Village Centroids + Block-Bounded Voronoi Tessellation", "boundary_quality": "DERIVED"}, "geometry": {"type": "Polygon", "coordinates": [[[78.72009, 24.7297], [78.72059, 24.7344], [78.71699, 24.73777], [78.71263, 24.73947], [78.70388, 24.73983], [78.69957, 24.73812], [78.69576, 24.73499], [78.69548, 24.73031], [78.70091, 24.72387], [78.70291, 24.71959], [78.70761, 24.71688], [78.71253, 24.71918], [78.71497, 24.72328], [78.72009, 24.7297]]]}}, {"type": "Feature", "properties": {"state": "Madhya Pradesh", "district": "Tikamgarh", "block": "Jatara", "gp_name": "Jatara Rural", "state_code": 23, "district_code": 428, "block_code": 4242, "gp_code": 133534, "centroid_lat": 24.75, "centroid_lon": 78.688, "area_sq_km": 7.9, "boundary_source": "LGD Revenue Village Centroids + Block-Bounded Voronoi Tessellation", "boundary_quality": "DERIVED"}, "geometry": {"type": "Polygon", "coordinates": [[[78.70067, 24.74969], [78.70079, 24.75447], [78.69687, 24.75767], [78.69248, 24.75917], [78.68409, 24.75933], [78.67925, 24.75843], [78.67569, 24.75502], [78.67564, 24.7503], [78.67855, 24.7467], [78.68281, 24.73938], [78.68761, 24.7369], [78.69244, 24.73941], [78.69476, 24.74348], [78.70067, 24.74969]]]}}, {"type": "Feature", "properties": {"state": "Madhya Pradesh", "district": "Tikamgarh", "block": "Palera", "gp_name": "Palera Gram Panchayat", "state_code": 23, "district_code": 428, "block_code": 4243, "gp_code": 133535, "centroid_lat": 24.61, "centroid_lon": 78.84, "area_sq_km": 8.0, "boundary_source": "LGD Revenue Village Centroids + Block-Bounded Voronoi Tessellation", "boundary_quality": "DERIVED"}, "geometry": {"type": "Polygon", "coordinates": [[[78.85257, 24.60968], [78.85238, 24.61432], [78.84911, 24.61787], [78.84454, 24.61927], [78.8403, 24.61986], [78.83129, 24.61842], [78.82806, 24.61488], [78.82743, 24.61032], [78.83284, 24.60381], [78.83501, 24.59979], [78.8396, 24.59688], [78.84439, 24.59948], [78.85257, 24.60968]]]}}, {"type": "Feature", "properties": {"state": "Madhya Pradesh", "district": "Tikamgarh", "block": "Palera", "gp_name": "Palera Rural", "state_code": 23, "district_code": 428, "block_code": 4243, "gp_code": 133536, "centroid_lat": 24.63, "centroid_lon": 78.82, "area_sq_km": 8.1, "boundary_source": "LGD Revenue Village Centroids + Block-Bounded Voronoi Tessellation", "boundary_quality": "DERIVED"}, "geometry": {"type": "Polygon", "coordinates": [[[78.83209, 24.62969], [78.8325, 24.63436], [78.82884, 24.63764], [78.82448, 24.63916], [78.82029, 24.63966], [78.81133, 24.63838], [78.80803, 24.63489], [78.80745, 24.63032], [78.8129, 24.62386], [78.81497, 24.61972], [78.8196, 24.61692], [78.8244, 24.61946], [78.83209, 24.62969]]]}}]}