{"type": "FeatureCollection", "features": [{"type": "Feature", "properties": {"state": "Madhya Pradesh", "district": "Vidisha", "block": "Vidisha", "gp_name": "Vidisha Gram Panchayat", "state_code": 23, "district_code": 429, "block_code": 4300, "gp_code": 133557, "centroid_lat": 23.51, "centroid_lon": 77.996, "area_sq_km": 5.2, "boundary_source": "LGD Revenue Village Centroids + Block-Bounded Voronoi Tessellation", "boundary_quality": "DERIVED"}, "geometry": {"type": "Polygon", "coordinates": [[[78.00842, 23.50976], [78.00823, 23.5144], [78.00468, 23.51767], [78.00057, 23.51959], [77.99202, 23.51942], [77.98763, 23.51805], [77.98362, 23.51501], [77.98388, 23.51023], [77.98619, 23.50647], [77.99105, 23.49961], [77.99571, 23.49723], [78.00051, 23.49935], [78.00528, 23.50625], [78.00842, 23.50976]]]}}, {"type": "Feature", "properties": {"state": "Madhya Pradesh", "district": "Vidisha", "block": "Vidisha", "gp_name": "Vidisha Rural", "state_code": 23, "district_code": 429, "block_code": 4300, "gp_code": 133558, "centroid_lat": 23.53, "centroid_lon": 77.976, "area_sq_km": 5.3, "boundary_source": "LGD Revenue Village Centroids + Block-Bounded Voronoi Tessellation", "boundary_quality": "DERIVED"}, "geometry": {"type": "Polygon", "coordinates": [[[77.98817, 23.52977], [77.98848, 23.53449], [77.98493, 23.5379], [77.9805, 23.53945], [77.97622, 23.53995], [77.97192, 23.53965], [77.96769, 23.53798], [77.96377, 23.53495], [77.96388, 23.53023], [77.96635, 23.52653], [77.96894, 23.52375], [77.97095, 23.51939], [77.97571, 23.51721], [77.9804, 23.51961], [77.9827, 23.52356], [77.98551, 23.52615], [77.98817, 23.52977]]]}}, {"type": "Feature", "properties": {"state": "Madhya Pradesh", "district": "Vidisha", "block": "Basoda", "gp_name": "Basoda Gram Panchayat", "state_code": 23, "district_code": 429, "block_code": 4301, "gp_code": 133559, "centroid_lat": 23.6351, "centroid_lon": 77.9297, "area_sq_km": 5.4, "boundary_source": "LGD Revenue Village Centroids + Block-Bounded Voronoi Tessellation", "boundary_quality": "DERIVED"}, "geometry": {"type": "Polygon", "coordinates": [[[77.94216, 23.63486], [77.94198, 23.63952], [77.93882, 23.64316], [77.93405, 23.64425], [77.92991, 23.64473], [77.92098, 23.64347], [77.91783, 23.6399], [77.91771, 23.63533], [77.91984, 23.63155], [77.92244, 23.62868], [77.92476, 23.62472], [77.92941, 23.62194], [77.9342, 23.62449], [77.93653, 23.62854], [77.94216, 23.63486]]]}}, {"type": "Feature", "properties": {"state": "Madhya Pradesh", "district": "Vidisha", "block": "Basoda", "gp_name": "Basoda Rural", "state_code": 23, "district_code": 429, "block_code": 4301, "gp_code": 133560, "centroid_lat": 23.6551, "centroid_lon": 77.9097, "area_sq_km": 5.5, "boundary_source": "LGD Revenue Village Centroids + Block-Bounded Voronoi Tessellation", "boundary_quality": "DERIVED"}, "geometry": {"type": "Polygon", "coordinates": [[[77.9222, 23.65486], [77.92196, 23.65951], [77.91876, 23.66311], [77.91415, 23.66445], [77.90557, 23.66483], [77.90118, 23.66327], [77.89732, 23.6601], [77.89713, 23.65534], [77.90039, 23.65175], [77.90483, 23.64486], [77.90942, 23.64238], [77.91417, 23.64456], [77.9222, 23.65486]]]}}, {"type": "Feature", "properties": {"state": "Madhya Pradesh", "district": "Vidisha", "block": "Gyaraspur", "gp_name": "Gyaraspur Gram Panchayat", "state_code": 23, "district_code": 429, "block_code": 4302, "gp_code": 133561, "centroid_lat": 23.666, "centroid_lon": 77.7808, "area_sq_km": 5.6, "boundary_source": "LGD Revenue Village Centroids + Block-Bounded Voronoi Tessellation", "boundary_quality": "DERIVED"}, "geometry": {"type": "Polygon", "coordinates": [[[77.79319, 23.66578], [77.79289, 23.67036], [77.78955, 23.67375], [77.78516, 23.67518], [77.78101, 23.67603], [77.77667, 23.6757], [77.77227, 23.67417], [77.76856, 23.67093], [77.76875, 23.66622], [77.77595, 23.65578], [77.78053, 23.65317], [77.78538, 23.65523], [77.78761, 23.65948], [77.79319, 23.66578]]]}}, {"type": "Feature", "properties": {"state": "Madhya Pradesh", "district": "Vidisha", "block": "Gyaraspur", "gp_name": "Gyaraspur Rural", "state_code": 23, "district_code": 429, "block_code": 4302, "gp_code": 133562, "centroid_lat": 23.686, "centroid_lon": 77.7608, "area_sq_km": 5.7, "boundary_source": "LGD Revenue Village Centroids + Block-Bounded Voronoi Tessellation", "boundary_quality": "DERIVED"}, "geometry": {"type": "Polygon", "coordinates": [[[77.77282, 23.68579], [77.77344, 23.69056], [77.76956, 23.69376], [77.76535, 23.69558], [77.75674, 23.69555], [77.75209, 23.69433], [77.74832, 23.69102], [77.74865, 23.68622], [77.75576, 23.67538], [77.76052, 23.67287], [77.76533, 23.67535], [77.77282, 23.68579]]]}}, {"type": "Feature", "properties": {"state": "Madhya Pradesh", "district": "Vidisha", "block": "Kurwai", "gp_name": "Kurwai Gram Panchayat", "state_code": 23, "district_code": 429, "block_code": 4303, "gp_code": 133563, "centroid_lat": 23.5794, "centroid_lon": 77.6614, "area_sq_km": 5.8, "boundary_source": "LGD Revenue Village Centroids + Block-Bounded Voronoi Tessellation", "boundary_quality": "DERIVED"}, "geometry": {"type": "Polygon", "coordinates": [[[77.67372, 23.57919], [77.67405, 23.58398], [77.67028, 23.58728], [77.6658, 23.5887], [77.65721, 23.58923], [77.653, 23.58744], [77.64949, 23.58419], [77.64918, 23.57961], [77.65658, 23.56921], [77.66114, 23.56654], [77.66602, 23.56856], [77.66815, 23.57294], [77.67372, 23.57919]]]}}, {"type": "Feature", "properties": {"state": "Madhya Pradesh", "district": "Vidisha", "block": "Kurwai", "gp_name": "Kurwai Rural", "state_code": 23, "district_code": 429, "block_code": 4303, "gp_code": 133564, "centroid_lat": 23.5994, "centroid_lon": 77.6414, "area_sq_km": 5.9, "boundary_source": "LGD Revenue Village Centroids + Block-Bounded Voronoi Tessellation", "boundary_quality": "DERIVED"}, "geometry": {"type": "Polygon", "coordinates": [[[77.65358, 23.59919], [77.65343, 23.60375], [77.65013, 23.60715], [77.64583, 23.60876], [77.6416, 23.60926], [77.63738, 23.60882], [77.63287, 23.60756], [77.62939, 23.60422], [77.62925, 23.59961], [77.63175, 23.59591], [77.63434, 23.59313], [77.63653, 23.58911], [77.64114, 23.58646], [77.64592, 23.58879], [77.65358, 23.59919]]]}}, {"type": "Feature", "properties": {"state": "Madhya Pradesh", "district": "Vidisha", "block": "Leteri", "gp_name": "Leteri Gram Panchayat", "state_code": 23, "district_code": 429, "block_code": 4304, "gp_code": 133565, "centroid_lat": 23.4406, "centroid_lon": 77.6614, "area_sq_km": 6.0, "boundary_source": "LGD Revenue Village Centroids + Block-Bounded Voronoi Tessellation", "boundary_quality": "DERIVED"}, "geometry": {"type": "Polygon", "coordinates": [[[77.67389, 23.44039], [77.67392, 23.44514], [77.67027, 23.44849], [77.6657, 23.44971], [77.66159, 23.45022], [77.65742, 23.44995], [77.65285, 23.44879], [77.64932, 23.44546], [77.64901, 23.44081], [77.65419, 23.43419], [77.65655, 23.43033], [77.66115, 23.42795], [77.66584, 23.43018], [77.66836, 23.43394], [77.67389, 23.44039]]]}}, {"type": "Feature", "properties": {"state": "Madhya Pradesh", "district": "Vidisha", "block": "Leteri", "gp_name": "Leteri Rural", "state_code": 23, "district_code": 429, "block_code": 4304, "gp_code": 133566, "centroid_lat": 23.4606, "centroid_lon": 77.6414, "area_sq_km": 6.1, "boundary_source": "LGD Revenue Village Centroids + Block-Bounded Voronoi Tessellation", "boundary_quality": "DERIVED"}, "geometry": {"type": "Polygon", "coordinates": [[[77.6539, 23.46039], [77.65341, 23.46495], [77.6502, 23.46842], [77.64591, 23.47015], [77.6416, 23.47042], [77.63743, 23.46992], [77.63296, 23.46867], [77.62941, 23.46542], [77.62877, 23.46081], [77.63196, 23.45718], [77.63659, 23.45041], [77.64114, 23.44746], [77.64592, 23.45], [77.64842, 23.45388], [77.6539, 23.46039]]]}}, {"type": "Feature", "properties": {"state": "Madhya Pradesh", "district": "Vidisha", "block": "Nateran", "gp_name": "Nateran Gram Panchayat", "state_code": 23, "district_code": 429, "block_code": 4305, "gp_code": 133567, "centroid_lat": 23.354, "centroid_lon": 77.7808, "area_sq_km": 6.2, "boundary_source": "LGD Revenue Village Centroids + Block-Bounded Voronoi Tessellation", "boundary_quality": "DERIVED"}, "geometry": {"type": "Polygon", "coordinates": [[[77.79329, 23.35378], [77.79289, 23.35837], [77.7896, 23.36182], [77.78536, 23.36364], [77.77675, 23.36353], [77.7724, 23.36206], [77.76894, 23.35879], [77.76883, 23.35421], [77.77116, 23.35051], [77.77588, 23.34361], [77.78053, 23.34112], [77.78535, 23.34327], [77.78753, 23.34754], [77.79329, 23.35378]]]}}, {"type": "Feature", "properties": {"state": "Madhya Pradesh", "district": "Vidisha", "block": "Nateran", "gp_name": "Nateran Rural", "state_code": 23, "district_code": 429, "block_code": 4305, "gp_code": 133568, "centroid_lat": 23.374, "centroid_lon": 77.7608, "area_sq_km": 6.3, "boundary_source": "LGD Revenue Village Centroids + Block-Bounded Voronoi Tessellation", "boundary_quality": "DERIVED"}, "geometry": {"type": "Polygon", "coordinates": [[[77.77343, 23.37378], [77.77308, 23.37844], [77.76966, 23.38187], [77.76537, 23.38365], [77.7568, 23.38342], [77.75244, 23.38202], [77.74885, 23.37882], [77.74835, 23.37422], [77.75132, 23.37057], [77.75585, 23.36354], [77.76053, 23.3611], [77.76538, 23.3632], [77.76761, 23.36747], [77.77343, 23.37378]]]}}, {"type": "Feature", "properties": {"state": "Madhya Pradesh", "district": "Vidisha", "block": "Sironj", "gp_name": "Sironj Gram Panchayat", "state_code": 23, "district_code": 429, "block_code": 4306, "gp_code": 133569, "centroid_lat": 23.3849, "centroid_lon": 77.9297, "area_sq_km": 6.4, "boundary_source": "LGD Revenue Village Centroids + Block-Bounded Voronoi Tessellation", "boundary_quality": "DERIVED"}, "geometry": {"type": "Polygon", "coordinates": [[[77.94232, 23.38466], [77.94187, 23.38929], [77.93856, 23.39275], [77.93414, 23.39426], [77.92992, 23.39494], [77.92561, 23.39456], [77.92141, 23.39287], [77.91777, 23.38973], [77.91745, 23.38513], [77.92275, 23.37874], [77.92469, 23.37435], [77.92942, 23.37202], [77.9343, 23.37404], [77.93677, 23.3781], [77.94232, 23.38466]]]}}, {"type": "Feature", "properties": {"state": "Madhya Pradesh", "district": "Vidisha", "block": "Sironj", "gp_name": "Sironj Rural", "state_code": 23, "district_code": 429, "block_code": 4306, "gp_code": 133570, "centroid_lat": 23.4049, "centroid_lon": 77.9097, "area_sq_km": 6.5, "boundary_source": "LGD Revenue Village Centroids + Block-Bounded Voronoi Tessellation", "boundary_quality": "DERIVED"}, "geometry": {"type": "Polygon", "coordinates": [[[77.92188, 23.40467], [77.9218, 23.40926], [77.91868, 23.41286], [77.91426, 23.41451], [77.90571, 23.41432], [77.90104, 23.41322], [77.89748, 23.40984], [77.89704, 23.40514], [77.90253, 23.39855], [77.90469, 23.39435], [77.90942, 23.39205], [77.91413, 23.39444], [77.91645, 23.39841], [77.92188, 23.40467]]]}}]}