{"type": "FeatureCollection", "features": [{"type": "Feature", "properties": {"state": "Madhya Pradesh", "district": "Anuppur", "block": "Anuppur", "gp_name": "Anuppur Gram Panchayat", "state_code": 23, "district_code": 439, "block_code": 4320, "gp_code": 133571, "centroid_lat": 23.09, "centroid_lon": 81.832, "area_sq_km": 6.6, "boundary_source": "LGD Revenue Village Centroids + Block-Bounded Voronoi Tessellation", "boundary_quality": "DERIVED"}, "geometry": {"type": "Polygon", "coordinates": [[[81.84439, 23.08946], [81.84425, 23.09408], [81.8412, 23.09774], [81.83661, 23.09906], [81.8283, 23.09951], [81.82396, 23.09817], [81.81978, 23.09531], [81.8197, 23.09053], [81.82257, 23.08686], [81.82679, 23.07975], [81.83136, 23.07734], [81.83617, 23.07929], [81.83856, 23.08333], [81.84439, 23.08946]]]}}, {"type": "Feature", "properties": {"state": "Madhya Pradesh", "district": "Anuppur", "block": "Anuppur", "gp_name": "Anuppur Rural", "state_code": 23, "district_code": 439, "block_code": 4320, "gp_code": 133572, "centroid_lat": 23.11, "centroid_lon": 81.812, "area_sq_km": 6.7, "boundary_source": "LGD Revenue Village Centroids + Block-Bounded Voronoi Tessellation", "boundary_quality": "DERIVED"}, "geometry": {"type": "Polygon", "coordinates": [[[81.82396, 23.10948], [81.8242, 23.11407], [81.82111, 23.11767], [81.81657, 23.119], [81.80817, 23.11982], [81.80384, 23.11829], [81.79986, 23.11528], [81.79985, 23.11053], [81.80684, 23.09986], [81.81134, 23.09705], [81.81613, 23.0994], [81.81855, 23.10334], [81.82396, 23.10948]]]}}, {"type": "Feature", "properties": {"state": "Madhya Pradesh", "district": "Anuppur", "block": "Jaithari", "gp_name": "Jaithari Gram Panchayat", "state_code": 23, "district_code": 439, "block_code": 4321, "gp_code": 133573, "centroid_lat": 23.21, "centroid_lon": 81.7, "area_sq_km": 6.8, "boundary_source": "LGD Revenue Village Centroids + Block-Bounded Voronoi Tessellation", "boundary_quality": "DERIVED"}, "geometry": {"type": "Polygon", "coordinates": [[[81.71248, 23.20947], [81.7127, 23.21424], [81.70913, 23.21769], [81.70469, 23.21923], [81.7005, 23.21994], [81.69617, 23.21981], [81.69166, 23.21845], [81.68783, 23.21528], [81.68748, 23.21054], [81.6928, 23.20393], [81.6948, 23.19975], [81.69935, 23.19702], [81.70412, 23.19946], [81.70648, 23.20343], [81.71248, 23.20947]]]}}, {"type": "Feature", "properties": {"state": "Madhya Pradesh", "district": "Anuppur", "block": "Jaithari", "gp_name": "Jaithari Rural", "state_code": 23, "district_code": 439, "block_code": 4321, "gp_code": 133574, "centroid_lat": 23.23, "centroid_lon": 81.68, "area_sq_km": 6.9, "boundary_source": "LGD Revenue Village Centroids + Block-Bounded Voronoi Tessellation", "boundary_quality": "DERIVED"}, "geometry": {"type": "Polygon", "coordinates": [[[81.69207, 23.22948], [81.69225, 23.23409], [81.68928, 23.23782], [81.68476, 23.23936], [81.67615, 23.23984], [81.67155, 23.23857], [81.66804, 23.23519], [81.66772, 23.23052], [81.67255, 23.22373], [81.67466, 23.21948], [81.67935, 23.21707], [81.68418, 23.21931], [81.68649, 23.22342], [81.69207, 23.22948]]]}}, {"type": "Feature", "properties": {"state": "Madhya Pradesh", "district": "Anuppur", "block": "Kotma", "gp_name": "Kotma Gram Panchayat", "state_code": 23, "district_code": 439, "block_code": 4322, "gp_code": 133575, "centroid_lat": 23.09, "centroid_lon": 81.568, "area_sq_km": 7.0, "boundary_source": "LGD Revenue Village Centroids + Block-Bounded Voronoi Tessellation", "boundary_quality": "DERIVED"}, "geometry": {"type": "Polygon", "coordinates": [[[81.58049, 23.08948], [81.58039, 23.09415], [81.57689, 23.09751], [81.57267, 23.09923], [81.56848, 23.09985], [81.56421, 23.09967], [81.55982, 23.09828], [81.55613, 23.09514], [81.55571, 23.09051], [81.56051, 23.08367], [81.56271, 23.07954], [81.56736, 23.07694], [81.57227, 23.07911], [81.5771, 23.08606], [81.58049, 23.08948]]]}}, {"type": "Feature", "properties": {"state": "Madhya Pradesh", "district": "Anuppur", "block": "Kotma", "gp_name": "Kotma Rural", "state_code": 23, "district_code": 439, "block_code": 4322, "gp_code": 133576, "centroid_lat": 23.11, "centroid_lon": 81.548, "area_sq_km": 7.1, "boundary_source": "LGD Revenue Village Centroids + Block-Bounded Voronoi Tessellation", "boundary_quality": "DERIVED"}, "geometry": {"type": "Polygon", "coordinates": [[[81.56012, 23.10949], [81.56028, 23.11412], [81.55727, 23.11784], [81.55273, 23.11935], [81.54848, 23.11986], [81.53972, 23.11838], [81.53634, 23.11505], [81.53565, 23.11051], [81.54086, 23.10397], [81.54274, 23.0996], [81.54737, 23.09715], [81.55208, 23.09957], [81.56012, 23.10949]]]}}, {"type": "Feature", "properties": {"state": "Madhya Pradesh", "district": "Anuppur", "block": "Pushprajgarh", "gp_name": "Pushprajgarh Gram Panchayat", "state_code": 23, "district_code": 439, "block_code": 4323, "gp_code": 133577, "centroid_lat": 22.97, "centroid_lon": 81.7, "area_sq_km": 7.2, "boundary_source": "LGD Revenue Village Centroids + Block-Bounded Voronoi Tessellation", "boundary_quality": "DERIVED"}, "geometry": {"type": "Polygon", "coordinates": [[[81.71231, 22.96948], [81.7121, 22.97405], [81.70923, 22.97779], [81.70049, 22.97997], [81.69181, 22.97831], [81.68819, 22.97513], [81.68806, 22.97051], [81.69285, 22.96396], [81.69467, 22.95947], [81.69938, 22.95746], [81.70419, 22.95926], [81.709, 22.96609], [81.71231, 22.96948]]]}}, {"type": "Feature", "properties": {"state": "Madhya Pradesh", "district": "Anuppur", "block": "Pushprajgarh", "gp_name": "Pushprajgarh Rural", "state_code": 23, "district_code": 439, "block_code": 4323, "gp_code": 133578, "centroid_lat": 22.99, "centroid_lon": 81.68, "area_sq_km": 7.3, "boundary_source": "LGD Revenue Village Centroids + Block-Bounded Voronoi Tessellation", "boundary_quality": "DERIVED"}, "geometry": {"type": "Polygon", "coordinates": [[[81.69231, 22.98948], [81.69264, 22.99423], [81.689, 22.9976], [81.68048, 22.99973], [81.67183, 22.99829], [81.66827, 22.99509], [81.66759, 22.99053], [81.6749, 22.97992], [81.67938, 22.97749], [81.68414, 22.9794], [81.69231, 22.98948]]]}}]}