{"type": "FeatureCollection", "features": [{"type": "Feature", "properties": {"state": "Madhya Pradesh", "district": "Barwani", "block": "Barwani", "gp_name": "Barwani Gram Panchayat", "state_code": 23, "district_code": 441, "block_code": 3380, "gp_code": 133039, "centroid_lat": 22.02, "centroid_lon": 75.086, "area_sq_km": 8.4, "boundary_source": "LGD Revenue Village Centroids + Block-Bounded Voronoi Tessellation", "boundary_quality": "DERIVED"}, "geometry": {"type": "Polygon", "coordinates": [[[75.09806, 22.01999], [75.09829, 22.02474], [75.09471, 22.02811], [75.09023, 22.0295], [75.08601, 22.02982], [75.0819, 22.02923], [75.07746, 22.02797], [75.07355, 22.02481], [75.07408, 22.02001], [75.08123, 22.00927], [75.08599, 22.00736], [75.09058, 22.00968], [75.09806, 22.01999]]]}}, {"type": "Feature", "properties": {"state": "Madhya Pradesh", "district": "Barwani", "block": "Barwani", "gp_name": "Barwani Rural", "state_code": 23, "district_code": 441, "block_code": 3380, "gp_code": 133040, "centroid_lat": 22.04, "centroid_lon": 75.066, "area_sq_km": 8.5, "boundary_source": "LGD Revenue Village Centroids + Block-Bounded Voronoi Tessellation", "boundary_quality": "DERIVED"}, "geometry": {"type": "Polygon", "coordinates": [[[75.07845, 22.03999], [75.07804, 22.04464], [75.07461, 22.04802], [75.07031, 22.04969], [75.06182, 22.04942], [75.0574, 22.04802], [75.0538, 22.04471], [75.05349, 22.04], [75.05892, 22.03341], [75.06138, 22.02962], [75.06599, 22.02699], [75.07079, 22.0292], [75.07284, 22.03361], [75.07845, 22.03999]]]}}, {"type": "Feature", "properties": {"state": "Madhya Pradesh", "district": "Barwani", "block": "Anjad", "gp_name": "Anjad Gram Panchayat", "state_code": 23, "district_code": 441, "block_code": 3381, "gp_code": 133041, "centroid_lat": 22.1586, "centroid_lon": 74.998, "area_sq_km": 8.6, "boundary_source": "LGD Revenue Village Centroids + Block-Bounded Voronoi Tessellation", "boundary_quality": "DERIVED"}, "geometry": {"type": "Polygon", "coordinates": [[[75.01004, 22.1586], [75.0099, 22.16319], [75.00659, 22.1666], [75.00234, 22.16836], [74.99381, 22.16801], [74.98961, 22.16641], [74.98584, 22.16329], [74.98593, 22.1586], [74.99342, 22.14829], [74.998, 22.14584], [75.00269, 22.14806], [75.00503, 22.15205], [75.01004, 22.1586]]]}}, {"type": "Feature", "properties": {"state": "Madhya Pradesh", "district": "Barwani", "block": "Anjad", "gp_name": "Anjad Rural", "state_code": 23, "district_code": 441, "block_code": 3381, "gp_code": 133042, "centroid_lat": 22.1786, "centroid_lon": 74.978, "area_sq_km": 8.7, "boundary_source": "LGD Revenue Village Centroids + Block-Bounded Voronoi Tessellation", "boundary_quality": "DERIVED"}, "geometry": {"type": "Polygon", "coordinates": [[[74.99022, 22.1786], [74.99003, 22.18324], [74.98688, 22.18687], [74.98225, 22.18816], [74.978, 22.18869], [74.97369, 22.18829], [74.96921, 22.18678], [74.96601, 22.18322], [74.96581, 22.1786], [74.9684, 22.1749], [74.97114, 22.17221], [74.97329, 22.16801], [74.978, 22.16581], [74.98274, 22.16795], [74.98492, 22.17216], [74.99022, 22.1786]]]}}, {"type": "Feature", "properties": {"state": "Madhya Pradesh", "district": "Barwani", "block": "Pansemal", "gp_name": "Pansemal Gram Panchayat", "state_code": 23, "district_code": 441, "block_code": 3382, "gp_code": 133043, "centroid_lat": 22.1586, "centroid_lon": 74.822, "area_sq_km": 8.8, "boundary_source": "LGD Revenue Village Centroids + Block-Bounded Voronoi Tessellation", "boundary_quality": "DERIVED"}, "geometry": {"type": "Polygon", "coordinates": [[[74.83434, 22.15861], [74.83434, 22.16338], [74.83078, 22.1668], [74.82633, 22.16837], [74.82199, 22.16876], [74.81768, 22.16828], [74.81359, 22.16642], [74.81002, 22.16321], [74.81008, 22.15859], [74.81736, 22.14813], [74.82202, 22.14589], [74.82677, 22.14792], [74.82891, 22.15218], [74.83434, 22.15861]]]}}, {"type": "Feature", "properties": {"state": "Madhya Pradesh", "district": "Barwani", "block": "Pansemal", "gp_name": "Pansemal Rural", "state_code": 23, "district_code": 441, "block_code": 3382, "gp_code": 133044, "centroid_lat": 22.1786, "centroid_lon": 74.802, "area_sq_km": 8.9, "boundary_source": "LGD Revenue Village Centroids + Block-Bounded Voronoi Tessellation", "boundary_quality": "DERIVED"}, "geometry": {"type": "Polygon", "coordinates": [[[74.81421, 22.17861], [74.81397, 22.18323], [74.81055, 22.18658], [74.80621, 22.18811], [74.80199, 22.18865], [74.79317, 22.1868], [74.78989, 22.18325], [74.78994, 22.17858], [74.7974, 22.16823], [74.80202, 22.16555], [74.80659, 22.16831], [74.80887, 22.17221], [74.81421, 22.17861]]]}}, {"type": "Feature", "properties": {"state": "Madhya Pradesh", "district": "Barwani", "block": "Rajpur", "gp_name": "Rajpur Gram Panchayat", "state_code": 23, "district_code": 441, "block_code": 3383, "gp_code": 133045, "centroid_lat": 22.02, "centroid_lon": 74.734, "area_sq_km": 9.0, "boundary_source": "LGD Revenue Village Centroids + Block-Bounded Voronoi Tessellation", "boundary_quality": "DERIVED"}, "geometry": {"type": "Polygon", "coordinates": [[[74.74654, 22.02002], [74.7464, 22.02481], [74.74254, 22.02799], [74.73816, 22.02941], [74.73398, 22.03005], [74.72965, 22.02973], [74.72558, 22.02782], [74.72171, 22.02472], [74.72173, 22.01998], [74.727, 22.01345], [74.72933, 22.00944], [74.73402, 22.00732], [74.73875, 22.00936], [74.74304, 22.01653], [74.74654, 22.02002]]]}}, {"type": "Feature", "properties": {"state": "Madhya Pradesh", "district": "Barwani", "block": "Rajpur", "gp_name": "Rajpur Rural", "state_code": 23, "district_code": 441, "block_code": 3383, "gp_code": 133046, "centroid_lat": 22.04, "centroid_lon": 74.714, "area_sq_km": 9.1, "boundary_source": "LGD Revenue Village Centroids + Block-Bounded Voronoi Tessellation", "boundary_quality": "DERIVED"}, "geometry": {"type": "Polygon", "coordinates": [[[74.72588, 22.04002], [74.7264, 22.04481], [74.72265, 22.0481], [74.71818, 22.04946], [74.71398, 22.04992], [74.70985, 22.04929], [74.7054, 22.04798], [74.70171, 22.04472], [74.70198, 22.03998], [74.7072, 22.03363], [74.7093, 22.02938], [74.71403, 22.02692], [74.7187, 22.02948], [74.72078, 22.0337], [74.72588, 22.04002]]]}}, {"type": "Feature", "properties": {"state": "Madhya Pradesh", "district": "Barwani", "block": "Sendhwa", "gp_name": "Sendhwa Gram Panchayat", "state_code": 23, "district_code": 441, "block_code": 3384, "gp_code": 133047, "centroid_lat": 21.8814, "centroid_lon": 74.822, "area_sq_km": 9.2, "boundary_source": "LGD Revenue Village Centroids + Block-Bounded Voronoi Tessellation", "boundary_quality": "DERIVED"}, "geometry": {"type": "Polygon", "coordinates": [[[74.83425, 21.88141], [74.83394, 21.88603], [74.83063, 21.88947], [74.82616, 21.89081], [74.81773, 21.89099], [74.81358, 21.88924], [74.80998, 21.88603], [74.80988, 21.88139], [74.81511, 21.87495], [74.81739, 21.87098], [74.82202, 21.86879], [74.82658, 21.87111], [74.83425, 21.88141]]]}}, {"type": "Feature", "properties": {"state": "Madhya Pradesh", "district": "Barwani", "block": "Sendhwa", "gp_name": "Sendhwa Rural", "state_code": 23, "district_code": 441, "block_code": 3384, "gp_code": 133048, "centroid_lat": 21.9014, "centroid_lon": 74.802, "area_sq_km": 9.3, "boundary_source": "LGD Revenue Village Centroids + Block-Bounded Voronoi Tessellation", "boundary_quality": "DERIVED"}, "geometry": {"type": "Polygon", "coordinates": [[[74.81392, 21.90141], [74.81387, 21.906], [74.81085, 21.90968], [74.80616, 21.91082], [74.80199, 21.91135], [74.7933, 21.9095], [74.79017, 21.90596], [74.78993, 21.90139], [74.79731, 21.89079], [74.80202, 21.88855], [74.80682, 21.89058], [74.81392, 21.90141]]]}}, {"type": "Feature", "properties": {"state": "Madhya Pradesh", "district": "Barwani", "block": "Thikri", "gp_name": "Thikri Gram Panchayat", "state_code": 23, "district_code": 441, "block_code": 3385, "gp_code": 133049, "centroid_lat": 21.8814, "centroid_lon": 74.998, "area_sq_km": 9.4, "boundary_source": "LGD Revenue Village Centroids + Block-Bounded Voronoi Tessellation", "boundary_quality": "DERIVED"}, "geometry": {"type": "Polygon", "coordinates": [[[75.01031, 21.8814], [75.01016, 21.8861], [75.00648, 21.88932], [75.00226, 21.891], [74.99384, 21.89077], [74.98926, 21.88956], [74.9859, 21.88608], [74.98571, 21.8814], [74.98836, 21.87767], [74.99106, 21.87492], [74.99339, 21.87102], [74.998, 21.86824], [75.00259, 21.87105], [75.00494, 21.87492], [75.01031, 21.8814]]]}}, {"type": "Feature", "properties": {"state": "Madhya Pradesh", "district": "Barwani", "block": "Thikri", "gp_name": "Thikri Rural", "state_code": 23, "district_code": 441, "block_code": 3385, "gp_code": 133050, "centroid_lat": 21.9014, "centroid_lon": 74.978, "area_sq_km": 4.5, "boundary_source": "LGD Revenue Village Centroids + Block-Bounded Voronoi Tessellation", "boundary_quality": "DERIVED"}, "geometry": {"type": "Polygon", "coordinates": [[[74.99004, 21.9014], [74.99031, 21.90616], [74.98672, 21.90954], [74.9822, 21.91086], [74.978, 21.91129], [74.97374, 21.911], [74.9693, 21.90952], [74.96572, 21.90614], [74.96551, 21.9014], [74.97091, 21.89478], [74.9733, 21.89081], [74.978, 21.88855], [74.98256, 21.89112], [74.99004, 21.9014]]]}}]}