{"type": "FeatureCollection", "features": [{"type": "Feature", "properties": {"state": "Madhya Pradesh", "district": "Harda", "block": "Harda", "gp_name": "Harda Gram Panchayat", "state_code": 23, "district_code": 444, "block_code": 3660, "gp_code": 133181, "centroid_lat": 22.33, "centroid_lon": 77.232, "area_sq_km": 7.6, "boundary_source": "LGD Revenue Village Centroids + Block-Bounded Voronoi Tessellation", "boundary_quality": "DERIVED"}, "geometry": {"type": "Polygon", "coordinates": [[[77.24388, 22.32984], [77.24393, 22.3344], [77.24066, 22.33782], [77.23648, 22.33966], [77.22784, 22.33974], [77.22359, 22.33806], [77.21986, 22.33487], [77.22003, 22.33016], [77.22484, 22.32353], [77.22705, 22.31932], [77.2318, 22.31723], [77.2365, 22.31946], [77.24388, 22.32984]]]}}, {"type": "Feature", "properties": {"state": "Madhya Pradesh", "district": "Harda", "block": "Harda", "gp_name": "Harda Rural", "state_code": 23, "district_code": 444, "block_code": 3660, "gp_code": 133182, "centroid_lat": 22.35, "centroid_lon": 77.212, "area_sq_km": 7.7, "boundary_source": "LGD Revenue Village Centroids + Block-Bounded Voronoi Tessellation", "boundary_quality": "DERIVED"}, "geometry": {"type": "Polygon", "coordinates": [[[77.22437, 22.34983], [77.22423, 22.35452], [77.22077, 22.35792], [77.21638, 22.35944], [77.20788, 22.35966], [77.20344, 22.3582], [77.20011, 22.35477], [77.20006, 22.35016], [77.20505, 22.34372], [77.20714, 22.33951], [77.21179, 22.33698], [77.21659, 22.33926], [77.21875, 22.34353], [77.22437, 22.34983]]]}}, {"type": "Feature", "properties": {"state": "Madhya Pradesh", "district": "Harda", "block": "Khirkiya", "gp_name": "Khirkiya Gram Panchayat", "state_code": 23, "district_code": 444, "block_code": 3661, "gp_code": 133183, "centroid_lat": 22.4339, "centroid_lon": 77.034, "area_sq_km": 7.8, "boundary_source": "LGD Revenue Village Centroids + Block-Bounded Voronoi Tessellation", "boundary_quality": "DERIVED"}, "geometry": {"type": "Polygon", "coordinates": [[[77.04656, 22.43374], [77.04633, 22.43847], [77.04289, 22.44194], [77.03415, 22.44393], [77.02561, 22.44191], [77.02196, 22.43871], [77.02195, 22.43405], [77.02713, 22.42769], [77.02928, 22.4237], [77.03381, 22.42095], [77.03862, 22.42311], [77.04089, 22.42732], [77.04656, 22.43374]]]}}, {"type": "Feature", "properties": {"state": "Madhya Pradesh", "district": "Harda", "block": "Khirkiya", "gp_name": "Khirkiya Rural", "state_code": 23, "district_code": 444, "block_code": 3661, "gp_code": 133184, "centroid_lat": 22.4539, "centroid_lon": 77.014, "area_sq_km": 7.9, "boundary_source": "LGD Revenue Village Centroids + Block-Bounded Voronoi Tessellation", "boundary_quality": "DERIVED"}, "geometry": {"type": "Polygon", "coordinates": [[[77.02613, 22.45375], [77.02628, 22.45845], [77.02284, 22.4619], [77.01828, 22.46316], [77.01414, 22.46369], [77.00556, 22.46195], [77.00196, 22.45871], [77.00163, 22.45405], [77.00918, 22.44349], [77.01381, 22.4409], [77.01855, 22.44328], [77.02086, 22.44735], [77.02356, 22.45008], [77.02613, 22.45375]]]}}, {"type": "Feature", "properties": {"state": "Madhya Pradesh", "district": "Harda", "block": "Timarni", "gp_name": "Timarni Gram Panchayat", "state_code": 23, "district_code": 444, "block_code": 3662, "gp_code": 133185, "centroid_lat": 22.2261, "centroid_lon": 77.034, "area_sq_km": 8.0, "boundary_source": "LGD Revenue Village Centroids + Block-Bounded Voronoi Tessellation", "boundary_quality": "DERIVED"}, "geometry": {"type": "Polygon", "coordinates": [[[77.04615, 22.22595], [77.04631, 22.23067], [77.04273, 22.23401], [77.03833, 22.23546], [77.03415, 22.23615], [77.02982, 22.23586], [77.02532, 22.23441], [77.0217, 22.23102], [77.02163, 22.22625], [77.02482, 22.22269], [77.02905, 22.21538], [77.03382, 22.21346], [77.03854, 22.2155], [77.04069, 22.2197], [77.04361, 22.22225], [77.04615, 22.22595]]]}}, {"type": "Feature", "properties": {"state": "Madhya Pradesh", "district": "Harda", "block": "Timarni", "gp_name": "Timarni Rural", "state_code": 23, "district_code": 444, "block_code": 3662, "gp_code": 133186, "centroid_lat": 22.2461, "centroid_lon": 77.014, "area_sq_km": 8.1, "boundary_source": "LGD Revenue Village Centroids + Block-Bounded Voronoi Tessellation", "boundary_quality": "DERIVED"}, "geometry": {"type": "Polygon", "coordinates": [[[77.02624, 22.24595], [77.02625, 22.25065], [77.02258, 22.25388], [77.01414, 22.25611], [77.00986, 22.25576], [77.0055, 22.25422], [77.00188, 22.25095], [77.00178, 22.24625], [77.00908, 22.23546], [77.01381, 22.23311], [77.01846, 22.23568], [77.0207, 22.2397], [77.02624, 22.24595]]]}}]}