{"type": "FeatureCollection", "features": [{"type": "Feature", "properties": {"state": "Madhya Pradesh", "district": "Umaria", "block": "Umaria", "gp_name": "Umaria Gram Panchayat", "state_code": 23, "district_code": 448, "block_code": 4280, "gp_code": 133549, "centroid_lat": 23.51, "centroid_lon": 80.972, "area_sq_km": 9.4, "boundary_source": "LGD Revenue Village Centroids + Block-Bounded Voronoi Tessellation", "boundary_quality": "DERIVED"}, "geometry": {"type": "Polygon", "coordinates": [[[80.98461, 23.50951], [80.98447, 23.51421], [80.98105, 23.51767], [80.97667, 23.51929], [80.97245, 23.51988], [80.96812, 23.51978], [80.9639, 23.51812], [80.96007, 23.5151], [80.95975, 23.51047], [80.96487, 23.50395], [80.96675, 23.49957], [80.97143, 23.49748], [80.97634, 23.49908], [80.98093, 23.50618], [80.98461, 23.50951]]]}}, {"type": "Feature", "properties": {"state": "Madhya Pradesh", "district": "Umaria", "block": "Umaria", "gp_name": "Umaria Rural", "state_code": 23, "district_code": 448, "block_code": 4280, "gp_code": 133550, "centroid_lat": 23.53, "centroid_lon": 80.952, "area_sq_km": 4.5, "boundary_source": "LGD Revenue Village Centroids + Block-Bounded Voronoi Tessellation", "boundary_quality": "DERIVED"}, "geometry": {"type": "Polygon", "coordinates": [[[80.96399, 23.52954], [80.96426, 23.53414], [80.96128, 23.53787], [80.95665, 23.53924], [80.95245, 23.53991], [80.94359, 23.53842], [80.94017, 23.53506], [80.93962, 23.53047], [80.94695, 23.51997], [80.95143, 23.51744], [80.9562, 23.51942], [80.95874, 23.52325], [80.96399, 23.52954]]]}}, {"type": "Feature", "properties": {"state": "Madhya Pradesh", "district": "Umaria", "block": "Karkeli", "gp_name": "Karkeli Gram Panchayat", "state_code": 23, "district_code": 448, "block_code": 4281, "gp_code": 133551, "centroid_lat": 23.63, "centroid_lon": 80.84, "area_sq_km": 4.6, "boundary_source": "LGD Revenue Village Centroids + Block-Bounded Voronoi Tessellation", "boundary_quality": "DERIVED"}, "geometry": {"type": "Polygon", "coordinates": [[[80.85255, 23.62953], [80.85212, 23.6341], [80.84878, 23.63745], [80.84477, 23.6395], [80.8362, 23.63954], [80.83181, 23.63819], [80.8282, 23.63503], [80.82776, 23.63046], [80.83281, 23.6239], [80.83467, 23.6194], [80.83944, 23.61741], [80.84429, 23.61923], [80.84655, 23.62345], [80.85255, 23.62953]]]}}, {"type": "Feature", "properties": {"state": "Madhya Pradesh", "district": "Umaria", "block": "Karkeli", "gp_name": "Karkeli Rural", "state_code": 23, "district_code": 448, "block_code": 4281, "gp_code": 133552, "centroid_lat": 23.65, "centroid_lon": 80.82, "area_sq_km": 4.7, "boundary_source": "LGD Revenue Village Centroids + Block-Bounded Voronoi Tessellation", "boundary_quality": "DERIVED"}, "geometry": {"type": "Polygon", "coordinates": [[[80.83229, 23.64954], [80.83268, 23.65429], [80.82926, 23.65786], [80.82456, 23.65907], [80.82044, 23.66], [80.81615, 23.65965], [80.81168, 23.65831], [80.80783, 23.65519], [80.80743, 23.65047], [80.81071, 23.64686], [80.81486, 23.63978], [80.81944, 23.63737], [80.82436, 23.63906], [80.82656, 23.64344], [80.83229, 23.64954]]]}}, {"type": "Feature", "properties": {"state": "Madhya Pradesh", "district": "Umaria", "block": "Manpur", "gp_name": "Manpur Gram Panchayat", "state_code": 23, "district_code": 448, "block_code": 4282, "gp_code": 133553, "centroid_lat": 23.51, "centroid_lon": 80.708, "area_sq_km": 4.8, "boundary_source": "LGD Revenue Village Centroids + Block-Bounded Voronoi Tessellation", "boundary_quality": "DERIVED"}, "geometry": {"type": "Polygon", "coordinates": [[[80.72049, 23.50954], [80.72016, 23.51413], [80.71679, 23.51749], [80.71263, 23.51925], [80.70405, 23.51989], [80.69983, 23.51816], [80.69603, 23.5151], [80.69582, 23.51045], [80.70269, 23.49939], [80.70743, 23.49692], [80.71226, 23.49934], [80.71706, 23.50614], [80.72049, 23.50954]]]}}, {"type": "Feature", "properties": {"state": "Madhya Pradesh", "district": "Umaria", "block": "Manpur", "gp_name": "Manpur Rural", "state_code": 23, "district_code": 448, "block_code": 4282, "gp_code": 133554, "centroid_lat": 23.53, "centroid_lon": 80.688, "area_sq_km": 4.9, "boundary_source": "LGD Revenue Village Centroids + Block-Bounded Voronoi Tessellation", "boundary_quality": "DERIVED"}, "geometry": {"type": "Polygon", "coordinates": [[[80.70004, 23.52956], [80.7002, 23.53414], [80.69727, 23.5379], [80.6927, 23.53938], [80.68422, 23.53947], [80.67975, 23.53824], [80.67616, 23.53504], [80.67583, 23.53045], [80.68073, 23.52381], [80.68271, 23.51942], [80.68745, 23.51723], [80.69216, 23.51958], [80.70004, 23.52956]]]}}, {"type": "Feature", "properties": {"state": "Madhya Pradesh", "district": "Umaria", "block": "Pali", "gp_name": "Pali Gram Panchayat", "state_code": 23, "district_code": 448, "block_code": 4283, "gp_code": 133555, "centroid_lat": 23.39, "centroid_lon": 80.84, "area_sq_km": 5.0, "boundary_source": "LGD Revenue Village Centroids + Block-Bounded Voronoi Tessellation", "boundary_quality": "DERIVED"}, "geometry": {"type": "Polygon", "coordinates": [[[80.85259, 23.38953], [80.85216, 23.39412], [80.84911, 23.39775], [80.84464, 23.39925], [80.83613, 23.39973], [80.83183, 23.39818], [80.82801, 23.39512], [80.82788, 23.39045], [80.83027, 23.3867], [80.83286, 23.38392], [80.83489, 23.37981], [80.83945, 23.37739], [80.8442, 23.37944], [80.84654, 23.38345], [80.85259, 23.38953]]]}}, {"type": "Feature", "properties": {"state": "Madhya Pradesh", "district": "Umaria", "block": "Pali", "gp_name": "Pali Rural", "state_code": 23, "district_code": 448, "block_code": 4283, "gp_code": 133556, "centroid_lat": 23.41, "centroid_lon": 80.82, "area_sq_km": 5.1, "boundary_source": "LGD Revenue Village Centroids + Block-Bounded Voronoi Tessellation", "boundary_quality": "DERIVED"}, "geometry": {"type": "Polygon", "coordinates": [[[80.83206, 23.40955], [80.83207, 23.41409], [80.82913, 23.41777], [80.82466, 23.41929], [80.82044, 23.42006], [80.81622, 23.4195], [80.81176, 23.41824], [80.80793, 23.41515], [80.80803, 23.41045], [80.81016, 23.40666], [80.81286, 23.40393], [80.81491, 23.39984], [80.81944, 23.39733], [80.82433, 23.39913], [80.83206, 23.40955]]]}}]}