{"type": "FeatureCollection", "features": [{"type": "Feature", "properties": {"state": "Madhya Pradesh", "district": "Niwari", "block": "Niwari", "gp_name": "Niwari Gram Panchayat", "state_code": 23, "district_code": 720, "block_code": 3920, "gp_code": 133331, "centroid_lat": 25.34, "centroid_lon": 78.942, "area_sq_km": 7.6, "boundary_source": "LGD Revenue Village Centroids + Block-Bounded Voronoi Tessellation", "boundary_quality": "DERIVED"}, "geometry": {"type": "Polygon", "coordinates": [[[78.9548, 25.33966], [78.95438, 25.34427], [78.95105, 25.34775], [78.94655, 25.34921], [78.94232, 25.35001], [78.93794, 25.3497], [78.93338, 25.34831], [78.92947, 25.34512], [78.92949, 25.34033], [78.93212, 25.33659], [78.93479, 25.33382], [78.93696, 25.3298], [78.94159, 25.32742], [78.94646, 25.32933], [78.9488, 25.33345], [78.9548, 25.33966]]]}}, {"type": "Feature", "properties": {"state": "Madhya Pradesh", "district": "Niwari", "block": "Niwari", "gp_name": "Niwari Rural", "state_code": 23, "district_code": 720, "block_code": 3920, "gp_code": 133332, "centroid_lat": 25.36, "centroid_lon": 78.922, "area_sq_km": 7.7, "boundary_source": "LGD Revenue Village Centroids + Block-Bounded Voronoi Tessellation", "boundary_quality": "DERIVED"}, "geometry": {"type": "Polygon", "coordinates": [[[78.93462, 25.35966], [78.93452, 25.36433], [78.93089, 25.36761], [78.92653, 25.36916], [78.92232, 25.36997], [78.91798, 25.36961], [78.91328, 25.3684], [78.90947, 25.36511], [78.90924, 25.36034], [78.91458, 25.35364], [78.91691, 25.3497], [78.92158, 25.34697], [78.92647, 25.34931], [78.92893, 25.35332], [78.93462, 25.35966]]]}}, {"type": "Feature", "properties": {"state": "Madhya Pradesh", "district": "Niwari", "block": "Prithvipur", "gp_name": "Prithvipur Gram Panchayat", "state_code": 23, "district_code": 720, "block_code": 3921, "gp_code": 133333, "centroid_lat": 25.4439, "centroid_lon": 78.744, "area_sq_km": 7.8, "boundary_source": "LGD Revenue Village Centroids + Block-Bounded Voronoi Tessellation", "boundary_quality": "DERIVED"}, "geometry": {"type": "Polygon", "coordinates": [[[78.75654, 25.44358], [78.75664, 25.44828], [78.75297, 25.4516], [78.74854, 25.4531], [78.74431, 25.45392], [78.7399, 25.45364], [78.73539, 25.45217], [78.73172, 25.44889], [78.73173, 25.44421], [78.73897, 25.43369], [78.74359, 25.43072], [78.74857, 25.43304], [78.75094, 25.43723], [78.75654, 25.44358]]]}}, {"type": "Feature", "properties": {"state": "Madhya Pradesh", "district": "Niwari", "block": "Prithvipur", "gp_name": "Prithvipur Rural", "state_code": 23, "district_code": 720, "block_code": 3921, "gp_code": 133334, "centroid_lat": 25.4639, "centroid_lon": 78.724, "area_sq_km": 7.9, "boundary_source": "LGD Revenue Village Centroids + Block-Bounded Voronoi Tessellation", "boundary_quality": "DERIVED"}, "geometry": {"type": "Polygon", "coordinates": [[[78.73644, 25.46358], [78.73635, 25.46818], [78.73325, 25.47184], [78.72852, 25.47307], [78.72431, 25.47383], [78.71524, 25.47231], [78.71186, 25.46883], [78.71179, 25.46421], [78.71462, 25.46065], [78.71886, 25.45348], [78.72359, 25.45074], [78.72847, 25.45328], [78.7333, 25.46012], [78.73644, 25.46358]]]}}, {"type": "Feature", "properties": {"state": "Madhya Pradesh", "district": "Niwari", "block": "Orchha", "gp_name": "Orchha Gram Panchayat", "state_code": 23, "district_code": 720, "block_code": 3922, "gp_code": 133335, "centroid_lat": 25.2361, "centroid_lon": 78.744, "area_sq_km": 8.0, "boundary_source": "LGD Revenue Village Centroids + Block-Bounded Voronoi Tessellation", "boundary_quality": "DERIVED"}, "geometry": {"type": "Polygon", "coordinates": [[[78.75616, 25.23579], [78.75667, 25.2405], [78.75289, 25.24375], [78.74868, 25.24561], [78.74431, 25.24626], [78.74002, 25.24557], [78.73557, 25.2442], [78.73182, 25.24105], [78.73166, 25.23641], [78.73683, 25.22993], [78.7389, 25.22573], [78.7436, 25.22316], [78.74849, 25.2254], [78.75616, 25.23579]]]}}, {"type": "Feature", "properties": {"state": "Madhya Pradesh", "district": "Niwari", "block": "Orchha", "gp_name": "Orchha Rural", "state_code": 23, "district_code": 720, "block_code": 3922, "gp_code": 133336, "centroid_lat": 25.2561, "centroid_lon": 78.724, "area_sq_km": 8.1, "boundary_source": "LGD Revenue Village Centroids + Block-Bounded Voronoi Tessellation", "boundary_quality": "DERIVED"}, "geometry": {"type": "Polygon", "coordinates": [[[78.73655, 25.25578], [78.73622, 25.26034], [78.73318, 25.264], [78.72866, 25.26558], [78.72429, 25.26573], [78.71998, 25.26567], [78.71537, 25.26439], [78.71196, 25.26099], [78.71119, 25.25642], [78.71688, 25.24997], [78.71876, 25.24545], [78.72362, 25.24354], [78.72852, 25.24534], [78.73316, 25.25238], [78.73655, 25.25578]]]}}]}