{
  "type": "FeatureCollection",
  "name": "India_States_LGD_Authoritative",
  "features": [
    {
      "type": "Feature",
      "id": 1,
      "properties": {
        "state_code": 1,
        "state_name": "Jammu and Kashmir",
        "state_type": "UT",
        "is_pilot": false,
        "centroid_lat": 33.7782,
        "centroid_lon": 76.5762
      },
      "geometry": {
        "type": "Polygon",
        "coordinates": [
          [
            [
              78.6648,
              33.7782
            ],
            [
              78.64279,
              34.21749
            ],
            [
              78.39732,
              34.5394
            ],
            [
              78.09141,
              34.75789
            ],
            [
              77.528,
              34.87896
            ],
            [
              77.04705,
              34.8368
            ],
            [
              76.5762,
              34.98847
            ],
            [
              76.10274,
              35.06975
            ],
            [
              75.62199,
              34.98961
            ],
            [
              75.30923,
              34.81039
            ],
            [
              75.21374,
              34.49442
            ],
            [
              75.0811,
              34.17088
            ],
            [
              74.87515,
              33.7782
            ],
            [
              74.68849,
              33.35533
            ],
            [
              74.78019,
              32.97238
            ],
            [
              74.97935,
              32.7696
            ],
            [
              75.38193,
              32.66967
            ],
            [
              76.02142,
              32.65441
            ],
            [
              76.5762,
              32.59364
            ],
            [
              76.97736,
              32.49133
            ],
            [
              77.3498,
              32.59481
            ],
            [
              77.55808,
              32.83003
            ],
            [
              77.95042,
              33.05267
            ],
            [
              78.32544,
              33.40315
            ],
            [
              78.6648,
              33.7782
            ]
          ]
        ]
      }
    },
    {
      "type": "Feature",
      "id": 2,
      "properties": {
        "state_code": 2,
        "state_name": "Himachal Pradesh",
        "state_type": "State",
        "is_pilot": false,
        "centroid_lat": 31.1048,
        "centroid_lon": 77.1734
      },
      "geometry": {
        "type": "Polygon",
        "coordinates": [
          [
            [
              78.86848,
              31.1048
            ],
            [
              78.81588,
              31.49277
            ],
            [
              78.63144,
              31.81553
            ],
            [
              78.30113,
              32.02168
            ],
            [
              77.97616,
              32.14013
            ],
            [
              77.55005,
              32.13127
            ],
            [
              77.1734,
              32.18899
            ],
            [
              76.77815,
              32.30003
            ],
            [
              76.47702,
              32.27209
            ],
            [
              76.24209,
              32.01603
            ],
            [
              75.98618,
              31.7458
            ],
            [
              75.95976,
              31.46123
            ],
            [
              75.88279,
              31.1048
            ],
            [
              75.72416,
              30.72051
            ],
            [
              75.66319,
              30.38181
            ],
            [
              75.8942,
              30.14304
            ],
            [
              76.2415,
              30.07877
            ],
            [
              76.7243,
              30.12889
            ],
            [
              77.1734,
              29.97982
            ],
            [
              77.51643,
              29.91694
            ],
            [
              77.74656,
              29.99411
            ],
            [
              77.99603,
              30.16777
            ],
            [
              78.24422,
              30.48874
            ],
            [
              78.67464,
              30.75844
            ],
            [
              78.86848,
              31.1048
            ]
          ]
        ]
      }
    },
    {
      "type": "Feature",
      "id": 3,
      "properties": {
        "state_code": 3,
        "state_name": "Punjab",
        "state_type": "State",
        "is_pilot": false,
        "centroid_lat": 31.1471,
        "centroid_lon": 75.3412
      },
      "geometry": {
        "type": "Polygon",
        "coordinates": [
          [
            [
              76.68377,
              31.1471
            ],
            [
              76.64527,
              31.56103
            ],
            [
              76.54789,
              31.91032
            ],
            [
              76.29837,
              32.16383
            ],
            [
              75.94259,
              32.17168
            ],
            [
              75.66293,
              32.21065
            ],
            [
              75.3412,
              32.40165
            ],
            [
              75.04215,
              32.40334
            ],
            [
              74.74594,
              32.41965
            ],
            [
              74.58062,
              32.17998
            ],
            [
              74.43835,
              31.8604
            ],
            [
              74.40615,
              31.5184
            ],
            [
              74.26474,
              31.1471
            ],
            [
              74.13711,
              30.72963
            ],
            [
              74.21254,
              30.36863
            ],
            [
              74.3315,
              30.15741
            ],
            [
              74.6246,
              30.11714
            ],
            [
              74.99935,
              29.99076
            ],
            [
              75.3412,
              29.89329
            ],
            [
              75.6048,
              29.8643
            ],
            [
              75.82879,
              29.97746
            ],
            [
              75.97873,
              30.13625
            ],
            [
              76.27679,
              30.42736
            ],
            [
              76.51178,
              30.75644
            ],
            [
              76.68377,
              31.1471
            ]
          ]
        ]
      }
    },
    {
      "type": "Feature",
      "id": 4,
      "properties": {
        "state_code": 4,
        "state_name": "Chandigarh",
        "state_type": "UT",
        "is_pilot": false,
        "centroid_lat": 30.7333,
        "centroid_lon": 76.7794
      },
      "geometry": {
        "type": "Polygon",
        "coordinates": [
          [
            [
              77.00404,
              30.7333
            ],
            [
              77.00479,
              30.79602
            ],
            [
              76.97911,
              30.84363
            ],
            [
              76.93692,
              30.8745
            ],
            [
              76.87993,
              30.88928
            ],
            [
              76.83013,
              30.88561
            ],
            [
              76.7794,
              30.91813
            ],
            [
              76.72728,
              30.91018
            ],
            [
              76.68588,
              30.90212
            ],
            [
              76.6538,
              30.87431
            ],
            [
              76.62734,
              30.83677
            ],
            [
              76.61822,
              30.78716
            ],
            [
              76.59852,
              30.7333
            ],
            [
              76.57889,
              30.67069
            ],
            [
              76.58657,
              30.62533
            ],
            [
              76.60421,
              30.59105
            ],
            [
              76.65969,
              30.57617
            ],
            [
              76.72084,
              30.56768
            ],
            [
              76.7794,
              30.56335
            ],
            [
              76.82393,
              30.54926
            ],
            [
              76.85598,
              30.56249
            ],
            [
              76.89221,
              30.59445
            ],
            [
              76.93702,
              30.63223
            ],
            [
              76.9725,
              30.67991
            ],
            [
              77.00404,
              30.7333
            ]
          ]
        ]
      }
    },
    {
      "type": "Feature",
      "id": 5,
      "properties": {
        "state_code": 5,
        "state_name": "Uttarakhand",
        "state_type": "State",
        "is_pilot": false,
        "centroid_lat": 30.0668,
        "centroid_lon": 79.0193
      },
      "geometry": {
        "type": "Polygon",
        "coordinates": [
          [
            [
              80.70817,
              30.0668
            ],
            [
              80.71788,
              30.43832
            ],
            [
              80.50386,
              30.7331
            ],
            [
              80.1326,
              30.91505
            ],
            [
              79.8041,
              30.98481
            ],
            [
              79.39233,
              30.99667
            ],
            [
              79.0193,
              31.09542
            ],
            [
              78.64795,
              31.19564
            ],
            [
              78.26325,
              31.11316
            ],
            [
              78.04337,
              30.89939
            ],
            [
              77.84683,
              30.68303
            ],
            [
              77.78783,
              30.39414
            ],
            [
              77.73325,
              30.0668
            ],
            [
              77.53576,
              29.69408
            ],
            [
              77.5688,
              29.39783
            ],
            [
              77.74598,
              29.25212
            ],
            [
              78.0969,
              29.12556
            ],
            [
              78.57503,
              29.12794
            ],
            [
              79.0193,
              29.04648
            ],
            [
              79.35288,
              28.96694
            ],
            [
              79.60804,
              28.96703
            ],
            [
              79.79751,
              29.20615
            ],
            [
              80.17825,
              29.48277
            ],
            [
              80.5121,
              29.74198
            ],
            [
              80.70817,
              30.0668
            ]
          ]
        ]
      }
    },
    {
      "type": "Feature",
      "id": 6,
      "properties": {
        "state_code": 6,
        "state_name": "Haryana",
        "state_type": "State",
        "is_pilot": false,
        "centroid_lat": 29.0588,
        "centroid_lon": 76.0856
      },
      "geometry": {
        "type": "Polygon",
        "coordinates": [
          [
            [
              77.67587,
              29.0588
            ],
            [
              77.65995,
              29.49511
            ],
            [
              77.48433,
              29.87201
            ],
            [
              77.1887,
              30.17221
            ],
            [
              76.84073,
              30.1484
            ],
            [
              76.46336,
              30.32036
            ],
            [
              76.0856,
              30.43015
            ],
            [
              75.71608,
              30.3964
            ],
            [
              75.39444,
              30.33538
            ],
            [
              75.19057,
              30.10663
            ],
            [
              75.055,
              29.78618
            ],
            [
              74.95468,
              29.44197
            ],
            [
              74.81981,
              29.0588
            ],
            [
              74.66646,
              28.59045
            ],
            [
              74.72954,
              28.1791
            ],
            [
              74.84419,
              28.05043
            ],
            [
              75.19618,
              27.87074
            ],
            [
              75.65304,
              27.8373
            ],
            [
              76.0856,
              27.73531
            ],
            [
              76.37836,
              27.71896
            ],
            [
              76.64902,
              27.80483
            ],
            [
              76.86109,
              28.0342
            ],
            [
              77.16271,
              28.34203
            ],
            [
              77.45528,
              28.65287
            ],
            [
              77.67587,
              29.0588
            ]
          ]
        ]
      }
    },
    {
      "type": "Feature",
      "id": 7,
      "properties": {
        "state_code": 7,
        "state_name": "Delhi",
        "state_type": "UT",
        "is_pilot": false,
        "centroid_lat": 28.7041,
        "centroid_lon": 77.1025
      },
      "geometry": {
        "type": "Polygon",
        "coordinates": [
          [
            [
              77.44589,
              28.7041
            ],
            [
              77.43299,
              28.79787
            ],
            [
              77.39017,
              28.87261
            ],
            [
              77.33977,
              28.90676
            ],
            [
              77.25818,
              28.94311
            ],
            [
              77.181,
              28.95108
            ],
            [
              77.1025,
              28.97069
            ],
            [
              77.02903,
              28.97753
            ],
            [
              76.9501,
              28.96367
            ],
            [
              76.9081,
              28.92216
            ],
            [
              76.87655,
              28.85283
            ],
            [
              76.84504,
              28.78127
            ],
            [
              76.82276,
              28.7041
            ],
            [
              76.82037,
              28.61093
            ],
            [
              76.80594,
              28.54125
            ],
            [
              76.84031,
              28.49277
            ],
            [
              76.91737,
              28.46753
            ],
            [
              77.01322,
              28.45761
            ],
            [
              77.1025,
              28.44796
            ],
            [
              77.16521,
              28.4337
            ],
            [
              77.21364,
              28.44602
            ],
            [
              77.27547,
              28.50022
            ],
            [
              77.33799,
              28.55081
            ],
            [
              77.39813,
              28.62674
            ],
            [
              77.44589,
              28.7041
            ]
          ]
        ]
      }
    },
    {
      "type": "Feature",
      "id": 8,
      "properties": {
        "state_code": 8,
        "state_name": "Rajasthan",
        "state_type": "State",
        "is_pilot": false,
        "centroid_lat": 27.0238,
        "centroid_lon": 74.2179
      },
      "geometry": {
        "type": "Polygon",
        "coordinates": [
          [
            [
              78.109,
              27.0238
            ],
            [
              77.99774,
              27.97036
            ],
            [
              77.59698,
              28.73349
            ],
            [
              76.78155,
              29.20422
            ],
            [
              75.97363,
              29.46126
            ],
            [
              75.12318,
              29.45866
            ],
            [
              74.2179,
              29.65039
            ],
            [
              73.29924,
              29.86454
            ],
            [
              72.64119,
              29.73397
            ],
            [
              72.0846,
              29.15175
            ],
            [
              71.74147,
              28.48557
            ],
            [
              71.34826,
              27.81613
            ],
            [
              71.16673,
              27.0238
            ],
            [
              70.82152,
              26.06345
            ],
            [
              70.84852,
              25.21062
            ],
            [
              71.21421,
              24.77731
            ],
            [
              72.20404,
              24.62708
            ],
            [
              73.1863,
              24.51589
            ],
            [
              74.2179,
              24.4183
            ],
            [
              74.98266,
              24.09373
            ],
            [
              75.54241,
              24.33012
            ],
            [
              76.02835,
              24.9406
            ],
            [
              76.87564,
              25.55488
            ],
            [
              77.37117,
              26.16557
            ],
            [
              78.109,
              27.0238
            ]
          ]
        ]
      }
    },
    {
      "type": "Feature",
      "id": 9,
      "properties": {
        "state_code": 9,
        "state_name": "Uttar Pradesh",
        "state_type": "State",
        "is_pilot": false,
        "centroid_lat": 26.8467,
        "centroid_lon": 80.9462
      },
      "geometry": {
        "type": "Polygon",
        "coordinates": [
          [
            [
              84.63434,
              26.8467
            ],
            [
              84.60139,
              27.5813
            ],
            [
              84.18313,
              28.25251
            ],
            [
              83.51439,
              28.52449
            ],
            [
              82.6764,
              28.69923
            ],
            [
              81.7646,
              28.82205
            ],
            [
              80.9462,
              28.87013
            ],
            [
              80.09344,
              28.99552
            ],
            [
              79.30908,
              28.8722
            ],
            [
              78.88098,
              28.57763
            ],
            [
              78.42659,
              28.08401
            ],
            [
              78.25386,
              27.50515
            ],
            [
              77.97294,
              26.8467
            ],
            [
              77.86627,
              26.11157
            ],
            [
              77.82091,
              25.44504
            ],
            [
              78.10603,
              25.15934
            ],
            [
              78.88451,
              25.07321
            ],
            [
              79.95816,
              24.96672
            ],
            [
              80.9462,
              24.70702
            ],
            [
              81.66274,
              24.71367
            ],
            [
              82.18309,
              24.79217
            ],
            [
              82.71465,
              25.13411
            ],
            [
              83.51369,
              25.62666
            ],
            [
              84.2186,
              26.21022
            ],
            [
              84.63434,
              26.8467
            ]
          ]
        ]
      }
    },
    {
      "type": "Feature",
      "id": 10,
      "properties": {
        "state_code": 10,
        "state_name": "Bihar",
        "state_type": "State",
        "is_pilot": false,
        "centroid_lat": 25.0961,
        "centroid_lon": 85.3131
      },
      "geometry": {
        "type": "Polygon",
        "coordinates": [
          [
            [
              87.78206,
              25.0961
            ],
            [
              87.89724,
              25.59154
            ],
            [
              87.47684,
              26.0259
            ],
            [
              87.05776,
              26.25366
            ],
            [
              86.45692,
              26.31554
            ],
            [
              85.92904,
              26.33063
            ],
            [
              85.3131,
              26.55443
            ],
            [
              84.72317,
              26.60274
            ],
            [
              84.24141,
              26.45309
            ],
            [
              83.84372,
              26.25033
            ],
            [
              83.61004,
              25.87285
            ],
            [
              83.41802,
              25.50723
            ],
            [
              83.18325,
              25.0961
            ],
            [
              83.07579,
              24.61135
            ],
            [
              82.98566,
              24.20912
            ],
            [
              83.38379,
              24.01498
            ],
            [
              83.94648,
              23.83523
            ],
            [
              84.61987,
              23.84782
            ],
            [
              85.3131,
              23.64547
            ],
            [
              85.84702,
              23.60463
            ],
            [
              86.24022,
              23.76517
            ],
            [
              86.58145,
              23.99545
            ],
            [
              87.10068,
              24.33839
            ],
            [
              87.41734,
              24.67168
            ],
            [
              87.78206,
              25.0961
            ]
          ]
        ]
      }
    },
    {
      "type": "Feature",
      "id": 11,
      "properties": {
        "state_code": 11,
        "state_name": "Sikkim",
        "state_type": "State",
        "is_pilot": false,
        "centroid_lat": 27.533,
        "centroid_lon": 88.5122
      },
      "geometry": {
        "type": "Polygon",
        "coordinates": [
          [
            [
              89.17491,
              27.533
            ],
            [
              89.17665,
              27.73762
            ],
            [
              89.09374,
              27.94446
            ],
            [
              88.97833,
              28.03571
            ],
            [
              88.82625,
              28.0839
            ],
            [
              88.66376,
              28.08342
            ],
            [
              88.5122,
              28.16417
            ],
            [
              88.35691,
              28.17402
            ],
            [
              88.22251,
              28.12185
            ],
            [
              88.11738,
              28.04756
            ],
            [
              88.04251,
              27.89309
            ],
            [
              88.0369,
              27.72355
            ],
            [
              87.94453,
              27.533
            ],
            [
              87.91362,
              27.32075
            ],
            [
              87.93392,
              27.13751
            ],
            [
              88.01137,
              27.04668
            ],
            [
              88.14714,
              27.02611
            ],
            [
              88.33734,
              26.99684
            ],
            [
              88.5122,
              26.92879
            ],
            [
              88.64943,
              26.87208
            ],
            [
              88.73167,
              26.95122
            ],
            [
              88.84905,
              27.0235
            ],
            [
              88.9588,
              27.1694
            ],
            [
              89.07144,
              27.34688
            ],
            [
              89.17491,
              27.533
            ]
          ]
        ]
      }
    },
    {
      "type": "Feature",
      "id": 12,
      "properties": {
        "state_code": 12,
        "state_name": "Arunachal Pradesh",
        "state_type": "State",
        "is_pilot": false,
        "centroid_lat": 28.218,
        "centroid_lon": 94.7278
      },
      "geometry": {
        "type": "Polygon",
        "coordinates": [
          [
            [
              97.90251,
              28.218
            ],
            [
              97.85412,
              28.75405
            ],
            [
              97.55059,
              29.21752
            ],
            [
              96.9442,
              29.46333
            ],
            [
              96.22971,
              29.50014
            ],
            [
              95.45507,
              29.61794
            ],
            [
              94.7278,
              29.85468
            ],
            [
              93.99751,
              29.82757
            ],
            [
              93.33396,
              29.73301
            ],
            [
              92.87941,
              29.4849
            ],
            [
              92.45916,
              29.12677
            ],
            [
              92.25829,
              28.68069
            ],
            [
              92.02061,
              28.218
            ],
            [
              91.7797,
              27.67004
            ],
            [
              91.87385,
              27.17742
            ],
            [
              92.24916,
              26.95041
            ],
            [
              93.00236,
              26.89214
            ],
            [
              93.90035,
              26.78743
            ],
            [
              94.7278,
              26.57095
            ],
            [
              95.39571,
              26.53947
            ],
            [
              95.83636,
              26.7131
            ],
            [
              96.41852,
              26.91319
            ],
            [
              96.84318,
              27.28332
            ],
            [
              97.55708,
              27.7564
            ],
            [
              97.90251,
              28.218
            ]
          ]
        ]
      }
    },
    {
      "type": "Feature",
      "id": 13,
      "properties": {
        "state_code": 13,
        "state_name": "Nagaland",
        "state_type": "State",
        "is_pilot": false,
        "centroid_lat": 26.1584,
        "centroid_lon": 94.5624
      },
      "geometry": {
        "type": "Polygon",
        "coordinates": [
          [
            [
              95.44549,
              26.1584
            ],
            [
              95.41526,
              26.49261
            ],
            [
              95.34225,
              26.80008
            ],
            [
              95.16503,
              26.94719
            ],
            [
              94.97173,
              26.95404
            ],
            [
              94.76948,
              27.01628
            ],
            [
              94.5624,
              27.121
            ],
            [
              94.36602,
              27.17507
            ],
            [
              94.17313,
              27.13623
            ],
            [
              94.06201,
              26.95913
            ],
            [
              93.97291,
              26.68798
            ],
            [
              93.91728,
              26.46363
            ],
            [
              93.87492,
              26.1584
            ],
            [
              93.75999,
              25.81274
            ],
            [
              93.76806,
              25.55025
            ],
            [
              93.88223,
              25.41422
            ],
            [
              94.08185,
              25.31885
            ],
            [
              94.33005,
              25.26324
            ],
            [
              94.5624,
              25.18947
            ],
            [
              94.74398,
              25.17923
            ],
            [
              94.886,
              25.23656
            ],
            [
              95.00937,
              25.3501
            ],
            [
              95.14314,
              25.6049
            ],
            [
              95.3036,
              25.87291
            ],
            [
              95.44549,
              26.1584
            ]
          ]
        ]
      }
    },
    {
      "type": "Feature",
      "id": 14,
      "properties": {
        "state_code": 14,
        "state_name": "Manipur",
        "state_type": "State",
        "is_pilot": false,
        "centroid_lat": 24.6637,
        "centroid_lon": 93.9063
      },
      "geometry": {
        "type": "Polygon",
        "coordinates": [
          [
            [
              94.74634,
              24.6637
            ],
            [
              94.82397,
              25.00576
            ],
            [
              94.69534,
              25.30072
            ],
            [
              94.5251,
              25.42817
            ],
            [
              94.31883,
              25.4981
            ],
            [
              94.11927,
              25.54786
            ],
            [
              93.9063,
              25.64973
            ],
            [
              93.70262,
              25.68309
            ],
            [
              93.53273,
              25.63954
            ],
            [
              93.37125,
              25.47251
            ],
            [
              93.31101,
              25.18978
            ],
            [
              93.21724,
              24.95472
            ],
            [
              93.15739,
              24.6637
            ],
            [
              93.11476,
              24.32851
            ],
            [
              93.14688,
              24.06645
            ],
            [
              93.20374,
              23.91921
            ],
            [
              93.40413,
              23.84241
            ],
            [
              93.6764,
              23.77709
            ],
            [
              93.9063,
              23.69078
            ],
            [
              94.0888,
              23.68171
            ],
            [
              94.19443,
              23.70786
            ],
            [
              94.3637,
              23.87138
            ],
            [
              94.52898,
              24.10649
            ],
            [
              94.70759,
              24.36164
            ],
            [
              94.74634,
              24.6637
            ]
          ]
        ]
      }
    },
    {
      "type": "Feature",
      "id": 15,
      "properties": {
        "state_code": 15,
        "state_name": "Mizoram",
        "state_type": "State",
        "is_pilot": false,
        "centroid_lat": 23.1645,
        "centroid_lon": 92.9376
      },
      "geometry": {
        "type": "Polygon",
        "coordinates": [
          [
            [
              93.75962,
              23.1645
            ],
            [
              93.75304,
              23.55457
            ],
            [
              93.65944,
              23.86642
            ],
            [
              93.48479,
              24.12019
            ],
            [
              93.32937,
              24.19377
            ],
            [
              93.13002,
              24.16624
            ],
            [
              92.9376,
              24.35977
            ],
            [
              92.73719,
              24.31796
            ],
            [
              92.5709,
              24.30782
            ],
            [
              92.42804,
              24.06472
            ],
            [
              92.3855,
              23.78364
            ],
            [
              92.34759,
              23.50016
            ],
            [
              92.25949,
              23.1645
            ],
            [
              92.18545,
              22.76031
            ],
            [
              92.17766,
              22.42658
            ],
            [
              92.30301,
              22.2723
            ],
            [
              92.48327,
              22.17345
            ],
            [
              92.70676,
              22.1248
            ],
            [
              92.9376,
              22.0557
            ],
            [
              93.10175,
              21.92896
            ],
            [
              93.22599,
              22.04015
            ],
            [
              93.34931,
              22.24025
            ],
            [
              93.505,
              22.50114
            ],
            [
              93.64096,
              22.81913
            ],
            [
              93.75962,
              23.1645
            ]
          ]
        ]
      }
    },
    {
      "type": "Feature",
      "id": 16,
      "properties": {
        "state_code": 16,
        "state_name": "Tripura",
        "state_type": "State",
        "is_pilot": false,
        "centroid_lat": 23.9408,
        "centroid_lon": 91.9882
      },
      "geometry": {
        "type": "Polygon",
        "coordinates": [
          [
            [
              92.75364,
              23.9408
            ],
            [
              92.76477,
              24.21913
            ],
            [
              92.69196,
              24.43651
            ],
            [
              92.52182,
              24.55195
            ],
            [
              92.34408,
              24.63201
            ],
            [
              92.17215,
              24.6961
            ],
            [
              91.9882,
              24.74348
            ],
            [
              91.80044,
              24.79099
            ],
            [
              91.66473,
              24.69759
            ],
            [
              91.51532,
              24.60611
            ],
            [
              91.43208,
              24.38458
            ],
            [
              91.38383,
              24.18589
            ],
            [
              91.36373,
              23.9408
            ],
            [
              91.30322,
              23.65782
            ],
            [
              91.28327,
              23.44266
            ],
            [
              91.38303,
              23.28439
            ],
            [
              91.55571,
              23.24733
            ],
            [
              91.78366,
              23.25636
            ],
            [
              91.9882,
              23.11498
            ],
            [
              92.13525,
              23.08945
            ],
            [
              92.24882,
              23.12168
            ],
            [
              92.35912,
              23.33287
            ],
            [
              92.53182,
              23.50715
            ],
            [
              92.69493,
              23.70431
            ],
            [
              92.75364,
              23.9408
            ]
          ]
        ]
      }
    },
    {
      "type": "Feature",
      "id": 17,
      "properties": {
        "state_code": 17,
        "state_name": "Meghalaya",
        "state_type": "State",
        "is_pilot": false,
        "centroid_lat": 25.467,
        "centroid_lon": 91.3662
      },
      "geometry": {
        "type": "Polygon",
        "coordinates": [
          [
            [
              93.16361,
              25.467
            ],
            [
              93.17092,
              25.71632
            ],
            [
              92.86684,
              25.90803
            ],
            [
              92.57083,
              26.03025
            ],
            [
              92.19863,
              26.04397
            ],
            [
              91.77765,
              26.13004
            ],
            [
              91.3662,
              26.16385
            ],
            [
              90.96842,
              26.22531
            ],
            [
              90.62322,
              26.14831
            ],
            [
              90.30228,
              26.05115
            ],
            [
              90.0933,
              25.85753
            ],
            [
              90.09177,
              25.67164
            ],
            [
              89.85068,
              25.467
            ],
            [
              89.85161,
              25.21878
            ],
            [
              89.86821,
              25.02785
            ],
            [
              89.99958,
              24.91245
            ],
            [
              90.35211,
              24.86762
            ],
            [
              90.87966,
              24.81851
            ],
            [
              91.3662,
              24.78858
            ],
            [
              91.73824,
              24.71248
            ],
            [
              91.97458,
              24.77662
            ],
            [
              92.26473,
              24.89453
            ],
            [
              92.51033,
              25.08762
            ],
            [
              92.88463,
              25.25458
            ],
            [
              93.16361,
              25.467
            ]
          ]
        ]
      }
    },
    {
      "type": "Feature",
      "id": 18,
      "properties": {
        "state_code": 18,
        "state_name": "Assam",
        "state_type": "State",
        "is_pilot": false,
        "centroid_lat": 26.2006,
        "centroid_lon": 92.9376
      },
      "geometry": {
        "type": "Polygon",
        "coordinates": [
          [
            [
              95.84572,
              26.2006
            ],
            [
              96.01588,
              26.64326
            ],
            [
              95.66364,
              26.98083
            ],
            [
              94.97062,
              27.17685
            ],
            [
              94.35841,
              27.28723
            ],
            [
              93.60993,
              27.31458
            ],
            [
              92.9376,
              27.45745
            ],
            [
              92.2113,
              27.5735
            ],
            [
              91.59867,
              27.3665
            ],
            [
              91.22206,
              27.23049
            ],
            [
              90.97497,
              26.86874
            ],
            [
              90.62691,
              26.57144
            ],
            [
              90.63434,
              26.2006
            ],
            [
              90.29533,
              25.78733
            ],
            [
              90.40233,
              25.41914
            ],
            [
              90.67954,
              25.23682
            ],
            [
              91.28387,
              25.11861
            ],
            [
              92.14286,
              25.09718
            ],
            [
              92.9376,
              24.97785
            ],
            [
              93.54086,
              24.93822
            ],
            [
              93.96205,
              24.99161
            ],
            [
              94.46577,
              25.16474
            ],
            [
              94.86585,
              25.47302
            ],
            [
              95.6182,
              25.81484
            ],
            [
              95.84572,
              26.2006
            ]
          ]
        ]
      }
    },
    {
      "type": "Feature",
      "id": 19,
      "properties": {
        "state_code": 19,
        "state_name": "West Bengal",
        "state_type": "State",
        "is_pilot": false,
        "centroid_lat": 22.9868,
        "centroid_lon": 87.855
      },
      "geometry": {
        "type": "Polygon",
        "coordinates": [
          [
            [
              89.53699,
              22.9868
            ],
            [
              89.57842,
              23.80245
            ],
            [
              89.36594,
              24.56959
            ],
            [
              89.0399,
              25.01281
            ],
            [
              88.69853,
              25.04696
            ],
            [
              88.28338,
              25.11325
            ],
            [
              87.855,
              25.32574
            ],
            [
              87.45071,
              25.53567
            ],
            [
              87.0866,
              25.45528
            ],
            [
              86.81894,
              24.92379
            ],
            [
              86.63059,
              24.32136
            ],
            [
              86.53214,
              23.77155
            ],
            [
              86.39626,
              22.9868
            ],
            [
              86.35198,
              22.15858
            ],
            [
              86.29445,
              21.4046
            ],
            [
              86.52748,
              21.09839
            ],
            [
              86.89178,
              20.83385
            ],
            [
              87.36464,
              20.85093
            ],
            [
              87.855,
              20.54323
            ],
            [
              88.19682,
              20.47203
            ],
            [
              88.46556,
              20.62525
            ],
            [
              88.69253,
              21.06665
            ],
            [
              89.03095,
              21.61625
            ],
            [
              89.39911,
              22.21001
            ],
            [
              89.53699,
              22.9868
            ]
          ]
        ]
      }
    },
    {
      "type": "Feature",
      "id": 20,
      "properties": {
        "state_code": 20,
        "state_name": "Jharkhand",
        "state_type": "State",
        "is_pilot": true,
        "centroid_lat": 23.6102,
        "centroid_lon": 85.2799
      },
      "geometry": {
        "type": "Polygon",
        "coordinates": [
          [
            [
              87.58508,
              23.6102
            ],
            [
              87.5555,
              24.16836
            ],
            [
              87.34562,
              24.58366
            ],
            [
              86.86588,
              24.91102
            ],
            [
              86.34468,
              24.96847
            ],
            [
              85.81722,
              24.96887
            ],
            [
              85.2799,
              25.12283
            ],
            [
              84.73227,
              25.20489
            ],
            [
              84.2188,
              25.1222
            ],
            [
              83.93036,
              24.84001
            ],
            [
              83.66354,
              24.51127
            ],
            [
              83.6274,
              24.09938
            ],
            [
              83.41753,
              23.6102
            ],
            [
              83.33514,
              23.04596
            ],
            [
              83.22919,
              22.6111
            ],
            [
              83.45575,
              22.3805
            ],
            [
              83.97501,
              22.2622
            ],
            [
              84.65681,
              22.15282
            ],
            [
              85.2799,
              22.01694
            ],
            [
              85.72172,
              21.98323
            ],
            [
              86.08954,
              22.00804
            ],
            [
              86.36973,
              22.29649
            ],
            [
              86.87351,
              22.74038
            ],
            [
              87.32857,
              23.10536
            ],
            [
              87.58508,
              23.6102
            ]
          ]
        ]
      }
    },
    {
      "type": "Feature",
      "id": 21,
      "properties": {
        "state_code": 21,
        "state_name": "Odisha",
        "state_type": "State",
        "is_pilot": false,
        "centroid_lat": 20.9517,
        "centroid_lon": 85.0985
      },
      "geometry": {
        "type": "Polygon",
        "coordinates": [
          [
            [
              87.6315,
              20.9517
            ],
            [
              87.67288,
              21.6465
            ],
            [
              87.36832,
              22.26722
            ],
            [
              86.97751,
              22.62592
            ],
            [
              86.27992,
              22.69457
            ],
            [
              85.73958,
              22.8149
            ],
            [
              85.0985,
              22.97136
            ],
            [
              84.45862,
              23.13845
            ],
            [
              83.92953,
              23.05104
            ],
            [
              83.53645,
              22.64212
            ],
            [
              83.28268,
              22.10677
            ],
            [
              83.12366,
              21.58158
            ],
            [
              82.95017,
              20.9517
            ],
            [
              82.70802,
              20.24041
            ],
            [
              82.7043,
              19.67563
            ],
            [
              83.06046,
              19.34132
            ],
            [
              83.67211,
              19.25722
            ],
            [
              84.40225,
              19.02895
            ],
            [
              85.0985,
              18.89651
            ],
            [
              85.60361,
              18.69954
            ],
            [
              85.9721,
              18.95916
            ],
            [
              86.50252,
              19.28642
            ],
            [
              86.81657,
              19.8489
            ],
            [
              87.45108,
              20.35178
            ],
            [
              87.6315,
              20.9517
            ]
          ]
        ]
      }
    },
    {
      "type": "Feature",
      "id": 22,
      "properties": {
        "state_code": 22,
        "state_name": "Chhattisgarh",
        "state_type": "State",
        "is_pilot": false,
        "centroid_lat": 21.2787,
        "centroid_lon": 81.8661
      },
      "geometry": {
        "type": "Polygon",
        "coordinates": [
          [
            [
              83.88762,
              21.2787
            ],
            [
              83.99401,
              22.103
            ],
            [
              83.68691,
              22.79769
            ],
            [
              83.32027,
              23.21717
            ],
            [
              82.87841,
              23.49719
            ],
            [
              82.38304,
              23.59771
            ],
            [
              81.8661,
              23.70642
            ],
            [
              81.35762,
              23.90634
            ],
            [
              80.96104,
              23.81065
            ],
            [
              80.6811,
              23.32698
            ],
            [
              80.36671,
              22.61368
            ],
            [
              80.36998,
              22.00441
            ],
            [
              80.06931,
              21.2787
            ],
            [
              80.06563,
              20.44973
            ],
            [
              79.99927,
              19.70443
            ],
            [
              80.23378,
              19.29908
            ],
            [
              80.66977,
              19.15267
            ],
            [
              81.28935,
              19.02136
            ],
            [
              81.8661,
              18.94348
            ],
            [
              82.2923,
              18.69361
            ],
            [
              82.64352,
              18.76297
            ],
            [
              82.87225,
              19.24968
            ],
            [
              83.32391,
              19.92472
            ],
            [
              83.63404,
              20.50603
            ],
            [
              83.88762,
              21.2787
            ]
          ]
        ]
      }
    },
    {
      "type": "Feature",
      "id": 23,
      "properties": {
        "state_code": 23,
        "state_name": "Madhya Pradesh",
        "state_type": "State",
        "is_pilot": true,
        "centroid_lat": 23.4733,
        "centroid_lon": 77.9479
      },
      "geometry": {
        "type": "Polygon",
        "coordinates": [
          [
            [
              82.31372,
              23.4733
            ],
            [
              82.39952,
              24.3458
            ],
            [
              81.74468,
              25.08126
            ],
            [
              81.05153,
              25.60727
            ],
            [
              80.05084,
              25.78332
            ],
            [
              78.97781,
              25.771
            ],
            [
              77.9479,
              25.92603
            ],
            [
              76.94766,
              26.29773
            ],
            [
              76.06506,
              26.04671
            ],
            [
              75.42563,
              25.49503
            ],
            [
              74.92941,
              24.93592
            ],
            [
              74.83302,
              24.21413
            ],
            [
              74.2178,
              23.4733
            ],
            [
              74.03161,
              22.55552
            ],
            [
              73.96233,
              21.83938
            ],
            [
              74.49304,
              21.47531
            ],
            [
              75.46513,
              21.28001
            ],
            [
              76.74602,
              21.23001
            ],
            [
              77.9479,
              20.9112
            ],
            [
              78.8675,
              20.73273
            ],
            [
              79.40234,
              20.92161
            ],
            [
              80.05821,
              21.46685
            ],
            [
              81.00438,
              22.07808
            ],
            [
              81.73787,
              22.71634
            ],
            [
              82.31372,
              23.4733
            ]
          ]
        ]
      }
    },
    {
      "type": "Feature",
      "id": 24,
      "properties": {
        "state_code": 24,
        "state_name": "Gujarat",
        "state_type": "State",
        "is_pilot": false,
        "centroid_lat": 22.2587,
        "centroid_lon": 71.1924
      },
      "geometry": {
        "type": "Polygon",
        "coordinates": [
          [
            [
              74.77906,
              22.2587
            ],
            [
              74.80657,
              23.04196
            ],
            [
              74.36058,
              23.77255
            ],
            [
              73.55313,
              24.0117
            ],
            [
              72.8169,
              24.269
            ],
            [
              72.03455,
              24.45907
            ],
            [
              71.1924,
              24.60051
            ],
            [
              70.33958,
              24.62669
            ],
            [
              69.71211,
              24.46375
            ],
            [
              69.02207,
              24.02168
            ],
            [
              68.65913,
              23.58529
            ],
            [
              68.56969,
              22.93969
            ],
            [
              68.41455,
              22.2587
            ],
            [
              68.00621,
              21.45306
            ],
            [
              67.9808,
              20.74698
            ],
            [
              68.38026,
              20.35618
            ],
            [
              69.20737,
              20.34788
            ],
            [
              70.26045,
              20.20757
            ],
            [
              71.1924,
              19.91039
            ],
            [
              71.89146,
              19.78224
            ],
            [
              72.43013,
              20.00545
            ],
            [
              72.95279,
              20.42471
            ],
            [
              73.67247,
              21.0112
            ],
            [
              74.27307,
              21.57598
            ],
            [
              74.77906,
              22.2587
            ]
          ]
        ]
      }
    },
    {
      "type": "Feature",
      "id": 25,
      "properties": {
        "state_code": 25,
        "state_name": "Daman and Diu",
        "state_type": "UT",
        "is_pilot": false,
        "centroid_lat": 20.4283,
        "centroid_lon": 72.8397
      },
      "geometry": {
        "type": "Polygon",
        "coordinates": [
          [
            [
              73.11503,
              20.4283
            ],
            [
              73.12696,
              20.50404
            ],
            [
              73.09252,
              20.5718
            ],
            [
              73.03614,
              20.60542
            ],
            [
              72.97279,
              20.61552
            ],
            [
              72.90455,
              20.61627
            ],
            [
              72.8397,
              20.64683
            ],
            [
              72.77522,
              20.67219
            ],
            [
              72.72098,
              20.63872
            ],
            [
              72.67555,
              20.6005
            ],
            [
              72.64598,
              20.55307
            ],
            [
              72.64117,
              20.49594
            ],
            [
              72.61014,
              20.4283
            ],
            [
              72.59041,
              20.34984
            ],
            [
              72.59195,
              20.28389
            ],
            [
              72.61787,
              20.24507
            ],
            [
              72.68154,
              20.24868
            ],
            [
              72.7633,
              20.22552
            ],
            [
              72.8397,
              20.20773
            ],
            [
              72.89418,
              20.18497
            ],
            [
              72.93062,
              20.21762
            ],
            [
              72.97774,
              20.24778
            ],
            [
              73.03598,
              20.30181
            ],
            [
              73.07433,
              20.3624
            ],
            [
              73.11503,
              20.4283
            ]
          ]
        ]
      }
    },
    {
      "type": "Feature",
      "id": 26,
      "properties": {
        "state_code": 26,
        "state_name": "Dadra and Nagar Haveli",
        "state_type": "UT",
        "is_pilot": false,
        "centroid_lat": 20.1809,
        "centroid_lon": 73.0169
      },
      "geometry": {
        "type": "Polygon",
        "coordinates": [
          [
            [
              73.29621,
              20.1809
            ],
            [
              73.29982,
              20.25733
            ],
            [
              73.27007,
              20.32482
            ],
            [
              73.2094,
              20.35315
            ],
            [
              73.14113,
              20.37925
            ],
            [
              73.0848,
              20.37525
            ],
            [
              73.0169,
              20.40956
            ],
            [
              72.95396,
              20.40757
            ],
            [
              72.89959,
              20.39084
            ],
            [
              72.8603,
              20.36232
            ],
            [
              72.82231,
              20.31021
            ],
            [
              72.81131,
              20.24659
            ],
            [
              72.79712,
              20.1809
            ],
            [
              72.78402,
              20.1081
            ],
            [
              72.77226,
              20.03974
            ],
            [
              72.80253,
              20.00056
            ],
            [
              72.86276,
              19.98558
            ],
            [
              72.94074,
              19.97903
            ],
            [
              73.0169,
              19.95996
            ],
            [
              73.07393,
              19.94894
            ],
            [
              73.11296,
              19.97086
            ],
            [
              73.16038,
              20.01
            ],
            [
              73.19784,
              20.06233
            ],
            [
              73.26253,
              20.11299
            ],
            [
              73.29621,
              20.1809
            ]
          ]
        ]
      }
    },
    {
      "type": "Feature",
      "id": 27,
      "properties": {
        "state_code": 27,
        "state_name": "Maharashtra",
        "state_type": "State",
        "is_pilot": false,
        "centroid_lat": 19.7515,
        "centroid_lon": 75.7139
      },
      "geometry": {
        "type": "Polygon",
        "coordinates": [
          [
            [
              79.8086,
              19.7515
            ],
            [
              79.70451,
              20.68665
            ],
            [
              79.44347,
              21.42916
            ],
            [
              78.55634,
              22.05094
            ],
            [
              77.6851,
              22.02439
            ],
            [
              76.64164,
              22.12378
            ],
            [
              75.7139,
              22.45768
            ],
            [
              74.77104,
              22.68814
            ],
            [
              73.84821,
              22.46231
            ],
            [
              73.39637,
              22.00178
            ],
            [
              73.00395,
              21.22598
            ],
            [
              72.52411,
              20.58699
            ],
            [
              72.22778,
              19.7515
            ],
            [
              71.96775,
              18.82023
            ],
            [
              72.00882,
              18.00188
            ],
            [
              72.40619,
              17.45604
            ],
            [
              73.52791,
              17.31126
            ],
            [
              74.60612,
              17.38914
            ],
            [
              75.7139,
              17.15288
            ],
            [
              76.53012,
              16.95796
            ],
            [
              77.10572,
              16.94498
            ],
            [
              77.66689,
              17.6313
            ],
            [
              78.5844,
              18.14265
            ],
            [
              79.34093,
              18.94156
            ],
            [
              79.8086,
              19.7515
            ]
          ]
        ]
      }
    },
    {
      "type": "Feature",
      "id": 28,
      "properties": {
        "state_code": 28,
        "state_name": "Andhra Pradesh",
        "state_type": "State",
        "is_pilot": false,
        "centroid_lat": 15.9129,
        "centroid_lon": 79.74
      },
      "geometry": {
        "type": "Polygon",
        "coordinates": [
          [
            [
              82.80712,
              15.9129
            ],
            [
              82.9407,
              16.91888
            ],
            [
              82.4019,
              17.69845
            ],
            [
              81.88507,
              18.12774
            ],
            [
              81.23766,
              18.35108
            ],
            [
              80.47962,
              18.33458
            ],
            [
              79.74,
              18.76074
            ],
            [
              79.05002,
              18.94819
            ],
            [
              78.34091,
              18.79423
            ],
            [
              77.88281,
              18.08273
            ],
            [
              77.66075,
              17.56288
            ],
            [
              77.47681,
              16.78322
            ],
            [
              77.22672,
              15.9129
            ],
            [
              77.11076,
              14.91706
            ],
            [
              76.88554,
              14.07883
            ],
            [
              77.28426,
              13.69114
            ],
            [
              78.042,
              13.36394
            ],
            [
              78.92928,
              13.29346
            ],
            [
              79.74,
              12.98772
            ],
            [
              80.32627,
              12.86739
            ],
            [
              80.82124,
              13.11266
            ],
            [
              81.20305,
              13.55055
            ],
            [
              81.80288,
              14.28676
            ],
            [
              82.528,
              15.02474
            ],
            [
              82.80712,
              15.9129
            ]
          ]
        ]
      }
    },
    {
      "type": "Feature",
      "id": 29,
      "properties": {
        "state_code": 29,
        "state_name": "Karnataka",
        "state_type": "State",
        "is_pilot": false,
        "centroid_lat": 15.3173,
        "centroid_lon": 75.7139
      },
      "geometry": {
        "type": "Polygon",
        "coordinates": [
          [
            [
              78.53202,
              15.3173
            ],
            [
              78.61045,
              16.33747
            ],
            [
              78.26642,
              17.15458
            ],
            [
              77.6723,
              17.78455
            ],
            [
              77.10546,
              17.89781
            ],
            [
              76.35614,
              18.15322
            ],
            [
              75.7139,
              18.37784
            ],
            [
              75.021,
              18.50252
            ],
            [
              74.4527,
              18.43173
            ],
            [
              74.04316,
              17.62777
            ],
            [
              73.8354,
              16.99241
            ],
            [
              73.54879,
              16.22089
            ],
            [
              73.47159,
              15.3173
            ],
            [
              73.20045,
              14.29163
            ],
            [
              73.10372,
              13.4534
            ],
            [
              73.47325,
              12.8818
            ],
            [
              74.10173,
              12.65036
            ],
            [
              74.94964,
              12.55397
            ],
            [
              75.7139,
              12.16319
            ],
            [
              76.30871,
              12.22826
            ],
            [
              76.74064,
              12.29963
            ],
            [
              77.09828,
              12.89901
            ],
            [
              77.75759,
              13.59091
            ],
            [
              78.2012,
              14.38619
            ],
            [
              78.53202,
              15.3173
            ]
          ]
        ]
      }
    },
    {
      "type": "Feature",
      "id": 30,
      "properties": {
        "state_code": 30,
        "state_name": "Goa",
        "state_type": "State",
        "is_pilot": false,
        "centroid_lat": 15.2993,
        "centroid_lon": 74.124
      },
      "geometry": {
        "type": "Polygon",
        "coordinates": [
          [
            [
              74.6222,
              15.2993
            ],
            [
              74.61665,
              15.4777
            ],
            [
              74.549,
              15.65222
            ],
            [
              74.47537,
              15.70277
            ],
            [
              74.3565,
              15.76304
            ],
            [
              74.24456,
              15.76373
            ],
            [
              74.124,
              15.84803
            ],
            [
              74.00354,
              15.86915
            ],
            [
              73.91644,
              15.80055
            ],
            [
              73.83984,
              15.72891
            ],
            [
              73.78611,
              15.60934
            ],
            [
              73.75648,
              15.45373
            ],
            [
              73.70346,
              15.2993
            ],
            [
              73.70465,
              15.11991
            ],
            [
              73.68203,
              14.96759
            ],
            [
              73.7514,
              14.87836
            ],
            [
              73.85649,
              14.86773
            ],
            [
              73.99062,
              14.84121
            ],
            [
              74.124,
              14.75166
            ],
            [
              74.22201,
              14.75625
            ],
            [
              74.30533,
              14.76849
            ],
            [
              74.38311,
              14.86673
            ],
            [
              74.44555,
              15.01062
            ],
            [
              74.54192,
              15.13865
            ],
            [
              74.6222,
              15.2993
            ]
          ]
        ]
      }
    },
    {
      "type": "Feature",
      "id": 31,
      "properties": {
        "state_code": 31,
        "state_name": "Lakshadweep",
        "state_type": "UT",
        "is_pilot": false,
        "centroid_lat": 10.5667,
        "centroid_lon": 72.6417
      },
      "geometry": {
        "type": "Polygon",
        "coordinates": [
          [
            [
              73.07872,
              10.5667
            ],
            [
              73.09686,
              10.77763
            ],
            [
              73.04142,
              10.94892
            ],
            [
              72.96087,
              11.08454
            ],
            [
              72.8445,
              11.11189
            ],
            [
              72.74125,
              11.11524
            ],
            [
              72.6417,
              11.20833
            ],
            [
              72.53926,
              11.22195
            ],
            [
              72.43784,
              11.15307
            ],
            [
              72.38542,
              11.04981
            ],
            [
              72.33484,
              10.92494
            ],
            [
              72.29498,
              10.75808
            ],
            [
              72.28513,
              10.5667
            ],
            [
              72.24877,
              10.35814
            ],
            [
              72.23979,
              10.18704
            ],
            [
              72.2931,
              10.04699
            ],
            [
              72.38653,
              10.04745
            ],
            [
              72.52033,
              9.9945
            ],
            [
              72.6417,
              9.94974
            ],
            [
              72.73287,
              9.9345
            ],
            [
              72.79069,
              9.97332
            ],
            [
              72.87434,
              10.09564
            ],
            [
              72.94587,
              10.20571
            ],
            [
              73.04021,
              10.38478
            ],
            [
              73.07872,
              10.5667
            ]
          ]
        ]
      }
    },
    {
      "type": "Feature",
      "id": 32,
      "properties": {
        "state_code": 32,
        "state_name": "Kerala",
        "state_type": "State",
        "is_pilot": false,
        "centroid_lat": 10.8505,
        "centroid_lon": 76.2711
      },
      "geometry": {
        "type": "Polygon",
        "coordinates": [
          [
            [
              77.46074,
              10.8505
            ],
            [
              77.53407,
              11.62035
            ],
            [
              77.34744,
              12.29272
            ],
            [
              77.09344,
              12.6942
            ],
            [
              76.81599,
              12.81093
            ],
            [
              76.56489,
              12.83251
            ],
            [
              76.2711,
              13.01693
            ],
            [
              75.97818,
              13.37831
            ],
            [
              75.73864,
              13.08467
            ],
            [
              75.56849,
              12.74159
            ],
            [
              75.47506,
              12.15941
            ],
            [
              75.32092,
              11.54563
            ],
            [
              75.27516,
              10.8505
            ],
            [
              75.18227,
              10.09306
            ],
            [
              75.14974,
              9.3288
            ],
            [
              75.3144,
              9.01046
            ],
            [
              75.59953,
              8.96873
            ],
            [
              75.93483,
              8.77581
            ],
            [
              76.2711,
              8.66305
            ],
            [
              76.50176,
              8.46532
            ],
            [
              76.692,
              8.50505
            ],
            [
              76.85649,
              9.01989
            ],
            [
              77.12911,
              9.54369
            ],
            [
              77.30189,
              10.12487
            ],
            [
              77.46074,
              10.8505
            ]
          ]
        ]
      }
    },
    {
      "type": "Feature",
      "id": 33,
      "properties": {
        "state_code": 33,
        "state_name": "Tamil Nadu",
        "state_type": "State",
        "is_pilot": false,
        "centroid_lat": 11.1271,
        "centroid_lon": 78.6569
      },
      "geometry": {
        "type": "Polygon",
        "coordinates": [
          [
            [
              81.09608,
              11.1271
            ],
            [
              81.23945,
              11.99575
            ],
            [
              80.90139,
              12.80301
            ],
            [
              80.33529,
              13.08165
            ],
            [
              79.80329,
              13.25519
            ],
            [
              79.2734,
              13.52122
            ],
            [
              78.6569,
              13.82103
            ],
            [
              78.05063,
              13.81581
            ],
            [
              77.53104,
              13.74651
            ],
            [
              77.15248,
              13.15736
            ],
            [
              76.9929,
              12.51995
            ],
            [
              76.77038,
              11.90862
            ],
            [
              76.52094,
              11.1271
            ],
            [
              76.41216,
              10.24213
            ],
            [
              76.33736,
              9.45731
            ],
            [
              76.72607,
              9.15893
            ],
            [
              77.23311,
              8.84901
            ],
            [
              77.9951,
              8.77257
            ],
            [
              78.6569,
              8.43679
            ],
            [
              79.15768,
              8.48309
            ],
            [
              79.50286,
              8.47245
            ],
            [
              79.91937,
              9.09254
            ],
            [
              80.48934,
              9.70739
            ],
            [
              80.94712,
              10.33481
            ],
            [
              81.09608,
              11.1271
            ]
          ]
        ]
      }
    },
    {
      "type": "Feature",
      "id": 34,
      "properties": {
        "state_code": 34,
        "state_name": "Puducherry",
        "state_type": "UT",
        "is_pilot": false,
        "centroid_lat": 11.9416,
        "centroid_lon": 79.8083
      },
      "geometry": {
        "type": "Polygon",
        "coordinates": [
          [
            [
              80.15006,
              11.9416
            ],
            [
              80.12915,
              12.03639
            ],
            [
              80.09953,
              12.1158
            ],
            [
              80.03628,
              12.14537
            ],
            [
              79.96246,
              12.1734
            ],
            [
              79.88577,
              12.1721
            ],
            [
              79.8083,
              12.21472
            ],
            [
              79.73272,
              12.22238
            ],
            [
              79.66184,
              12.19308
            ],
            [
              79.60719,
              12.15597
            ],
            [
              79.58201,
              12.09407
            ],
            [
              79.56168,
              12.01924
            ],
            [
              79.52617,
              11.9416
            ],
            [
              79.52666,
              11.85098
            ],
            [
              79.51141,
              11.77453
            ],
            [
              79.55503,
              11.72777
            ],
            [
              79.6198,
              11.71683
            ],
            [
              79.71614,
              11.71574
            ],
            [
              79.8083,
              11.66718
            ],
            [
              79.87777,
              11.67284
            ],
            [
              79.92715,
              11.67414
            ],
            [
              79.97441,
              11.72303
            ],
            [
              80.04385,
              11.79024
            ],
            [
              80.10025,
              11.86342
            ],
            [
              80.15006,
              11.9416
            ]
          ]
        ]
      }
    },
    {
      "type": "Feature",
      "id": 35,
      "properties": {
        "state_code": 35,
        "state_name": "Andaman and Nicobar Islands",
        "state_type": "UT",
        "is_pilot": false,
        "centroid_lat": 11.7401,
        "centroid_lon": 92.6586
      },
      "geometry": {
        "type": "Polygon",
        "coordinates": [
          [
            [
              93.57242,
              11.7401
            ],
            [
              93.5754,
              12.49693
            ],
            [
              93.41697,
              13.06521
            ],
            [
              93.25156,
              13.35464
            ],
            [
              93.07771,
              13.50763
            ],
            [
              92.86715,
              13.68803
            ],
            [
              92.6586,
              13.93284
            ],
            [
              92.45178,
              13.99975
            ],
            [
              92.28731,
              13.87338
            ],
            [
              92.14414,
              13.44103
            ],
            [
              92.04184,
              12.96707
            ],
            [
              92.01085,
              12.3898
            ],
            [
              91.97164,
              11.7401
            ],
            [
              91.9172,
              11.00457
            ],
            [
              91.90408,
              10.34644
            ],
            [
              91.96875,
              10.0305
            ],
            [
              92.18081,
              9.83877
            ],
            [
              92.41659,
              9.74145
            ],
            [
              92.6586,
              9.59156
            ],
            [
              92.84551,
              9.43895
            ],
            [
              92.98135,
              9.73917
            ],
            [
              93.07361,
              10.02225
            ],
            [
              93.27391,
              10.59638
            ],
            [
              93.41254,
              11.06923
            ],
            [
              93.57242,
              11.7401
            ]
          ]
        ]
      }
    },
    {
      "type": "Feature",
      "id": 36,
      "properties": {
        "state_code": 36,
        "state_name": "Telangana",
        "state_type": "State",
        "is_pilot": false,
        "centroid_lat": 18.1124,
        "centroid_lon": 79.0193
      },
      "geometry": {
        "type": "Polygon",
        "coordinates": [
          [
            [
              81.44588,
              18.1124
            ],
            [
              81.59146,
              18.78194
            ],
            [
              81.27102,
              19.31261
            ],
            [
              80.69864,
              19.71097
            ],
            [
              80.25278,
              19.85374
            ],
            [
              79.62618,
              19.92787
            ],
            [
              79.0193,
              19.94763
            ],
            [
              78.45606,
              20.08594
            ],
            [
              77.86373,
              20.04455
            ],
            [
              77.46626,
              19.60436
            ],
            [
              77.36549,
              19.21723
            ],
            [
              77.1704,
              18.72948
            ],
            [
              76.93443,
              18.1124
            ],
            [
              76.83131,
              17.44315
            ],
            [
              76.68927,
              16.86723
            ],
            [
              77.0891,
              16.60714
            ],
            [
              77.60974,
              16.48121
            ],
            [
              78.35377,
              16.33509
            ],
            [
              79.0193,
              16.12666
            ],
            [
              79.53256,
              15.9586
            ],
            [
              79.93534,
              16.25661
            ],
            [
              80.239,
              16.48936
            ],
            [
              80.75328,
              16.99677
            ],
            [
              81.1614,
              17.5154
            ],
            [
              81.44588,
              18.1124
            ]
          ]
        ]
      }
    },
    {
      "type": "Feature",
      "id": 37,
      "properties": {
        "state_code": 37,
        "state_name": "Ladakh",
        "state_type": "UT",
        "is_pilot": false,
        "centroid_lat": 34.1526,
        "centroid_lon": 77.5771
      },
      "geometry": {
        "type": "Polygon",
        "coordinates": [
          [
            [
              80.66567,
              34.1526
            ],
            [
              80.81004,
              34.80266
            ],
            [
              80.21169,
              35.3273
            ],
            [
              79.69055,
              35.66929
            ],
            [
              78.95973,
              35.69316
            ],
            [
              78.33884,
              35.85494
            ],
            [
              77.5771,
              36.07434
            ],
            [
              76.86381,
              36.08079
            ],
            [
              76.24448,
              36.01056
            ],
            [
              75.79172,
              35.65517
            ],
            [
              75.51232,
              35.17601
            ],
            [
              75.1571,
              34.68832
            ],
            [
              75.05929,
              34.1526
            ],
            [
              74.76776,
              33.50333
            ],
            [
              74.85706,
              32.96531
            ],
            [
              75.13255,
              32.6655
            ],
            [
              75.82719,
              32.57881
            ],
            [
              76.74452,
              32.43293
            ],
            [
              77.5771,
              32.25167
            ],
            [
              78.16906,
              32.18236
            ],
            [
              78.63022,
              32.32374
            ],
            [
              79.04982,
              32.60564
            ],
            [
              79.72044,
              33.08062
            ],
            [
              80.14879,
              33.58892
            ],
            [
              80.66567,
              34.1526
            ]
          ]
        ]
      }
    }
  ]
}