{
  "type": "FeatureCollection",
  "name": "Uttar_Pradesh_Districts",
  "features": [
    {
      "type": "Feature",
      "id": 126,
      "properties": {
        "district_code": 126,
        "district_name": "Agra",
        "state_code": 9,
        "state_name": "Uttar Pradesh",
        "is_pilot": false,
        "total_blocks": 6,
        "total_gps": 30,
        "centroid_lat": 27.1767,
        "centroid_lon": 78.0081
      },
      "geometry": {
        "type": "Polygon",
        "coordinates": [
          [
            [
              78.3497,
              27.16895
            ],
            [
              78.35616,
              27.25166
            ],
            [
              78.33083,
              27.33361
            ],
            [
              78.24441,
              27.37753
            ],
            [
              78.16308,
              27.4034
            ],
            [
              78.09429,
              27.43828
            ],
            [
              78.01497,
              27.43103
            ],
            [
              77.94302,
              27.41638
            ],
            [
              77.85864,
              27.42105
            ],
            [
              77.7708,
              27.39876
            ],
            [
              77.68995,
              27.34961
            ],
            [
              77.65439,
              27.26914
            ],
            [
              77.67011,
              27.18355
            ],
            [
              77.73752,
              27.11774
            ],
            [
              77.78941,
              27.06967
            ],
            [
              77.83421,
              27.02815
            ],
            [
              77.84425,
              26.93572
            ],
            [
              77.89915,
              26.84391
            ],
            [
              77.99862,
              26.82023
            ],
            [
              78.09424,
              26.85812
            ],
            [
              78.16374,
              26.92106
            ],
            [
              78.19475,
              27.00118
            ],
            [
              78.21084,
              27.06589
            ],
            [
              78.27774,
              27.10554
            ],
            [
              78.3497,
              27.16895
            ]
          ]
        ]
      }
    },
    {
      "type": "Feature",
      "id": 134,
      "properties": {
        "district_code": 134,
        "district_name": "Prayagraj",
        "state_code": 9,
        "state_name": "Uttar Pradesh",
        "is_pilot": false,
        "total_blocks": 10,
        "total_gps": 50,
        "centroid_lat": 25.4358,
        "centroid_lon": 81.8463
      },
      "geometry": {
        "type": "Polygon",
        "coordinates": [
          [
            [
              82.1874,
              25.41943
            ],
            [
              82.20939,
              25.50565
            ],
            [
              82.1785,
              25.58918
            ],
            [
              82.1056,
              25.64746
            ],
            [
              82.00334,
              25.6552
            ],
            [
              81.93822,
              25.69262
            ],
            [
              81.86052,
              25.68457
            ],
            [
              81.78295,
              25.70503
            ],
            [
              81.70368,
              25.68897
            ],
            [
              81.62418,
              25.65893
            ],
            [
              81.53582,
              25.61801
            ],
            [
              81.48175,
              25.54253
            ],
            [
              81.5134,
              25.45101
            ],
            [
              81.56988,
              25.38193
            ],
            [
              81.62407,
              25.33249
            ],
            [
              81.64631,
              25.2716
            ],
            [
              81.68392,
              25.20771
            ],
            [
              81.7339,
              25.11958
            ],
            [
              81.82573,
              25.06997
            ],
            [
              81.92217,
              25.1126
            ],
            [
              81.97752,
              25.20205
            ],
            [
              82.01179,
              25.26891
            ],
            [
              82.06297,
              25.308
            ],
            [
              82.11294,
              25.35708
            ],
            [
              82.1874,
              25.41943
            ]
          ]
        ]
      }
    },
    {
      "type": "Feature",
      "id": 142,
      "properties": {
        "district_code": 142,
        "district_name": "Ayodhya",
        "state_code": 9,
        "state_name": "Uttar Pradesh",
        "is_pilot": false,
        "total_blocks": 6,
        "total_gps": 30,
        "centroid_lat": 26.7922,
        "centroid_lon": 82.1998
      },
      "geometry": {
        "type": "Polygon",
        "coordinates": [
          [
            [
              82.54225,
              26.78888
            ],
            [
              82.56783,
              26.87682
            ],
            [
              82.52155,
              26.95468
            ],
            [
              82.43719,
              27.00066
            ],
            [
              82.34847,
              27.01779
            ],
            [
              82.28065,
              27.05245
            ],
            [
              82.20237,
              27.03527
            ],
            [
              82.12983,
              27.0352
            ],
            [
              82.03814,
              27.04841
            ],
            [
              81.94977,
              27.02019
            ],
            [
              81.86724,
              26.96763
            ],
            [
              81.82178,
              26.88597
            ],
            [
              81.85161,
              26.79472
            ],
            [
              81.89768,
              26.72192
            ],
            [
              81.98397,
              26.68252
            ],
            [
              82.00667,
              26.62172
            ],
            [
              82.0403,
              26.54896
            ],
            [
              82.10242,
              26.47698
            ],
            [
              82.19592,
              26.41958
            ],
            [
              82.29214,
              26.46994
            ],
            [
              82.34688,
              26.55797
            ],
            [
              82.37556,
              26.63113
            ],
            [
              82.41925,
              26.67572
            ],
            [
              82.47786,
              26.72249
            ],
            [
              82.54225,
              26.78888
            ]
          ]
        ]
      }
    },
    {
      "type": "Feature",
      "id": 152,
      "properties": {
        "district_code": 152,
        "district_name": "Gorakhpur",
        "state_code": 9,
        "state_name": "Uttar Pradesh",
        "is_pilot": false,
        "total_blocks": 8,
        "total_gps": 45,
        "centroid_lat": 26.7606,
        "centroid_lon": 83.3732
      },
      "geometry": {
        "type": "Polygon",
        "coordinates": [
          [
            [
              83.73143,
              26.75415
            ],
            [
              83.74512,
              26.84286
            ],
            [
              83.70765,
              26.92589
            ],
            [
              83.61065,
              26.96535
            ],
            [
              83.53915,
              27.00717
            ],
            [
              83.45255,
              27.00727
            ],
            [
              83.3787,
              27.02314
            ],
            [
              83.2988,
              27.0293
            ],
            [
              83.22877,
              26.99465
            ],
            [
              83.14079,
              26.97659
            ],
            [
              83.06573,
              26.92634
            ],
            [
              83.00806,
              26.85448
            ],
            [
              83.01562,
              26.76614
            ],
            [
              83.075,
              26.69384
            ],
            [
              83.17004,
              26.65955
            ],
            [
              83.1786,
              26.59191
            ],
            [
              83.22304,
              26.53631
            ],
            [
              83.26452,
              26.4207
            ],
            [
              83.36564,
              26.3933
            ],
            [
              83.46176,
              26.43929
            ],
            [
              83.51308,
              26.53294
            ],
            [
              83.56036,
              26.58582
            ],
            [
              83.58037,
              26.64829
            ],
            [
              83.6694,
              26.68365
            ],
            [
              83.73143,
              26.75415
            ]
          ]
        ]
      }
    },
    {
      "type": "Feature",
      "id": 162,
      "properties": {
        "district_code": 162,
        "district_name": "Kanpur Nagar",
        "state_code": 9,
        "state_name": "Uttar Pradesh",
        "is_pilot": false,
        "total_blocks": 7,
        "total_gps": 35,
        "centroid_lat": 26.4499,
        "centroid_lon": 80.3319
      },
      "geometry": {
        "type": "Polygon",
        "coordinates": [
          [
            [
              80.66009,
              26.43724
            ],
            [
              80.6973,
              26.523
            ],
            [
              80.66376,
              26.60555
            ],
            [
              80.57114,
              26.64746
            ],
            [
              80.48773,
              26.67051
            ],
            [
              80.41833,
              26.69774
            ],
            [
              80.34328,
              26.69465
            ],
            [
              80.26534,
              26.71713
            ],
            [
              80.18388,
              26.70403
            ],
            [
              80.09176,
              26.68421
            ],
            [
              80.00888,
              26.63368
            ],
            [
              79.96984,
              26.55138
            ],
            [
              79.98229,
              26.46255
            ],
            [
              80.03268,
              26.38924
            ],
            [
              80.0994,
              26.34008
            ],
            [
              80.13173,
              26.28368
            ],
            [
              80.17173,
              26.22192
            ],
            [
              80.22193,
              26.13247
            ],
            [
              80.31472,
              26.07428
            ],
            [
              80.41146,
              26.12946
            ],
            [
              80.47674,
              26.20022
            ],
            [
              80.49144,
              26.29356
            ],
            [
              80.5328,
              26.33499
            ],
            [
              80.62168,
              26.36792
            ],
            [
              80.66009,
              26.43724
            ]
          ]
        ]
      }
    },
    {
      "type": "Feature",
      "id": 168,
      "properties": {
        "district_code": 168,
        "district_name": "Lucknow",
        "state_code": 9,
        "state_name": "Uttar Pradesh",
        "is_pilot": false,
        "total_blocks": 8,
        "total_gps": 40,
        "centroid_lat": 26.8467,
        "centroid_lon": 80.9462
      },
      "geometry": {
        "type": "Polygon",
        "coordinates": [
          [
            [
              81.30844,
              26.83095
            ],
            [
              81.31114,
              26.91757
            ],
            [
              81.25593,
              26.98957
            ],
            [
              81.18954,
              27.04474
            ],
            [
              81.12092,
              27.09014
            ],
            [
              81.0388,
              27.10625
            ],
            [
              80.96051,
              27.11775
            ],
            [
              80.88756,
              27.08749
            ],
            [
              80.81149,
              27.08031
            ],
            [
              80.71829,
              27.07077
            ],
            [
              80.64587,
              27.01907
            ],
            [
              80.60217,
              26.94466
            ],
            [
              80.60159,
              26.86082
            ],
            [
              80.65339,
              26.78905
            ],
            [
              80.73802,
              26.75003
            ],
            [
              80.75425,
              26.6896
            ],
            [
              80.78627,
              26.62255
            ],
            [
              80.83317,
              26.52764
            ],
            [
              80.92733,
              26.48339
            ],
            [
              81.02525,
              26.52114
            ],
            [
              81.08526,
              26.60463
            ],
            [
              81.11549,
              26.67955
            ],
            [
              81.1466,
              26.73109
            ],
            [
              81.20924,
              26.77115
            ],
            [
              81.30844,
              26.83095
            ]
          ]
        ]
      }
    },
    {
      "type": "Feature",
      "id": 171,
      "properties": {
        "district_code": 171,
        "district_name": "Meerut",
        "state_code": 9,
        "state_name": "Uttar Pradesh",
        "is_pilot": false,
        "total_blocks": 6,
        "total_gps": 30,
        "centroid_lat": 28.9845,
        "centroid_lon": 77.7064
      },
      "geometry": {
        "type": "Polygon",
        "coordinates": [
          [
            [
              78.04286,
              28.9773
            ],
            [
              78.06345,
              29.06042
            ],
            [
              78.03757,
              29.14316
            ],
            [
              77.95278,
              29.19076
            ],
            [
              77.86493,
              29.21299
            ],
            [
              77.78723,
              29.22669
            ],
            [
              77.71284,
              29.23005
            ],
            [
              77.63593,
              29.23838
            ],
            [
              77.54674,
              29.24036
            ],
            [
              77.4713,
              29.20028
            ],
            [
              77.38591,
              29.15527
            ],
            [
              77.32259,
              29.08263
            ],
            [
              77.36844,
              28.99088
            ],
            [
              77.42402,
              28.92369
            ],
            [
              77.4888,
              28.87951
            ],
            [
              77.53002,
              28.83602
            ],
            [
              77.54413,
              28.74928
            ],
            [
              77.59556,
              28.65021
            ],
            [
              77.69705,
              28.62244
            ],
            [
              77.79315,
              28.6705
            ],
            [
              77.86285,
              28.73246
            ],
            [
              77.87596,
              28.8281
            ],
            [
              77.93051,
              28.86432
            ],
            [
              78.01143,
              28.90561
            ],
            [
              78.04286,
              28.9773
            ]
          ]
        ]
      }
    },
    {
      "type": "Feature",
      "id": 188,
      "properties": {
        "district_code": 188,
        "district_name": "Varanasi",
        "state_code": 9,
        "state_name": "Uttar Pradesh",
        "is_pilot": true,
        "total_blocks": 6,
        "total_gps": 35,
        "centroid_lat": 25.3176,
        "centroid_lon": 82.9739
      },
      "geometry": {
        "type": "Polygon",
        "coordinates": [
          [
            [
              83.31036,
              25.31271
            ],
            [
              83.34249,
              25.40157
            ],
            [
              83.2968,
              25.48073
            ],
            [
              83.21168,
              25.52687
            ],
            [
              83.1335,
              25.55991
            ],
            [
              83.05567,
              25.5788
            ],
            [
              82.97799,
              25.56819
            ],
            [
              82.90714,
              25.55775
            ],
            [
              82.82285,
              25.56316
            ],
            [
              82.74087,
              25.53519
            ],
            [
              82.66986,
              25.4821
            ],
            [
              82.62029,
              25.40833
            ],
            [
              82.64198,
              25.32167
            ],
            [
              82.70138,
              25.25484
            ],
            [
              82.76153,
              25.20966
            ],
            [
              82.7933,
              25.15788
            ],
            [
              82.80886,
              25.06574
            ],
            [
              82.87477,
              24.99916
            ],
            [
              82.96813,
              24.95862
            ],
            [
              83.06492,
              24.98879
            ],
            [
              83.11485,
              25.08747
            ],
            [
              83.14507,
              25.15707
            ],
            [
              83.18887,
              25.20066
            ],
            [
              83.24177,
              25.24822
            ],
            [
              83.31036,
              25.31271
            ]
          ]
        ]
      }
    }
  ]
}