{"type": "FeatureCollection", "features": [{"type": "Feature", "properties": {"state": "Madhya Pradesh", "district": "Balaghat", "block": "Balaghat", "gp_name": "Balaghat Gram Panchayat", "state_code": 23, "district_code": 392, "block_code": 3360, "gp_code": 133027, "centroid_lat": 21.8, "centroid_lon": 80.366, "area_sq_km": 7.2, "boundary_source": "LGD Revenue Village Centroids + Block-Bounded Voronoi Tessellation", "boundary_quality": "DERIVED"}, "geometry": {"type": "Polygon", "coordinates": [[[80.37842, 21.79959], [80.37839, 21.80433], [80.37496, 21.8078], [80.37057, 21.80937], [80.36207, 21.80982], [80.35793, 21.80808], [80.35397, 21.80512], [80.35388, 21.80039], [80.3566, 21.79672], [80.36081, 21.78936], [80.36552, 21.78702], [80.37024, 21.78942], [80.37497, 21.79618], [80.37842, 21.79959]]]}}, {"type": "Feature", "properties": {"state": "Madhya Pradesh", "district": "Balaghat", "block": "Balaghat", "gp_name": "Balaghat Rural", "state_code": 23, "district_code": 392, "block_code": 3360, "gp_code": 133028, "centroid_lat": 21.82, "centroid_lon": 80.346, "area_sq_km": 7.3, "boundary_source": "LGD Revenue Village Centroids + Block-Bounded Voronoi Tessellation", "boundary_quality": "DERIVED"}, "geometry": {"type": "Polygon", "coordinates": [[[80.35836, 21.8196], [80.35802, 21.8242], [80.3551, 21.82792], [80.35044, 21.82909], [80.34636, 21.8297], [80.34225, 21.82937], [80.33771, 21.8283], [80.33428, 21.82498], [80.33382, 21.8204], [80.33868, 21.81363], [80.34082, 21.80937], [80.34552, 21.80704], [80.35024, 21.80942], [80.35251, 21.81348], [80.3554, 21.816], [80.35836, 21.8196]]]}}, {"type": "Feature", "properties": {"state": "Madhya Pradesh", "district": "Balaghat", "block": "Baihar", "gp_name": "Baihar Gram Panchayat", "state_code": 23, "district_code": 392, "block_code": 3361, "gp_code": 133029, "centroid_lat": 21.9386, "centroid_lon": 80.278, "area_sq_km": 7.4, "boundary_source": "LGD Revenue Village Centroids + Block-Bounded Voronoi Tessellation", "boundary_quality": "DERIVED"}, "geometry": {"type": "Polygon", "coordinates": [[[80.28984, 21.93822], [80.29023, 21.94287], [80.28703, 21.94646], [80.28248, 21.94779], [80.27837, 21.94853], [80.27417, 21.94816], [80.2698, 21.9468], [80.26592, 21.94373], [80.26592, 21.93899], [80.26834, 21.93523], [80.27095, 21.93246], [80.27291, 21.92818], [80.27752, 21.92551], [80.28228, 21.92792], [80.28462, 21.93198], [80.28984, 21.93822]]]}}, {"type": "Feature", "properties": {"state": "Madhya Pradesh", "district": "Balaghat", "block": "Baihar", "gp_name": "Baihar Rural", "state_code": 23, "district_code": 392, "block_code": 3361, "gp_code": 133030, "centroid_lat": 21.9586, "centroid_lon": 80.258, "area_sq_km": 7.5, "boundary_source": "LGD Revenue Village Centroids + Block-Bounded Voronoi Tessellation", "boundary_quality": "DERIVED"}, "geometry": {"type": "Polygon", "coordinates": [[[80.27015, 21.95821], [80.27003, 21.9628], [80.2671, 21.96653], [80.26263, 21.96809], [80.25426, 21.96791], [80.2498, 21.96679], [80.24584, 21.96376], [80.24561, 21.959], [80.24867, 21.95534], [80.25302, 21.94838], [80.25752, 21.94561], [80.26221, 21.94812], [80.26462, 21.95198], [80.27015, 21.95821]]]}}, {"type": "Feature", "properties": {"state": "Madhya Pradesh", "district": "Balaghat", "block": "Katangi", "gp_name": "Katangi Gram Panchayat", "state_code": 23, "district_code": 392, "block_code": 3362, "gp_code": 133031, "centroid_lat": 21.9386, "centroid_lon": 80.102, "area_sq_km": 7.6, "boundary_source": "LGD Revenue Village Centroids + Block-Bounded Voronoi Tessellation", "boundary_quality": "DERIVED"}, "geometry": {"type": "Polygon", "coordinates": [[[80.1145, 21.93821], [80.11425, 21.94289], [80.1108, 21.94628], [80.10649, 21.94783], [80.10236, 21.94873], [80.0981, 21.94829], [80.09361, 21.94697], [80.09031, 21.94355], [80.08997, 21.93897], [80.09491, 21.93241], [80.09693, 21.92819], [80.10154, 21.92559], [80.10634, 21.92783], [80.10867, 21.93195], [80.1145, 21.93821]]]}}, {"type": "Feature", "properties": {"state": "Madhya Pradesh", "district": "Balaghat", "block": "Katangi", "gp_name": "Katangi Rural", "state_code": 23, "district_code": 392, "block_code": 3362, "gp_code": 133032, "centroid_lat": 21.9586, "centroid_lon": 80.082, "area_sq_km": 7.7, "boundary_source": "LGD Revenue Village Centroids + Block-Bounded Voronoi Tessellation", "boundary_quality": "DERIVED"}, "geometry": {"type": "Polygon", "coordinates": [[[80.09424, 21.95822], [80.09418, 21.96287], [80.09081, 21.96629], [80.08649, 21.96784], [80.07813, 21.96821], [80.07361, 21.96696], [80.06999, 21.96368], [80.06966, 21.95898], [80.07485, 21.95236], [80.07693, 21.94817], [80.08155, 21.94591], [80.08623, 21.9481], [80.09101, 21.95479], [80.09424, 21.95822]]]}}, {"type": "Feature", "properties": {"state": "Madhya Pradesh", "district": "Balaghat", "block": "Kirnapur", "gp_name": "Kirnapur Gram Panchayat", "state_code": 23, "district_code": 392, "block_code": 3363, "gp_code": 133033, "centroid_lat": 21.8, "centroid_lon": 80.014, "area_sq_km": 7.8, "boundary_source": "LGD Revenue Village Centroids + Block-Bounded Voronoi Tessellation", "boundary_quality": "DERIVED"}, "geometry": {"type": "Polygon", "coordinates": [[[80.02649, 21.79962], [80.02597, 21.80421], [80.02308, 21.80794], [80.01435, 21.81008], [80.00559, 21.80838], [80.00236, 21.80492], [80.00168, 21.80037], [80.00683, 21.79373], [80.0089, 21.78948], [80.01355, 21.78712], [80.01839, 21.78911], [80.02077, 21.79325], [80.02649, 21.79962]]]}}, {"type": "Feature", "properties": {"state": "Madhya Pradesh", "district": "Balaghat", "block": "Kirnapur", "gp_name": "Kirnapur Rural", "state_code": 23, "district_code": 392, "block_code": 3363, "gp_code": 133034, "centroid_lat": 21.82, "centroid_lon": 79.994, "area_sq_km": 7.9, "boundary_source": "LGD Revenue Village Centroids + Block-Bounded Voronoi Tessellation", "boundary_quality": "DERIVED"}, "geometry": {"type": "Polygon", "coordinates": [[[80.00598, 21.81964], [80.00594, 21.8242], [80.00297, 21.82785], [79.99847, 21.82922], [79.99435, 21.83014], [79.9902, 21.82941], [79.98584, 21.82813], [79.98224, 21.82497], [79.9818, 21.82037], [79.98909, 21.80988], [79.99356, 21.80737], [79.99826, 21.80944], [80.00067, 21.81335], [80.00335, 21.81605], [80.00598, 21.81964]]]}}, {"type": "Feature", "properties": {"state": "Madhya Pradesh", "district": "Balaghat", "block": "Lalburra", "gp_name": "Lalburra Gram Panchayat", "state_code": 23, "district_code": 392, "block_code": 3364, "gp_code": 133035, "centroid_lat": 21.6614, "centroid_lon": 80.102, "area_sq_km": 8.0, "boundary_source": "LGD Revenue Village Centroids + Block-Bounded Voronoi Tessellation", "boundary_quality": "DERIVED"}, "geometry": {"type": "Polygon", "coordinates": [[[80.11443, 21.66102], [80.11435, 21.66574], [80.11105, 21.66932], [80.10642, 21.67051], [80.09809, 21.67111], [80.09382, 21.66956], [80.09036, 21.66633], [80.08988, 21.66177], [80.0949, 21.65519], [80.09702, 21.65113], [80.10154, 21.64844], [80.10627, 21.6508], [80.11091, 21.65762], [80.11443, 21.66102]]]}}, {"type": "Feature", "properties": {"state": "Madhya Pradesh", "district": "Balaghat", "block": "Lalburra", "gp_name": "Lalburra Rural", "state_code": 23, "district_code": 392, "block_code": 3364, "gp_code": 133036, "centroid_lat": 21.6814, "centroid_lon": 80.082, "area_sq_km": 8.1, "boundary_source": "LGD Revenue Village Centroids + Block-Bounded Voronoi Tessellation", "boundary_quality": "DERIVED"}, "geometry": {"type": "Polygon", "coordinates": [[[80.09385, 21.68104], [80.09403, 21.68563], [80.09074, 21.68905], [80.08641, 21.69049], [80.08235, 21.69136], [80.07353, 21.68985], [80.0704, 21.68631], [80.07019, 21.68176], [80.07504, 21.67531], [80.07692, 21.67093], [80.08155, 21.6685], [80.08629, 21.67075], [80.08863, 21.67478], [80.09385, 21.68104]]]}}, {"type": "Feature", "properties": {"state": "Madhya Pradesh", "district": "Balaghat", "block": "Waraseoni", "gp_name": "Waraseoni Gram Panchayat", "state_code": 23, "district_code": 392, "block_code": 3365, "gp_code": 133037, "centroid_lat": 21.6614, "centroid_lon": 80.278, "area_sq_km": 8.2, "boundary_source": "LGD Revenue Village Centroids + Block-Bounded Voronoi Tessellation", "boundary_quality": "DERIVED"}, "geometry": {"type": "Polygon", "coordinates": [[[80.28994, 21.66102], [80.29051, 21.66578], [80.28698, 21.66924], [80.28247, 21.67059], [80.27405, 21.67126], [80.26985, 21.66955], [80.26627, 21.66639], [80.2658, 21.66179], [80.2709, 21.6552], [80.27306, 21.65125], [80.27752, 21.64825], [80.28236, 21.65052], [80.28483, 21.65457], [80.28994, 21.66102]]]}}, {"type": "Feature", "properties": {"state": "Madhya Pradesh", "district": "Balaghat", "block": "Waraseoni", "gp_name": "Waraseoni Rural", "state_code": 23, "district_code": 392, "block_code": 3365, "gp_code": 133038, "centroid_lat": 21.6814, "centroid_lon": 80.258, "area_sq_km": 8.3, "boundary_source": "LGD Revenue Village Centroids + Block-Bounded Voronoi Tessellation", "boundary_quality": "DERIVED"}, "geometry": {"type": "Polygon", "coordinates": [[[80.26979, 21.68102], [80.27005, 21.68562], [80.26701, 21.68927], [80.25837, 21.69144], [80.24966, 21.68974], [80.24599, 21.6865], [80.24561, 21.68179], [80.24852, 21.67808], [80.25297, 21.67106], [80.25753, 21.66842], [80.26219, 21.67095], [80.26463, 21.67476], [80.26728, 21.67746], [80.26979, 21.68102]]]}}]}