{"type": "FeatureCollection", "features": [{"type": "Feature", "properties": {"state": "Madhya Pradesh", "district": "Bhopal", "block": "Berasia", "gp_name": "Berasia Gram Panchayat", "state_code": 23, "district_code": 393, "block_code": 3440, "gp_code": 133075, "centroid_lat": 23.24, "centroid_lon": 77.552, "area_sq_km": 7.0, "boundary_source": "LGD Revenue Village Centroids + Block-Bounded Voronoi Tessellation", "boundary_quality": "DERIVED"}, "geometry": {"type": "Polygon", "coordinates": [[[77.56427, 23.2398], [77.56454, 23.24456], [77.56064, 23.24771], [77.55648, 23.24952], [77.548, 23.24939], [77.54343, 23.2482], [77.54017, 23.24475], [77.54004, 23.24019], [77.54503, 23.23379], [77.54708, 23.22955], [77.55176, 23.22726], [77.55647, 23.2295], [77.55897, 23.23333], [77.56427, 23.2398]]]}}, {"type": "Feature", "properties": {"state": "Madhya Pradesh", "district": "Bhopal", "block": "Berasia", "gp_name": "Berasia Rural", "state_code": 23, "district_code": 393, "block_code": 3440, "gp_code": 133076, "centroid_lat": 23.26, "centroid_lon": 77.532, "area_sq_km": 7.1, "boundary_source": "LGD Revenue Village Centroids + Block-Bounded Voronoi Tessellation", "boundary_quality": "DERIVED"}, "geometry": {"type": "Polygon", "coordinates": [[[77.54404, 23.25981], [77.54422, 23.26445], [77.54063, 23.2677], [77.53646, 23.26947], [77.53219, 23.26997], [77.52805, 23.26927], [77.52363, 23.26801], [77.5199, 23.26486], [77.52001, 23.26019], [77.52483, 23.2536], [77.527, 23.24938], [77.53175, 23.24686], [77.53661, 23.24919], [77.53872, 23.25357], [77.54404, 23.25981]]]}}, {"type": "Feature", "properties": {"state": "Madhya Pradesh", "district": "Bhopal", "block": "Phanda", "gp_name": "Phanda Gram Panchayat", "state_code": 23, "district_code": 393, "block_code": 3441, "gp_code": 133077, "centroid_lat": 23.24, "centroid_lon": 77.288, "area_sq_km": 7.2, "boundary_source": "LGD Revenue Village Centroids + Block-Bounded Voronoi Tessellation", "boundary_quality": "DERIVED"}, "geometry": {"type": "Polygon", "coordinates": [[[77.30006, 23.23982], [77.30021, 23.24447], [77.29673, 23.24782], [77.29253, 23.24968], [77.28392, 23.24951], [77.27938, 23.24822], [77.27558, 23.24497], [77.2758, 23.24018], [77.27823, 23.23642], [77.2808, 23.23355], [77.28321, 23.22977], [77.28778, 23.22736], [77.29251, 23.22946], [77.29481, 23.2335], [77.29767, 23.23613], [77.30006, 23.23982]]]}}, {"type": "Feature", "properties": {"state": "Madhya Pradesh", "district": "Bhopal", "block": "Phanda", "gp_name": "Phanda Rural", "state_code": 23, "district_code": 393, "block_code": 3441, "gp_code": 133078, "centroid_lat": 23.26, "centroid_lon": 77.268, "area_sq_km": 7.3, "boundary_source": "LGD Revenue Village Centroids + Block-Bounded Voronoi Tessellation", "boundary_quality": "DERIVED"}, "geometry": {"type": "Polygon", "coordinates": [[[77.27996, 23.25983], [77.28057, 23.2646], [77.2767, 23.26779], [77.26817, 23.26978], [77.26396, 23.26941], [77.25954, 23.26807], [77.25613, 23.26474], [77.25561, 23.26018], [77.26083, 23.25358], [77.26314, 23.24961], [77.26778, 23.24719], [77.27248, 23.24954], [77.27477, 23.25355], [77.27996, 23.25983]]]}}]}