{"type": "FeatureCollection", "features": [{"type": "Feature", "properties": {"state": "Madhya Pradesh", "district": "Damoh", "block": "Damoh", "gp_name": "Damoh Gram Panchayat", "state_code": 23, "district_code": 397, "block_code": 3520, "gp_code": 133107, "centroid_lat": 23.82, "centroid_lon": 79.626, "area_sq_km": 5.2, "boundary_source": "LGD Revenue Village Centroids + Block-Bounded Voronoi Tessellation", "boundary_quality": "DERIVED"}, "geometry": {"type": "Polygon", "coordinates": [[[79.6385, 23.81962], [79.6386, 23.82436], [79.6349, 23.82767], [79.63063, 23.82941], [79.62206, 23.82962], [79.61738, 23.82846], [79.61377, 23.8251], [79.61367, 23.82037], [79.62092, 23.80968], [79.62554, 23.80708], [79.63025, 23.80961], [79.63503, 23.81624], [79.6385, 23.81962]]]}}, {"type": "Feature", "properties": {"state": "Madhya Pradesh", "district": "Damoh", "block": "Damoh", "gp_name": "Damoh Rural", "state_code": 23, "district_code": 397, "block_code": 3520, "gp_code": 133108, "centroid_lat": 23.84, "centroid_lon": 79.606, "area_sq_km": 5.3, "boundary_source": "LGD Revenue Village Centroids + Block-Bounded Voronoi Tessellation", "boundary_quality": "DERIVED"}, "geometry": {"type": "Polygon", "coordinates": [[[79.61819, 23.83963], [79.61835, 23.84428], [79.61521, 23.84794], [79.61053, 23.84921], [79.60636, 23.85012], [79.60204, 23.84968], [79.59778, 23.84807], [79.59368, 23.84513], [79.59361, 23.84037], [79.59881, 23.8338], [79.60082, 23.82947], [79.60555, 23.82728], [79.61027, 23.82956], [79.61819, 23.83963]]]}}, {"type": "Feature", "properties": {"state": "Madhya Pradesh", "district": "Damoh", "block": "Batiyagarh", "gp_name": "Batiyagarh Gram Panchayat", "state_code": 23, "district_code": 397, "block_code": 3521, "gp_code": 133109, "centroid_lat": 23.9586, "centroid_lon": 79.538, "area_sq_km": 5.4, "boundary_source": "LGD Revenue Village Centroids + Block-Bounded Voronoi Tessellation", "boundary_quality": "DERIVED"}, "geometry": {"type": "Polygon", "coordinates": [[[79.55054, 23.95823], [79.55015, 23.96281], [79.54686, 23.96624], [79.54268, 23.96811], [79.53834, 23.96839], [79.53412, 23.96806], [79.5296, 23.96683], [79.52605, 23.96357], [79.52564, 23.95897], [79.53067, 23.95228], [79.53293, 23.9483], [79.53754, 23.94559], [79.54232, 23.94807], [79.5472, 23.95477], [79.55054, 23.95823]]]}}, {"type": "Feature", "properties": {"state": "Madhya Pradesh", "district": "Damoh", "block": "Batiyagarh", "gp_name": "Batiyagarh Rural", "state_code": 23, "district_code": 397, "block_code": 3521, "gp_code": 133110, "centroid_lat": 23.9786, "centroid_lon": 79.518, "area_sq_km": 5.5, "boundary_source": "LGD Revenue Village Centroids + Block-Bounded Voronoi Tessellation", "boundary_quality": "DERIVED"}, "geometry": {"type": "Polygon", "coordinates": [[[79.53051, 23.97823], [79.53052, 23.98294], [79.52721, 23.98654], [79.52254, 23.98783], [79.51835, 23.98874], [79.50943, 23.987], [79.50561, 23.98375], [79.50569, 23.97896], [79.51056, 23.97219], [79.51276, 23.96795], [79.51754, 23.96556], [79.52239, 23.9679], [79.53051, 23.97823]]]}}, {"type": "Feature", "properties": {"state": "Madhya Pradesh", "district": "Damoh", "block": "Hatta", "gp_name": "Hatta Gram Panchayat", "state_code": 23, "district_code": 397, "block_code": 3522, "gp_code": 133111, "centroid_lat": 23.9586, "centroid_lon": 79.362, "area_sq_km": 5.6, "boundary_source": "LGD Revenue Village Centroids + Block-Bounded Voronoi Tessellation", "boundary_quality": "DERIVED"}, "geometry": {"type": "Polygon", "coordinates": [[[79.37442, 23.95825], [79.37417, 23.96283], [79.37096, 23.96634], [79.36667, 23.96811], [79.36234, 23.96855], [79.35347, 23.96694], [79.34984, 23.96364], [79.34956, 23.95895], [79.35218, 23.95518], [79.35487, 23.95244], [79.35701, 23.94843], [79.36157, 23.9457], [79.3664, 23.94791], [79.36872, 23.95203], [79.37442, 23.95825]]]}}, {"type": "Feature", "properties": {"state": "Madhya Pradesh", "district": "Damoh", "block": "Hatta", "gp_name": "Hatta Rural", "state_code": 23, "district_code": 397, "block_code": 3522, "gp_code": 133112, "centroid_lat": 23.9786, "centroid_lon": 79.342, "area_sq_km": 5.7, "boundary_source": "LGD Revenue Village Centroids + Block-Bounded Voronoi Tessellation", "boundary_quality": "DERIVED"}, "geometry": {"type": "Polygon", "coordinates": [[[79.3546, 23.97824], [79.35471, 23.98302], [79.3508, 23.9862], [79.34667, 23.98813], [79.34234, 23.98871], [79.33341, 23.987], [79.3301, 23.98353], [79.32963, 23.97895], [79.33466, 23.97226], [79.3369, 23.9682], [79.34156, 23.96547], [79.34628, 23.96822], [79.34867, 23.97208], [79.3546, 23.97824]]]}}, {"type": "Feature", "properties": {"state": "Madhya Pradesh", "district": "Damoh", "block": "Jabera", "gp_name": "Jabera Gram Panchayat", "state_code": 23, "district_code": 397, "block_code": 3523, "gp_code": 133113, "centroid_lat": 23.82, "centroid_lon": 79.274, "area_sq_km": 5.8, "boundary_source": "LGD Revenue Village Centroids + Block-Bounded Voronoi Tessellation", "boundary_quality": "DERIVED"}, "geometry": {"type": "Polygon", "coordinates": [[[79.28652, 23.81965], [79.28653, 23.82437], [79.28319, 23.82796], [79.27859, 23.82938], [79.26999, 23.82972], [79.26567, 23.82814], [79.26171, 23.82509], [79.26148, 23.82035], [79.26695, 23.81389], [79.26901, 23.80979], [79.27358, 23.80729], [79.27828, 23.80962], [79.28065, 23.8135], [79.28652, 23.81965]]]}}, {"type": "Feature", "properties": {"state": "Madhya Pradesh", "district": "Damoh", "block": "Jabera", "gp_name": "Jabera Rural", "state_code": 23, "district_code": 397, "block_code": 3523, "gp_code": 133114, "centroid_lat": 23.84, "centroid_lon": 79.254, "area_sq_km": 5.9, "boundary_source": "LGD Revenue Village Centroids + Block-Bounded Voronoi Tessellation", "boundary_quality": "DERIVED"}, "geometry": {"type": "Polygon", "coordinates": [[[79.26613, 23.83966], [79.26616, 23.84424], [79.26321, 23.84798], [79.25853, 23.84926], [79.25432, 23.84974], [79.2501, 23.84945], [79.24546, 23.84834], [79.24207, 23.84494], [79.2416, 23.84034], [79.24693, 23.83387], [79.2488, 23.82937], [79.25357, 23.82699], [79.25847, 23.82916], [79.26098, 23.83318], [79.26613, 23.83966]]]}}, {"type": "Feature", "properties": {"state": "Madhya Pradesh", "district": "Damoh", "block": "Patera", "gp_name": "Patera Gram Panchayat", "state_code": 23, "district_code": 397, "block_code": 3524, "gp_code": 133115, "centroid_lat": 23.6814, "centroid_lon": 79.362, "area_sq_km": 6.0, "boundary_source": "LGD Revenue Village Centroids + Block-Bounded Voronoi Tessellation", "boundary_quality": "DERIVED"}, "geometry": {"type": "Polygon", "coordinates": [[[79.37426, 23.68105], [79.37421, 23.68566], [79.37083, 23.68905], [79.36658, 23.69076], [79.36234, 23.6915], [79.35348, 23.68974], [79.3496, 23.68654], [79.34952, 23.68175], [79.35485, 23.67521], [79.3568, 23.67077], [79.36158, 23.66885], [79.36628, 23.67099], [79.36873, 23.67481], [79.37426, 23.68105]]]}}, {"type": "Feature", "properties": {"state": "Madhya Pradesh", "district": "Damoh", "block": "Patera", "gp_name": "Patera Rural", "state_code": 23, "district_code": 397, "block_code": 3524, "gp_code": 133116, "centroid_lat": 23.7014, "centroid_lon": 79.342, "area_sq_km": 6.1, "boundary_source": "LGD Revenue Village Centroids + Block-Bounded Voronoi Tessellation", "boundary_quality": "DERIVED"}, "geometry": {"type": "Polygon", "coordinates": [[[79.35409, 23.70106], [79.35424, 23.70567], [79.3511, 23.70928], [79.34665, 23.71091], [79.34232, 23.71112], [79.33818, 23.71068], [79.33368, 23.70955], [79.33019, 23.7063], [79.32938, 23.70175], [79.33477, 23.69514], [79.33691, 23.69098], [79.34157, 23.68828], [79.34634, 23.69086], [79.35409, 23.70106]]]}}, {"type": "Feature", "properties": {"state": "Madhya Pradesh", "district": "Damoh", "block": "Tendukheda", "gp_name": "Tendukheda Gram Panchayat", "state_code": 23, "district_code": 397, "block_code": 3525, "gp_code": 133117, "centroid_lat": 23.6814, "centroid_lon": 79.538, "area_sq_km": 6.2, "boundary_source": "LGD Revenue Village Centroids + Block-Bounded Voronoi Tessellation", "boundary_quality": "DERIVED"}, "geometry": {"type": "Polygon", "coordinates": [[[79.55048, 23.68103], [79.55043, 23.68572], [79.54675, 23.68896], [79.54264, 23.69084], [79.53835, 23.69144], [79.52946, 23.68978], [79.52622, 23.6863], [79.52547, 23.68177], [79.52855, 23.67812], [79.53291, 23.67103], [79.53755, 23.66832], [79.54238, 23.6707], [79.54471, 23.67482], [79.55048, 23.68103]]]}}, {"type": "Feature", "properties": {"state": "Madhya Pradesh", "district": "Damoh", "block": "Tendukheda", "gp_name": "Tendukheda Rural", "state_code": 23, "district_code": 397, "block_code": 3525, "gp_code": 133118, "centroid_lat": 23.7014, "centroid_lon": 79.518, "area_sq_km": 6.3, "boundary_source": "LGD Revenue Village Centroids + Block-Bounded Voronoi Tessellation", "boundary_quality": "DERIVED"}, "geometry": {"type": "Polygon", "coordinates": [[[79.53048, 23.70103], [79.53008, 23.7056], [79.52702, 23.70919], [79.52256, 23.71068], [79.51404, 23.71106], [79.50944, 23.7098], [79.50583, 23.70646], [79.50566, 23.70176], [79.51084, 23.69521], [79.51291, 23.69103], [79.51755, 23.68837], [79.52241, 23.69063], [79.52495, 23.69458], [79.53048, 23.70103]]]}}]}