{"type": "FeatureCollection", "features": [{"type": "Feature", "properties": {"state": "Madhya Pradesh", "district": "Datia", "block": "Datia", "gp_name": "Datia Gram Panchayat", "state_code": 23, "district_code": 398, "block_code": 3540, "gp_code": 133119, "centroid_lat": 25.65, "centroid_lon": 78.602, "area_sq_km": 6.4, "boundary_source": "LGD Revenue Village Centroids + Block-Bounded Voronoi Tessellation", "boundary_quality": "DERIVED"}, "geometry": {"type": "Polygon", "coordinates": [[[78.61476, 25.64968], [78.61442, 25.65431], [78.61091, 25.65764], [78.60659, 25.65932], [78.59789, 25.65974], [78.59339, 25.65824], [78.58986, 25.65491], [78.58975, 25.6503], [78.59208, 25.64656], [78.5946, 25.64365], [78.59674, 25.63932], [78.60161, 25.63711], [78.60656, 25.6392], [78.60881, 25.64348], [78.61476, 25.64968]]]}}, {"type": "Feature", "properties": {"state": "Madhya Pradesh", "district": "Datia", "block": "Datia", "gp_name": "Datia Rural", "state_code": 23, "district_code": 398, "block_code": 3540, "gp_code": 133120, "centroid_lat": 25.67, "centroid_lon": 78.582, "area_sq_km": 6.5, "boundary_source": "LGD Revenue Village Centroids + Block-Bounded Voronoi Tessellation", "boundary_quality": "DERIVED"}, "geometry": {"type": "Polygon", "coordinates": [[[78.59466, 25.66969], [78.59471, 25.67441], [78.59092, 25.67765], [78.58665, 25.67945], [78.57787, 25.67977], [78.57332, 25.6783], [78.56948, 25.67507], [78.56945, 25.67031], [78.57694, 25.65972], [78.58162, 25.65745], [78.58645, 25.65946], [78.59466, 25.66969]]]}}, {"type": "Feature", "properties": {"state": "Madhya Pradesh", "district": "Datia", "block": "Bhander", "gp_name": "Bhander Gram Panchayat", "state_code": 23, "district_code": 398, "block_code": 3541, "gp_code": 133121, "centroid_lat": 25.7539, "centroid_lon": 78.404, "area_sq_km": 6.6, "boundary_source": "LGD Revenue Village Centroids + Block-Bounded Voronoi Tessellation", "boundary_quality": "DERIVED"}, "geometry": {"type": "Polygon", "coordinates": [[[78.41656, 25.75361], [78.41687, 25.75838], [78.41331, 25.76191], [78.40858, 25.76322], [78.40428, 25.76366], [78.39995, 25.76345], [78.3955, 25.762], [78.39198, 25.75874], [78.39165, 25.75419], [78.39401, 25.75042], [78.39888, 25.74347], [78.40364, 25.74135], [78.40864, 25.74297], [78.41109, 25.74714], [78.41656, 25.75361]]]}}, {"type": "Feature", "properties": {"state": "Madhya Pradesh", "district": "Datia", "block": "Bhander", "gp_name": "Bhander Rural", "state_code": 23, "district_code": 398, "block_code": 3541, "gp_code": 133122, "centroid_lat": 25.7739, "centroid_lon": 78.384, "area_sq_km": 6.7, "boundary_source": "LGD Revenue Village Centroids + Block-Bounded Voronoi Tessellation", "boundary_quality": "DERIVED"}, "geometry": {"type": "Polygon", "coordinates": [[[78.3962, 25.77362], [78.39666, 25.77831], [78.39322, 25.78183], [78.38862, 25.7833], [78.38428, 25.78389], [78.3799, 25.78356], [78.37548, 25.78202], [78.3715, 25.77893], [78.37154, 25.77419], [78.37679, 25.7677], [78.37892, 25.76355], [78.38363, 25.76096], [78.38861, 25.76305], [78.39109, 25.76714], [78.3962, 25.77362]]]}}, {"type": "Feature", "properties": {"state": "Madhya Pradesh", "district": "Datia", "block": "Seondha", "gp_name": "Seondha Gram Panchayat", "state_code": 23, "district_code": 398, "block_code": 3542, "gp_code": 133123, "centroid_lat": 25.5461, "centroid_lon": 78.404, "area_sq_km": 6.8, "boundary_source": "LGD Revenue Village Centroids + Block-Bounded Voronoi Tessellation", "boundary_quality": "DERIVED"}, "geometry": {"type": "Polygon", "coordinates": [[[78.41665, 25.5458], [78.41637, 25.55042], [78.41305, 25.5539], [78.40853, 25.55534], [78.40427, 25.55574], [78.40004, 25.55544], [78.39558, 25.55414], [78.39179, 25.55102], [78.39156, 25.54639], [78.39686, 25.53995], [78.39897, 25.53584], [78.40363, 25.53305], [78.40862, 25.53521], [78.41109, 25.53933], [78.41665, 25.5458]]]}}, {"type": "Feature", "properties": {"state": "Madhya Pradesh", "district": "Datia", "block": "Seondha", "gp_name": "Seondha Rural", "state_code": 23, "district_code": 398, "block_code": 3542, "gp_code": 133124, "centroid_lat": 25.5661, "centroid_lon": 78.384, "area_sq_km": 6.9, "boundary_source": "LGD Revenue Village Centroids + Block-Bounded Voronoi Tessellation", "boundary_quality": "DERIVED"}, "geometry": {"type": "Polygon", "coordinates": [[[78.39619, 25.56582], [78.39651, 25.57046], [78.39303, 25.57388], [78.38428, 25.57613], [78.37983, 25.57593], [78.37558, 25.57414], [78.372, 25.57094], [78.37165, 25.56639], [78.37679, 25.55989], [78.37888, 25.55564], [78.38363, 25.55295], [78.38853, 25.55542], [78.39104, 25.55938], [78.39619, 25.56582]]]}}]}