{"type": "FeatureCollection", "features": [{"type": "Feature", "properties": {"state": "Madhya Pradesh", "district": "Jabalpur", "block": "Jabalpur", "gp_name": "Jabalpur Gram Panchayat", "state_code": 23, "district_code": 408, "block_code": 3720, "gp_code": 133207, "centroid_lat": 23.17, "centroid_lon": 80.166, "area_sq_km": 5.2, "boundary_source": "LGD Revenue Village Centroids + Block-Bounded Voronoi Tessellation", "boundary_quality": "DERIVED"}, "geometry": {"type": "Polygon", "coordinates": [[[80.17855, 23.16959], [80.17809, 23.17417], [80.1752, 23.17792], [80.17047, 23.17906], [80.16638, 23.17981], [80.16205, 23.17979], [80.15745, 23.17848], [80.15421, 23.17498], [80.15384, 23.1704], [80.15621, 23.16662], [80.16103, 23.15992], [80.16551, 23.1573], [80.17034, 23.15926], [80.17275, 23.1633], [80.17855, 23.16959]]]}}, {"type": "Feature", "properties": {"state": "Madhya Pradesh", "district": "Jabalpur", "block": "Jabalpur", "gp_name": "Jabalpur Rural", "state_code": 23, "district_code": 408, "block_code": 3720, "gp_code": 133208, "centroid_lat": 23.19, "centroid_lon": 80.146, "area_sq_km": 5.3, "boundary_source": "LGD Revenue Village Centroids + Block-Bounded Voronoi Tessellation", "boundary_quality": "DERIVED"}, "geometry": {"type": "Polygon", "coordinates": [[[80.15841, 23.18959], [80.15858, 23.19434], [80.15493, 23.19769], [80.15063, 23.19938], [80.14639, 23.20009], [80.14218, 23.19945], [80.13787, 23.19807], [80.13384, 23.19513], [80.13379, 23.1904], [80.13668, 23.18678], [80.14081, 23.17949], [80.14551, 23.17718], [80.15032, 23.1793], [80.15284, 23.18321], [80.15841, 23.18959]]]}}, {"type": "Feature", "properties": {"state": "Madhya Pradesh", "district": "Jabalpur", "block": "Kundam", "gp_name": "Kundam Gram Panchayat", "state_code": 23, "district_code": 408, "block_code": 3721, "gp_code": 133209, "centroid_lat": 23.2951, "centroid_lon": 80.0997, "area_sq_km": 5.4, "boundary_source": "LGD Revenue Village Centroids + Block-Bounded Voronoi Tessellation", "boundary_quality": "DERIVED"}, "geometry": {"type": "Polygon", "coordinates": [[[80.11211, 23.2947], [80.11237, 23.29947], [80.10853, 23.3027], [80.10431, 23.30443], [80.10008, 23.30495], [80.0913, 23.30342], [80.0879, 23.30007], [80.08754, 23.2955], [80.09456, 23.28469], [80.0992, 23.28205], [80.10408, 23.28425], [80.1064, 23.28846], [80.11211, 23.2947]]]}}, {"type": "Feature", "properties": {"state": "Madhya Pradesh", "district": "Jabalpur", "block": "Kundam", "gp_name": "Kundam Rural", "state_code": 23, "district_code": 408, "block_code": 3721, "gp_code": 133210, "centroid_lat": 23.3151, "centroid_lon": 80.0797, "area_sq_km": 5.5, "boundary_source": "LGD Revenue Village Centroids + Block-Bounded Voronoi Tessellation", "boundary_quality": "DERIVED"}, "geometry": {"type": "Polygon", "coordinates": [[[80.09212, 23.3147], [80.09182, 23.31928], [80.08859, 23.32275], [80.08439, 23.32459], [80.08008, 23.32507], [80.07577, 23.3248], [80.07147, 23.32325], [80.06785, 23.32009], [80.06726, 23.3155], [80.07259, 23.30898], [80.0747, 23.30498], [80.07922, 23.30242], [80.08407, 23.30429], [80.08867, 23.31132], [80.09212, 23.3147]]]}}, {"type": "Feature", "properties": {"state": "Madhya Pradesh", "district": "Jabalpur", "block": "Majholi", "gp_name": "Majholi Gram Panchayat", "state_code": 23, "district_code": 408, "block_code": 3722, "gp_code": 133211, "centroid_lat": 23.326, "centroid_lon": 79.9508, "area_sq_km": 5.6, "boundary_source": "LGD Revenue Village Centroids + Block-Bounded Voronoi Tessellation", "boundary_quality": "DERIVED"}, "geometry": {"type": "Polygon", "coordinates": [[[79.96297, 23.32561], [79.96285, 23.33017], [79.95987, 23.33382], [79.95532, 23.33518], [79.95116, 23.33572], [79.94696, 23.33546], [79.94254, 23.33417], [79.93862, 23.33112], [79.93875, 23.32638], [79.94098, 23.3226], [79.94578, 23.31581], [79.95033, 23.31323], [79.95504, 23.31555], [79.95746, 23.31941], [79.96297, 23.32561]]]}}, {"type": "Feature", "properties": {"state": "Madhya Pradesh", "district": "Jabalpur", "block": "Majholi", "gp_name": "Majholi Rural", "state_code": 23, "district_code": 408, "block_code": 3722, "gp_code": 133212, "centroid_lat": 23.346, "centroid_lon": 79.9308, "area_sq_km": 5.7, "boundary_source": "LGD Revenue Village Centroids + Block-Bounded Voronoi Tessellation", "boundary_quality": "DERIVED"}, "geometry": {"type": "Polygon", "coordinates": [[[79.943, 23.34561], [79.94304, 23.35023], [79.93999, 23.35393], [79.9354, 23.35534], [79.93117, 23.35602], [79.92688, 23.35565], [79.92263, 23.35407], [79.91904, 23.35094], [79.91837, 23.34639], [79.92138, 23.34274], [79.9257, 23.33565], [79.93032, 23.33299], [79.93522, 23.3351], [79.93778, 23.3391], [79.943, 23.34561]]]}}, {"type": "Feature", "properties": {"state": "Madhya Pradesh", "district": "Jabalpur", "block": "Panagar", "gp_name": "Panagar Gram Panchayat", "state_code": 23, "district_code": 408, "block_code": 3723, "gp_code": 133213, "centroid_lat": 23.2394, "centroid_lon": 79.8314, "area_sq_km": 5.8, "boundary_source": "LGD Revenue Village Centroids + Block-Bounded Voronoi Tessellation", "boundary_quality": "DERIVED"}, "geometry": {"type": "Polygon", "coordinates": [[[79.84389, 23.23901], [79.84372, 23.24368], [79.84014, 23.24695], [79.8361, 23.24897], [79.83176, 23.24945], [79.82746, 23.2491], [79.82324, 23.24746], [79.8192, 23.24452], [79.81915, 23.23978], [79.82414, 23.23312], [79.82643, 23.22928], [79.83094, 23.22675], [79.83562, 23.22902], [79.83818, 23.23271], [79.84389, 23.23901]]]}}, {"type": "Feature", "properties": {"state": "Madhya Pradesh", "district": "Jabalpur", "block": "Panagar", "gp_name": "Panagar Rural", "state_code": 23, "district_code": 408, "block_code": 3723, "gp_code": 133214, "centroid_lat": 23.2594, "centroid_lon": 79.8114, "area_sq_km": 5.9, "boundary_source": "LGD Revenue Village Centroids + Block-Bounded Voronoi Tessellation", "boundary_quality": "DERIVED"}, "geometry": {"type": "Polygon", "coordinates": [[[79.82393, 23.25901], [79.82394, 23.26375], [79.82061, 23.26736], [79.81589, 23.26854], [79.81176, 23.26933], [79.80753, 23.26891], [79.80322, 23.26748], [79.7996, 23.26435], [79.79943, 23.25977], [79.80418, 23.25316], [79.80623, 23.24886], [79.81094, 23.24668], [79.81563, 23.24899], [79.82393, 23.25901]]]}}, {"type": "Feature", "properties": {"state": "Madhya Pradesh", "district": "Jabalpur", "block": "Patan", "gp_name": "Patan Gram Panchayat", "state_code": 23, "district_code": 408, "block_code": 3724, "gp_code": 133215, "centroid_lat": 23.1006, "centroid_lon": 79.8314, "area_sq_km": 6.0, "boundary_source": "LGD Revenue Village Centroids + Block-Bounded Voronoi Tessellation", "boundary_quality": "DERIVED"}, "geometry": {"type": "Polygon", "coordinates": [[[79.84379, 23.10022], [79.84349, 23.1048], [79.84051, 23.10849], [79.83597, 23.10992], [79.83175, 23.11033], [79.82753, 23.11012], [79.82317, 23.10873], [79.81937, 23.10565], [79.81928, 23.10097], [79.8222, 23.0974], [79.8262, 23.08999], [79.83094, 23.08776], [79.8358, 23.08978], [79.83833, 23.09375], [79.84379, 23.10022]]]}}, {"type": "Feature", "properties": {"state": "Madhya Pradesh", "district": "Jabalpur", "block": "Patan", "gp_name": "Patan Rural", "state_code": 23, "district_code": 408, "block_code": 3724, "gp_code": 133216, "centroid_lat": 23.1206, "centroid_lon": 79.8114, "area_sq_km": 6.1, "boundary_source": "LGD Revenue Village Centroids + Block-Bounded Voronoi Tessellation", "boundary_quality": "DERIVED"}, "geometry": {"type": "Polygon", "coordinates": [[[79.82344, 23.12023], [79.82348, 23.1248], [79.82053, 23.1285], [79.81175, 23.13034], [79.80755, 23.13007], [79.80313, 23.12877], [79.79962, 23.12554], [79.79896, 23.12098], [79.80422, 23.11438], [79.80631, 23.11022], [79.81095, 23.10794], [79.81562, 23.11022], [79.82344, 23.12023]]]}}, {"type": "Feature", "properties": {"state": "Madhya Pradesh", "district": "Jabalpur", "block": "Shahpura", "gp_name": "Shahpura Gram Panchayat", "state_code": 23, "district_code": 408, "block_code": 3725, "gp_code": 133217, "centroid_lat": 23.014, "centroid_lon": 79.9508, "area_sq_km": 6.2, "boundary_source": "LGD Revenue Village Centroids + Block-Bounded Voronoi Tessellation", "boundary_quality": "DERIVED"}, "geometry": {"type": "Polygon", "coordinates": [[[79.963, 23.01362], [79.96324, 23.01832], [79.95976, 23.02175], [79.95528, 23.02312], [79.9468, 23.02386], [79.94245, 23.02227], [79.93909, 23.01892], [79.93833, 23.01439], [79.94373, 23.00789], [79.94559, 23.00339], [79.95032, 23.00097], [79.95513, 23.00332], [79.95976, 23.01023], [79.963, 23.01362]]]}}, {"type": "Feature", "properties": {"state": "Madhya Pradesh", "district": "Jabalpur", "block": "Shahpura", "gp_name": "Shahpura Rural", "state_code": 23, "district_code": 408, "block_code": 3725, "gp_code": 133218, "centroid_lat": 23.034, "centroid_lon": 79.9308, "area_sq_km": 6.3, "boundary_source": "LGD Revenue Village Centroids + Block-Bounded Voronoi Tessellation", "boundary_quality": "DERIVED"}, "geometry": {"type": "Polygon", "coordinates": [[[79.94319, 23.03361], [79.94289, 23.0382], [79.93992, 23.04189], [79.93544, 23.04344], [79.93116, 23.04384], [79.92694, 23.04351], [79.92245, 23.04226], [79.9185, 23.03917], [79.9187, 23.03438], [79.92148, 23.03076], [79.92567, 23.02355], [79.93033, 23.02099], [79.93504, 23.02354], [79.94319, 23.03361]]]}}, {"type": "Feature", "properties": {"state": "Madhya Pradesh", "district": "Jabalpur", "block": "Sihora", "gp_name": "Sihora Gram Panchayat", "state_code": 23, "district_code": 408, "block_code": 3726, "gp_code": 133219, "centroid_lat": 23.0449, "centroid_lon": 80.0997, "area_sq_km": 6.4, "boundary_source": "LGD Revenue Village Centroids + Block-Bounded Voronoi Tessellation", "boundary_quality": "DERIVED"}, "geometry": {"type": "Polygon", "coordinates": [[[80.11174, 23.04451], [80.11199, 23.04915], [80.10864, 23.05262], [80.10421, 23.05406], [80.10007, 23.05467], [80.09579, 23.05457], [80.09112, 23.05342], [80.0877, 23.04996], [80.08758, 23.04529], [80.09042, 23.04169], [80.0945, 23.03434], [80.09921, 23.03191], [80.10402, 23.03419], [80.10638, 23.03827], [80.11174, 23.04451]]]}}, {"type": "Feature", "properties": {"state": "Madhya Pradesh", "district": "Jabalpur", "block": "Sihora", "gp_name": "Sihora Rural", "state_code": 23, "district_code": 408, "block_code": 3726, "gp_code": 133220, "centroid_lat": 23.0649, "centroid_lon": 80.0797, "area_sq_km": 6.5, "boundary_source": "LGD Revenue Village Centroids + Block-Bounded Voronoi Tessellation", "boundary_quality": "DERIVED"}, "geometry": {"type": "Polygon", "coordinates": [[[80.09167, 23.06451], [80.09193, 23.06913], [80.08869, 23.07266], [80.08415, 23.07393], [80.07582, 23.07449], [80.07133, 23.07321], [80.0675, 23.07004], [80.06743, 23.0653], [80.07232, 23.05853], [80.0745, 23.05433], [80.07922, 23.05218], [80.08391, 23.05447], [80.09167, 23.06451]]]}}]}