{"type": "FeatureCollection", "features": [{"type": "Feature", "properties": {"state": "Madhya Pradesh", "district": "Jhabua", "block": "Jhabua", "gp_name": "Jhabua Gram Panchayat", "state_code": 23, "district_code": 409, "block_code": 3740, "gp_code": 133221, "centroid_lat": 22.75, "centroid_lon": 74.776, "area_sq_km": 6.6, "boundary_source": "LGD Revenue Village Centroids + Block-Bounded Voronoi Tessellation", "boundary_quality": "DERIVED"}, "geometry": {"type": "Polygon", "coordinates": [[[74.78824, 22.75002], [74.78813, 22.75468], [74.78449, 22.7579], [74.78031, 22.75968], [74.77164, 22.75972], [74.76741, 22.75795], [74.76375, 22.75469], [74.76371, 22.74998], [74.76894, 22.74344], [74.77138, 22.73961], [74.77602, 22.73704], [74.78062, 22.7397], [74.78299, 22.74354], [74.78824, 22.75002]]]}}, {"type": "Feature", "properties": {"state": "Madhya Pradesh", "district": "Jhabua", "block": "Jhabua", "gp_name": "Jhabua Rural", "state_code": 23, "district_code": 409, "block_code": 3740, "gp_code": 133222, "centroid_lat": 22.77, "centroid_lon": 74.756, "area_sq_km": 6.7, "boundary_source": "LGD Revenue Village Centroids + Block-Bounded Voronoi Tessellation", "boundary_quality": "DERIVED"}, "geometry": {"type": "Polygon", "coordinates": [[[74.76857, 22.77002], [74.76798, 22.77462], [74.76483, 22.77821], [74.75598, 22.78012], [74.74728, 22.77806], [74.74355, 22.77476], [74.74342, 22.76998], [74.75138, 22.75961], [74.75602, 22.75742], [74.7608, 22.7593], [74.76282, 22.76369], [74.76857, 22.77002]]]}}, {"type": "Feature", "properties": {"state": "Madhya Pradesh", "district": "Jhabua", "block": "Meghnagar", "gp_name": "Meghnagar Gram Panchayat", "state_code": 23, "district_code": 409, "block_code": 3741, "gp_code": 133223, "centroid_lat": 22.8886, "centroid_lon": 74.688, "area_sq_km": 6.8, "boundary_source": "LGD Revenue Village Centroids + Block-Bounded Voronoi Tessellation", "boundary_quality": "DERIVED"}, "geometry": {"type": "Polygon", "coordinates": [[[74.70048, 22.88862], [74.70029, 22.89334], [74.69677, 22.89676], [74.69216, 22.89796], [74.68798, 22.89874], [74.67924, 22.89668], [74.67561, 22.89333], [74.67588, 22.88858], [74.68103, 22.88211], [74.68333, 22.87808], [74.68803, 22.87585], [74.69264, 22.87829], [74.69509, 22.88206], [74.70048, 22.88862]]]}}, {"type": "Feature", "properties": {"state": "Madhya Pradesh", "district": "Jhabua", "block": "Meghnagar", "gp_name": "Meghnagar Rural", "state_code": 23, "district_code": 409, "block_code": 3741, "gp_code": 133224, "centroid_lat": 22.9086, "centroid_lon": 74.668, "area_sq_km": 6.9, "boundary_source": "LGD Revenue Village Centroids + Block-Bounded Voronoi Tessellation", "boundary_quality": "DERIVED"}, "geometry": {"type": "Polygon", "coordinates": [[[74.68021, 22.90863], [74.6804, 22.91339], [74.67656, 22.91657], [74.67222, 22.91809], [74.66379, 22.91796], [74.65909, 22.91682], [74.65569, 22.91329], [74.65573, 22.90857], [74.66098, 22.90207], [74.66338, 22.89821], [74.66803, 22.89596], [74.67279, 22.89796], [74.67497, 22.90217], [74.67772, 22.90489], [74.68021, 22.90863]]]}}, {"type": "Feature", "properties": {"state": "Madhya Pradesh", "district": "Jhabua", "block": "Petlawad", "gp_name": "Petlawad Gram Panchayat", "state_code": 23, "district_code": 409, "block_code": 3742, "gp_code": 133225, "centroid_lat": 22.8886, "centroid_lon": 74.512, "area_sq_km": 7.0, "boundary_source": "LGD Revenue Village Centroids + Block-Bounded Voronoi Tessellation", "boundary_quality": "DERIVED"}, "geometry": {"type": "Polygon", "coordinates": [[[74.5241, 22.88864], [74.52389, 22.89321], [74.52041, 22.89644], [74.51623, 22.89814], [74.51196, 22.89867], [74.50766, 22.89821], [74.50326, 22.89665], [74.49991, 22.89319], [74.49963, 22.88856], [74.50275, 22.88502], [74.5073, 22.878], [74.51205, 22.87574], [74.51684, 22.87788], [74.51904, 22.88212], [74.5241, 22.88864]]]}}, {"type": "Feature", "properties": {"state": "Madhya Pradesh", "district": "Jhabua", "block": "Petlawad", "gp_name": "Petlawad Rural", "state_code": 23, "district_code": 409, "block_code": 3742, "gp_code": 133226, "centroid_lat": 22.9086, "centroid_lon": 74.492, "area_sq_km": 7.1, "boundary_source": "LGD Revenue Village Centroids + Block-Bounded Voronoi Tessellation", "boundary_quality": "DERIVED"}, "geometry": {"type": "Polygon", "coordinates": [[[74.50434, 22.90864], [74.50451, 22.91345], [74.50055, 22.91657], [74.49612, 22.9179], [74.48771, 22.91811], [74.48312, 22.91677], [74.48003, 22.91315], [74.47966, 22.90856], [74.48737, 22.89814], [74.49205, 22.89548], [74.49684, 22.89788], [74.49898, 22.90218], [74.50434, 22.90864]]]}}, {"type": "Feature", "properties": {"state": "Madhya Pradesh", "district": "Jhabua", "block": "Ranapur", "gp_name": "Ranapur Gram Panchayat", "state_code": 23, "district_code": 409, "block_code": 3743, "gp_code": 133227, "centroid_lat": 22.75, "centroid_lon": 74.424, "area_sq_km": 7.2, "boundary_source": "LGD Revenue Village Centroids + Block-Bounded Voronoi Tessellation", "boundary_quality": "DERIVED"}, "geometry": {"type": "Polygon", "coordinates": [[[74.43615, 22.75004], [74.43589, 22.75462], [74.43278, 22.75821], [74.42808, 22.75924], [74.41965, 22.75963], [74.41546, 22.75786], [74.41197, 22.75457], [74.41186, 22.74996], [74.41443, 22.74628], [74.41711, 22.74356], [74.41939, 22.73957], [74.42405, 22.7374], [74.42878, 22.7394], [74.43615, 22.75004]]]}}, {"type": "Feature", "properties": {"state": "Madhya Pradesh", "district": "Jhabua", "block": "Ranapur", "gp_name": "Ranapur Rural", "state_code": 23, "district_code": 409, "block_code": 3743, "gp_code": 133228, "centroid_lat": 22.77, "centroid_lon": 74.404, "area_sq_km": 7.3, "boundary_source": "LGD Revenue Village Centroids + Block-Bounded Voronoi Tessellation", "boundary_quality": "DERIVED"}, "geometry": {"type": "Polygon", "coordinates": [[[74.41632, 22.77005], [74.41617, 22.77473], [74.41246, 22.77791], [74.40828, 22.7797], [74.40396, 22.78017], [74.39972, 22.77948], [74.39538, 22.77793], [74.39184, 22.77462], [74.39151, 22.76995], [74.39475, 22.76641], [74.39946, 22.75971], [74.40406, 22.75681], [74.40872, 22.75955], [74.41632, 22.77005]]]}}, {"type": "Feature", "properties": {"state": "Madhya Pradesh", "district": "Jhabua", "block": "Rama", "gp_name": "Rama Gram Panchayat", "state_code": 23, "district_code": 409, "block_code": 3744, "gp_code": 133229, "centroid_lat": 22.6114, "centroid_lon": 74.512, "area_sq_km": 7.4, "boundary_source": "LGD Revenue Village Centroids + Block-Bounded Voronoi Tessellation", "boundary_quality": "DERIVED"}, "geometry": {"type": "Polygon", "coordinates": [[[74.52401, 22.61144], [74.52399, 22.61605], [74.52044, 22.61929], [74.51626, 22.62105], [74.51197, 22.62131], [74.50783, 22.62067], [74.50341, 22.61933], [74.49965, 22.61611], [74.49976, 22.61136], [74.50521, 22.60505], [74.50743, 22.60106], [74.51205, 22.59832], [74.51668, 22.60101], [74.51892, 22.60501], [74.52401, 22.61144]]]}}, {"type": "Feature", "properties": {"state": "Madhya Pradesh", "district": "Jhabua", "block": "Rama", "gp_name": "Rama Rural", "state_code": 23, "district_code": 409, "block_code": 3744, "gp_code": 133230, "centroid_lat": 22.6314, "centroid_lon": 74.492, "area_sq_km": 7.5, "boundary_source": "LGD Revenue Village Centroids + Block-Bounded Voronoi Tessellation", "boundary_quality": "DERIVED"}, "geometry": {"type": "Polygon", "coordinates": [[[74.50401, 22.63144], [74.5041, 22.6361], [74.50046, 22.63931], [74.49611, 22.64071], [74.49196, 22.64136], [74.48778, 22.64076], [74.48326, 22.63945], [74.47959, 22.63613], [74.47999, 22.63136], [74.48237, 22.62766], [74.48504, 22.62489], [74.4872, 22.62054], [74.49205, 22.61856], [74.49672, 22.62091], [74.49882, 22.62511], [74.50401, 22.63144]]]}}, {"type": "Feature", "properties": {"state": "Madhya Pradesh", "district": "Jhabua", "block": "Thandla", "gp_name": "Thandla Gram Panchayat", "state_code": 23, "district_code": 409, "block_code": 3745, "gp_code": 133231, "centroid_lat": 22.6114, "centroid_lon": 74.688, "area_sq_km": 7.6, "boundary_source": "LGD Revenue Village Centroids + Block-Bounded Voronoi Tessellation", "boundary_quality": "DERIVED"}, "geometry": {"type": "Polygon", "coordinates": [[[74.70045, 22.61142], [74.70015, 22.6161], [74.6966, 22.61942], [74.69222, 22.62091], [74.68798, 22.62154], [74.68363, 22.62114], [74.67928, 22.61946], [74.67574, 22.61609], [74.67585, 22.61138], [74.67893, 22.60789], [74.68325, 22.60069], [74.68803, 22.59874], [74.69262, 22.6011], [74.69483, 22.60509], [74.70045, 22.61142]]]}}, {"type": "Feature", "properties": {"state": "Madhya Pradesh", "district": "Jhabua", "block": "Thandla", "gp_name": "Thandla Rural", "state_code": 23, "district_code": 409, "block_code": 3745, "gp_code": 133232, "centroid_lat": 22.6314, "centroid_lon": 74.668, "area_sq_km": 7.7, "boundary_source": "LGD Revenue Village Centroids + Block-Bounded Voronoi Tessellation", "boundary_quality": "DERIVED"}, "geometry": {"type": "Polygon", "coordinates": [[[74.68009, 22.63142], [74.68021, 22.63613], [74.67685, 22.63965], [74.67217, 22.64079], [74.66798, 22.64135], [74.65915, 22.63957], [74.65561, 22.63613], [74.65597, 22.63137], [74.66123, 22.62509], [74.66339, 22.62101], [74.66803, 22.61831], [74.67279, 22.62072], [74.68009, 22.63142]]]}}]}