{"type": "FeatureCollection", "features": [{"type": "Feature", "properties": {"state": "Madhya Pradesh", "district": "Khargone", "block": "Khargone", "gp_name": "Khargone Gram Panchayat", "state_code": 23, "district_code": 412, "block_code": 3800, "gp_code": 133259, "centroid_lat": 21.81, "centroid_lon": 75.796, "area_sq_km": 5.4, "boundary_source": "LGD Revenue Village Centroids + Block-Bounded Voronoi Tessellation", "boundary_quality": "DERIVED"}, "geometry": {"type": "Polygon", "coordinates": [[[75.8083, 21.80994], [75.80803, 21.81458], [75.80457, 21.81792], [75.80022, 21.81939], [75.79188, 21.81942], [75.78749, 21.81803], [75.7842, 21.81463], [75.78406, 21.81006], [75.789, 21.80353], [75.79128, 21.7995], [75.79593, 21.79717], [75.80067, 21.79932], [75.80309, 21.80331], [75.8083, 21.80994]]]}}, {"type": "Feature", "properties": {"state": "Madhya Pradesh", "district": "Khargone", "block": "Khargone", "gp_name": "Khargone Rural", "state_code": 23, "district_code": 412, "block_code": 3800, "gp_code": 133260, "centroid_lat": 21.83, "centroid_lon": 75.776, "area_sq_km": 5.5, "boundary_source": "LGD Revenue Village Centroids + Block-Bounded Voronoi Tessellation", "boundary_quality": "DERIVED"}, "geometry": {"type": "Polygon", "coordinates": [[[75.7883, 21.82994], [75.78831, 21.83469], [75.78482, 21.83815], [75.78018, 21.83929], [75.77175, 21.83971], [75.7673, 21.83821], [75.7638, 21.83478], [75.76383, 21.83006], [75.76885, 21.8234], [75.77123, 21.81939], [75.77593, 21.81682], [75.78075, 21.81914], [75.78526, 21.82637], [75.7883, 21.82994]]]}}, {"type": "Feature", "properties": {"state": "Madhya Pradesh", "district": "Khargone", "block": "Barwaha", "gp_name": "Barwaha Gram Panchayat", "state_code": 23, "district_code": 412, "block_code": 3801, "gp_code": 133261, "centroid_lat": 21.9351, "centroid_lon": 75.7297, "area_sq_km": 5.6, "boundary_source": "LGD Revenue Village Centroids + Block-Bounded Voronoi Tessellation", "boundary_quality": "DERIVED"}, "geometry": {"type": "Polygon", "coordinates": [[[75.7418, 21.93505], [75.74181, 21.93972], [75.7383, 21.94304], [75.73404, 21.94474], [75.7255, 21.94469], [75.72137, 21.94295], [75.71756, 21.93985], [75.71735, 21.93515], [75.72279, 21.92871], [75.72489, 21.92442], [75.72964, 21.92235], [75.73441, 21.92435], [75.73671, 21.9285], [75.7418, 21.93505]]]}}, {"type": "Feature", "properties": {"state": "Madhya Pradesh", "district": "Khargone", "block": "Barwaha", "gp_name": "Barwaha Rural", "state_code": 23, "district_code": 412, "block_code": 3801, "gp_code": 133262, "centroid_lat": 21.9551, "centroid_lon": 75.7097, "area_sq_km": 5.7, "boundary_source": "LGD Revenue Village Centroids + Block-Bounded Voronoi Tessellation", "boundary_quality": "DERIVED"}, "geometry": {"type": "Polygon", "coordinates": [[[75.72202, 21.95505], [75.72165, 21.95966], [75.7184, 21.96314], [75.71409, 21.96485], [75.70558, 21.96451], [75.70092, 21.96336], [75.69739, 21.95992], [75.69776, 21.95515], [75.70292, 21.94883], [75.70483, 21.94427], [75.70964, 21.94223], [75.71436, 21.94447], [75.71888, 21.95151], [75.72202, 21.95505]]]}}, {"type": "Feature", "properties": {"state": "Madhya Pradesh", "district": "Khargone", "block": "Bhagwanpura", "gp_name": "Bhagwanpura Gram Panchayat", "state_code": 23, "district_code": 412, "block_code": 3802, "gp_code": 133263, "centroid_lat": 21.966, "centroid_lon": 75.5808, "area_sq_km": 5.8, "boundary_source": "LGD Revenue Village Centroids + Block-Bounded Voronoi Tessellation", "boundary_quality": "DERIVED"}, "geometry": {"type": "Polygon", "coordinates": [[[75.59279, 21.96596], [75.59271, 21.97055], [75.58951, 21.97406], [75.585, 21.97537], [75.58084, 21.97619], [75.57208, 21.9742], [75.56868, 21.97073], [75.56868, 21.96604], [75.57618, 21.95572], [75.58075, 21.95291], [75.58539, 21.95555], [75.59279, 21.96596]]]}}, {"type": "Feature", "properties": {"state": "Madhya Pradesh", "district": "Khargone", "block": "Bhagwanpura", "gp_name": "Bhagwanpura Rural", "state_code": 23, "district_code": 412, "block_code": 3802, "gp_code": 133264, "centroid_lat": 21.986, "centroid_lon": 75.5608, "area_sq_km": 5.9, "boundary_source": "LGD Revenue Village Centroids + Block-Bounded Voronoi Tessellation", "boundary_quality": "DERIVED"}, "geometry": {"type": "Polygon", "coordinates": [[[75.57269, 21.98596], [75.57281, 21.99059], [75.5693, 21.99387], [75.56516, 21.99571], [75.56084, 21.99613], [75.55651, 21.99575], [75.5521, 21.99418], [75.5487, 21.99072], [75.54826, 21.98604], [75.55615, 21.97565], [75.56075, 21.9731], [75.56549, 21.97533], [75.56775, 21.97947], [75.57269, 21.98596]]]}}, {"type": "Feature", "properties": {"state": "Madhya Pradesh", "district": "Khargone", "block": "Gogawan", "gp_name": "Gogawan Gram Panchayat", "state_code": 23, "district_code": 412, "block_code": 3803, "gp_code": 133265, "centroid_lat": 21.8794, "centroid_lon": 75.4614, "area_sq_km": 6.0, "boundary_source": "LGD Revenue Village Centroids + Block-Bounded Voronoi Tessellation", "boundary_quality": "DERIVED"}, "geometry": {"type": "Polygon", "coordinates": [[[75.47367, 21.87937], [75.47355, 21.88406], [75.4699, 21.88728], [75.46574, 21.8891], [75.46143, 21.88952], [75.45725, 21.88883], [75.45299, 21.8873], [75.44961, 21.884], [75.4493, 21.87943], [75.45677, 21.86906], [75.46136, 21.86632], [75.46616, 21.86859], [75.46825, 21.87297], [75.47367, 21.87937]]]}}, {"type": "Feature", "properties": {"state": "Madhya Pradesh", "district": "Khargone", "block": "Gogawan", "gp_name": "Gogawan Rural", "state_code": 23, "district_code": 412, "block_code": 3803, "gp_code": 133266, "centroid_lat": 21.8994, "centroid_lon": 75.4414, "area_sq_km": 6.1, "boundary_source": "LGD Revenue Village Centroids + Block-Bounded Voronoi Tessellation", "boundary_quality": "DERIVED"}, "geometry": {"type": "Polygon", "coordinates": [[[75.45394, 21.89937], [75.45322, 21.90393], [75.45014, 21.90751], [75.44143, 21.90907], [75.43719, 21.90895], [75.43291, 21.90736], [75.42957, 21.90401], [75.42889, 21.89943], [75.43218, 21.89586], [75.43664, 21.88876], [75.44136, 21.88639], [75.44604, 21.88885], [75.45076, 21.89575], [75.45394, 21.89937]]]}}, {"type": "Feature", "properties": {"state": "Madhya Pradesh", "district": "Khargone", "block": "Kasrawad", "gp_name": "Kasrawad Gram Panchayat", "state_code": 23, "district_code": 412, "block_code": 3804, "gp_code": 133267, "centroid_lat": 21.7406, "centroid_lon": 75.4614, "area_sq_km": 6.2, "boundary_source": "LGD Revenue Village Centroids + Block-Bounded Voronoi Tessellation", "boundary_quality": "DERIVED"}, "geometry": {"type": "Polygon", "coordinates": [[[75.47382, 21.74056], [75.4735, 21.74524], [75.47005, 21.74863], [75.46572, 21.75026], [75.45715, 21.75027], [75.45306, 21.74844], [75.44899, 21.74544], [75.44944, 21.74063], [75.45455, 21.73423], [75.45669, 21.73007], [75.46136, 21.72792], [75.46595, 21.73025], [75.47382, 21.74056]]]}}, {"type": "Feature", "properties": {"state": "Madhya Pradesh", "district": "Khargone", "block": "Kasrawad", "gp_name": "Kasrawad Rural", "state_code": 23, "district_code": 412, "block_code": 3804, "gp_code": 133268, "centroid_lat": 21.7606, "centroid_lon": 75.4414, "area_sq_km": 6.3, "boundary_source": "LGD Revenue Village Centroids + Block-Bounded Voronoi Tessellation", "boundary_quality": "DERIVED"}, "geometry": {"type": "Polygon", "coordinates": [[[75.45392, 21.76057], [75.45339, 21.7652], [75.45007, 21.76865], [75.44574, 21.77031], [75.44143, 21.77072], [75.43274, 21.76873], [75.42934, 21.7653], [75.42951, 21.76063], [75.43185, 21.75693], [75.43664, 21.74994], [75.44136, 21.74762], [75.44606, 21.75], [75.45078, 21.75694], [75.45392, 21.76057]]]}}, {"type": "Feature", "properties": {"state": "Madhya Pradesh", "district": "Khargone", "block": "Maheshwar", "gp_name": "Maheshwar Gram Panchayat", "state_code": 23, "district_code": 412, "block_code": 3805, "gp_code": 133269, "centroid_lat": 21.654, "centroid_lon": 75.5808, "area_sq_km": 6.4, "boundary_source": "LGD Revenue Village Centroids + Block-Bounded Voronoi Tessellation", "boundary_quality": "DERIVED"}, "geometry": {"type": "Polygon", "coordinates": [[[75.59321, 21.65396], [75.59298, 21.65867], [75.58936, 21.66195], [75.58509, 21.66358], [75.57662, 21.66353], [75.57235, 21.66196], [75.56843, 21.65884], [75.56865, 21.65404], [75.5762, 21.64374], [75.58075, 21.64109], [75.5853, 21.64373], [75.58757, 21.64762], [75.59041, 21.65024], [75.59321, 21.65396]]]}}, {"type": "Feature", "properties": {"state": "Madhya Pradesh", "district": "Khargone", "block": "Maheshwar", "gp_name": "Maheshwar Rural", "state_code": 23, "district_code": 412, "block_code": 3805, "gp_code": 133270, "centroid_lat": 21.674, "centroid_lon": 75.5608, "area_sq_km": 6.5, "boundary_source": "LGD Revenue Village Centroids + Block-Bounded Voronoi Tessellation", "boundary_quality": "DERIVED"}, "geometry": {"type": "Polygon", "coordinates": [[[75.57264, 21.67396], [75.57279, 21.67859], [75.56963, 21.68219], [75.5651, 21.68361], [75.55654, 21.68371], [75.55247, 21.68184], [75.54884, 21.67868], [75.54886, 21.67404], [75.55393, 21.66763], [75.55599, 21.66325], [75.56075, 21.66116], [75.5655, 21.66327], [75.56753, 21.66766], [75.57029, 21.67029], [75.57264, 21.67396]]]}}, {"type": "Feature", "properties": {"state": "Madhya Pradesh", "district": "Khargone", "block": "Segaon", "gp_name": "Segaon Gram Panchayat", "state_code": 23, "district_code": 412, "block_code": 3806, "gp_code": 133271, "centroid_lat": 21.6849, "centroid_lon": 75.7297, "area_sq_km": 6.6, "boundary_source": "LGD Revenue Village Centroids + Block-Bounded Voronoi Tessellation", "boundary_quality": "DERIVED"}, "geometry": {"type": "Polygon", "coordinates": [[[75.74186, 21.68485], [75.74194, 21.68957], [75.7385, 21.69305], [75.73393, 21.69431], [75.72975, 21.69491], [75.72545, 21.69462], [75.72121, 21.69291], [75.71733, 21.68975], [75.71727, 21.68495], [75.72266, 21.67838], [75.72497, 21.67436], [75.72963, 21.6717], [75.73428, 21.67444], [75.7366, 21.67839], [75.74186, 21.68485]]]}}, {"type": "Feature", "properties": {"state": "Madhya Pradesh", "district": "Khargone", "block": "Segaon", "gp_name": "Segaon Rural", "state_code": 23, "district_code": 412, "block_code": 3806, "gp_code": 133272, "centroid_lat": 21.7049, "centroid_lon": 75.7097, "area_sq_km": 6.7, "boundary_source": "LGD Revenue Village Centroids + Block-Bounded Voronoi Tessellation", "boundary_quality": "DERIVED"}, "geometry": {"type": "Polygon", "coordinates": [[[75.72202, 21.70485], [75.72185, 21.70954], [75.71849, 21.71304], [75.71388, 21.71422], [75.70975, 21.71494], [75.70562, 21.71422], [75.7013, 21.71282], [75.6975, 21.70968], [75.6976, 21.70495], [75.70506, 21.69456], [75.70964, 21.69209], [75.71441, 21.69413], [75.71662, 21.69838], [75.72202, 21.70485]]]}}]}