{"type": "FeatureCollection", "features": [{"type": "Feature", "properties": {"state": "Madhya Pradesh", "district": "Morena", "block": "Morena", "gp_name": "Morena Gram Panchayat", "state_code": 23, "district_code": 413, "block_code": 3860, "gp_code": 133299, "centroid_lat": 26.49, "centroid_lon": 78.176, "area_sq_km": 9.4, "boundary_source": "LGD Revenue Village Centroids + Block-Bounded Voronoi Tessellation", "boundary_quality": "DERIVED"}, "geometry": {"type": "Polygon", "coordinates": [[[78.1887, 26.48972], [78.18874, 26.49442], [78.18534, 26.498], [78.1806, 26.49933], [78.17628, 26.50001], [78.17192, 26.49952], [78.16755, 26.49799], [78.16345, 26.49501], [78.16366, 26.49027], [78.16603, 26.48654], [78.171, 26.47986], [78.17564, 26.477], [78.18056, 26.47936], [78.1887, 26.48972]]]}}, {"type": "Feature", "properties": {"state": "Madhya Pradesh", "district": "Morena", "block": "Morena", "gp_name": "Morena Rural", "state_code": 23, "district_code": 413, "block_code": 3860, "gp_code": 133300, "centroid_lat": 26.51, "centroid_lon": 78.156, "area_sq_km": 4.5, "boundary_source": "LGD Revenue Village Centroids + Block-Bounded Voronoi Tessellation", "boundary_quality": "DERIVED"}, "geometry": {"type": "Polygon", "coordinates": [[[78.16872, 26.50972], [78.16889, 26.51447], [78.16538, 26.51803], [78.15628, 26.52012], [78.14725, 26.51827], [78.14345, 26.515], [78.14305, 26.51029], [78.14863, 26.50369], [78.15076, 26.49937], [78.15565, 26.49716], [78.16057, 26.49935], [78.16307, 26.50331], [78.16872, 26.50972]]]}}, {"type": "Feature", "properties": {"state": "Madhya Pradesh", "district": "Morena", "block": "Ambah", "gp_name": "Ambah Gram Panchayat", "state_code": 23, "district_code": 413, "block_code": 3861, "gp_code": 133301, "centroid_lat": 26.6151, "centroid_lon": 78.1097, "area_sq_km": 4.6, "boundary_source": "LGD Revenue Village Centroids + Block-Bounded Voronoi Tessellation", "boundary_quality": "DERIVED"}, "geometry": {"type": "Polygon", "coordinates": [[[78.1224, 26.61482], [78.12243, 26.61952], [78.1189, 26.62298], [78.11443, 26.6247], [78.10562, 26.6246], [78.10092, 26.62339], [78.09708, 26.62013], [78.09682, 26.61538], [78.10245, 26.6089], [78.10453, 26.6046], [78.10936, 26.60238], [78.11419, 26.60465], [78.1224, 26.61482]]]}}, {"type": "Feature", "properties": {"state": "Madhya Pradesh", "district": "Morena", "block": "Ambah", "gp_name": "Ambah Rural", "state_code": 23, "district_code": 413, "block_code": 3861, "gp_code": 133302, "centroid_lat": 26.6351, "centroid_lon": 78.0897, "area_sq_km": 4.7, "boundary_source": "LGD Revenue Village Centroids + Block-Bounded Voronoi Tessellation", "boundary_quality": "DERIVED"}, "geometry": {"type": "Polygon", "coordinates": [[[78.10245, 26.63482], [78.10223, 26.63945], [78.0987, 26.64281], [78.09445, 26.64473], [78.08548, 26.64492], [78.08098, 26.64333], [78.07722, 26.64007], [78.07735, 26.63537], [78.08235, 26.62881], [78.08455, 26.62464], [78.08935, 26.62193], [78.09436, 26.62424], [78.09663, 26.62856], [78.09961, 26.63115], [78.10245, 26.63482]]]}}, {"type": "Feature", "properties": {"state": "Madhya Pradesh", "district": "Morena", "block": "Joras", "gp_name": "Joras Gram Panchayat", "state_code": 23, "district_code": 413, "block_code": 3862, "gp_code": 133303, "centroid_lat": 26.646, "centroid_lon": 77.9608, "area_sq_km": 4.8, "boundary_source": "LGD Revenue Village Centroids + Block-Bounded Voronoi Tessellation", "boundary_quality": "DERIVED"}, "geometry": {"type": "Polygon", "coordinates": [[[77.97336, 26.64574], [77.97332, 26.65036], [77.96994, 26.65384], [77.96546, 26.65549], [77.96106, 26.65612], [77.95206, 26.65422], [77.94858, 26.65085], [77.94792, 26.64627], [77.95084, 26.64253], [77.95363, 26.63985], [77.95558, 26.63538], [77.96046, 26.63287], [77.96539, 26.63535], [77.96791, 26.63931], [77.97336, 26.64574]]]}}, {"type": "Feature", "properties": {"state": "Madhya Pradesh", "district": "Morena", "block": "Joras", "gp_name": "Joras Rural", "state_code": 23, "district_code": 413, "block_code": 3862, "gp_code": 133304, "centroid_lat": 26.666, "centroid_lon": 77.9408, "area_sq_km": 4.9, "boundary_source": "LGD Revenue Village Centroids + Block-Bounded Voronoi Tessellation", "boundary_quality": "DERIVED"}, "geometry": {"type": "Polygon", "coordinates": [[[77.95339, 26.66574], [77.9537, 26.67049], [77.9497, 26.67364], [77.9455, 26.67556], [77.93673, 26.67544], [77.93224, 26.67405], [77.9283, 26.67096], [77.92837, 26.66626], [77.93079, 26.66251], [77.93354, 26.65977], [77.9358, 26.65583], [77.94047, 26.65329], [77.94538, 26.65537], [77.95021, 26.66227], [77.95339, 26.66574]]]}}, {"type": "Feature", "properties": {"state": "Madhya Pradesh", "district": "Morena", "block": "Kailaras", "gp_name": "Kailaras Gram Panchayat", "state_code": 23, "district_code": 413, "block_code": 3863, "gp_code": 133305, "centroid_lat": 26.5594, "centroid_lon": 77.8414, "area_sq_km": 5.0, "boundary_source": "LGD Revenue Village Centroids + Block-Bounded Voronoi Tessellation", "boundary_quality": "DERIVED"}, "geometry": {"type": "Polygon", "coordinates": [[[77.85378, 26.55915], [77.85397, 26.56379], [77.85027, 26.56703], [77.84609, 26.56898], [77.83718, 26.56917], [77.83271, 26.56757], [77.8289, 26.56435], [77.82866, 26.55965], [77.83406, 26.55308], [77.83624, 26.54886], [77.84108, 26.54663], [77.84593, 26.54892], [77.84836, 26.55286], [77.85111, 26.55556], [77.85378, 26.55915]]]}}, {"type": "Feature", "properties": {"state": "Madhya Pradesh", "district": "Morena", "block": "Kailaras", "gp_name": "Kailaras Rural", "state_code": 23, "district_code": 413, "block_code": 3863, "gp_code": 133306, "centroid_lat": 26.5794, "centroid_lon": 77.8214, "area_sq_km": 5.1, "boundary_source": "LGD Revenue Village Centroids + Block-Bounded Voronoi Tessellation", "boundary_quality": "DERIVED"}, "geometry": {"type": "Polygon", "coordinates": [[[77.83422, 26.57915], [77.83435, 26.58392], [77.83055, 26.58727], [77.82594, 26.58866], [77.82164, 26.58903], [77.81254, 26.58773], [77.80906, 26.58429], [77.80905, 26.57964], [77.81135, 26.57589], [77.81415, 26.57317], [77.81627, 26.56891], [77.82108, 26.56654], [77.8261, 26.56853], [77.82847, 26.57276], [77.83422, 26.57915]]]}}, {"type": "Feature", "properties": {"state": "Madhya Pradesh", "district": "Morena", "block": "Paharhgarh", "gp_name": "Paharhgarh Gram Panchayat", "state_code": 23, "district_code": 413, "block_code": 3864, "gp_code": 133307, "centroid_lat": 26.4206, "centroid_lon": 77.8414, "area_sq_km": 5.2, "boundary_source": "LGD Revenue Village Centroids + Block-Bounded Voronoi Tessellation", "boundary_quality": "DERIVED"}, "geometry": {"type": "Polygon", "coordinates": [[[77.85402, 26.42035], [77.85375, 26.42492], [77.85076, 26.42867], [77.8459, 26.42979], [77.83721, 26.43031], [77.83264, 26.42885], [77.82925, 26.42542], [77.82892, 26.42085], [77.83411, 26.41432], [77.83623, 26.41004], [77.84109, 26.40799], [77.84592, 26.41012], [77.8483, 26.4141], [77.85402, 26.42035]]]}}, {"type": "Feature", "properties": {"state": "Madhya Pradesh", "district": "Morena", "block": "Paharhgarh", "gp_name": "Paharhgarh Rural", "state_code": 23, "district_code": 413, "block_code": 3864, "gp_code": 133308, "centroid_lat": 26.4406, "centroid_lon": 77.8214, "area_sq_km": 5.3, "boundary_source": "LGD Revenue Village Centroids + Block-Bounded Voronoi Tessellation", "boundary_quality": "DERIVED"}, "geometry": {"type": "Polygon", "coordinates": [[[77.8337, 26.44036], [77.83432, 26.44512], [77.83029, 26.44826], [77.82597, 26.44994], [77.82164, 26.45056], [77.81254, 26.44894], [77.80888, 26.44556], [77.80907, 26.44084], [77.81198, 26.4373], [77.81638, 26.43032], [77.82108, 26.42758], [77.82611, 26.42968], [77.82834, 26.43407], [77.8337, 26.44036]]]}}, {"type": "Feature", "properties": {"state": "Madhya Pradesh", "district": "Morena", "block": "Porsa", "gp_name": "Porsa Gram Panchayat", "state_code": 23, "district_code": 413, "block_code": 3865, "gp_code": 133309, "centroid_lat": 26.334, "centroid_lon": 77.9608, "area_sq_km": 5.4, "boundary_source": "LGD Revenue Village Centroids + Block-Bounded Voronoi Tessellation", "boundary_quality": "DERIVED"}, "geometry": {"type": "Polygon", "coordinates": [[[77.97316, 26.33374], [77.97341, 26.3384], [77.96966, 26.34162], [77.96543, 26.34346], [77.95668, 26.34357], [77.95199, 26.34231], [77.94834, 26.33895], [77.94817, 26.33426], [77.95339, 26.32762], [77.95555, 26.32327], [77.96047, 26.32102], [77.96539, 26.32332], [77.9679, 26.32731], [77.97316, 26.33374]]]}}, {"type": "Feature", "properties": {"state": "Madhya Pradesh", "district": "Morena", "block": "Porsa", "gp_name": "Porsa Rural", "state_code": 23, "district_code": 413, "block_code": 3865, "gp_code": 133310, "centroid_lat": 26.354, "centroid_lon": 77.9408, "area_sq_km": 5.5, "boundary_source": "LGD Revenue Village Centroids + Block-Bounded Voronoi Tessellation", "boundary_quality": "DERIVED"}, "geometry": {"type": "Polygon", "coordinates": [[[77.9534, 26.35374], [77.9536, 26.35847], [77.94996, 26.36188], [77.94526, 26.36312], [77.94105, 26.36382], [77.93677, 26.36336], [77.93233, 26.36198], [77.92813, 26.35903], [77.92804, 26.35426], [77.93364, 26.34783], [77.93579, 26.34376], [77.94047, 26.34111], [77.94545, 26.3432], [77.94772, 26.34748], [77.9534, 26.35374]]]}}, {"type": "Feature", "properties": {"state": "Madhya Pradesh", "district": "Morena", "block": "Sabalgarh", "gp_name": "Sabalgarh Gram Panchayat", "state_code": 23, "district_code": 413, "block_code": 3866, "gp_code": 133311, "centroid_lat": 26.3649, "centroid_lon": 78.1097, "area_sq_km": 5.6, "boundary_source": "LGD Revenue Village Centroids + Block-Bounded Voronoi Tessellation", "boundary_quality": "DERIVED"}, "geometry": {"type": "Polygon", "coordinates": [[[78.12254, 26.36462], [78.12265, 26.3694], [78.11885, 26.37275], [78.11426, 26.37419], [78.10549, 26.37472], [78.10121, 26.37292], [78.09699, 26.36997], [78.09702, 26.36518], [78.10016, 26.36158], [78.10447, 26.35426], [78.10936, 26.35218], [78.11428, 26.35421], [78.11652, 26.35845], [78.12254, 26.36462]]]}}, {"type": "Feature", "properties": {"state": "Madhya Pradesh", "district": "Morena", "block": "Sabalgarh", "gp_name": "Sabalgarh Rural", "state_code": 23, "district_code": 413, "block_code": 3866, "gp_code": 133312, "centroid_lat": 26.3849, "centroid_lon": 78.0897, "area_sq_km": 5.7, "boundary_source": "LGD Revenue Village Centroids + Block-Bounded Voronoi Tessellation", "boundary_quality": "DERIVED"}, "geometry": {"type": "Polygon", "coordinates": [[[78.1025, 26.38462], [78.10214, 26.38923], [78.09907, 26.39294], [78.09425, 26.39417], [78.08997, 26.39498], [78.08097, 26.39315], [78.07741, 26.3898], [78.07691, 26.38518], [78.08468, 26.37469], [78.08935, 26.37189], [78.09427, 26.37423], [78.09652, 26.37845], [78.1025, 26.38462]]]}}]}