{"type": "FeatureCollection", "features": [{"type": "Feature", "properties": {"state": "Madhya Pradesh", "district": "Raisen", "block": "Raisen", "gp_name": "Raisen Gram Panchayat", "state_code": 23, "district_code": 416, "block_code": 3960, "gp_code": 133347, "centroid_lat": 23.32, "centroid_lon": 77.966, "area_sq_km": 9.2, "boundary_source": "LGD Revenue Village Centroids + Block-Bounded Voronoi Tessellation", "boundary_quality": "DERIVED"}, "geometry": {"type": "Polygon", "coordinates": [[[77.97818, 23.31977], [77.97807, 23.32435], [77.97484, 23.32783], [77.97039, 23.32924], [77.96622, 23.32988], [77.95757, 23.32811], [77.95379, 23.32494], [77.95403, 23.32023], [77.95865, 23.31348], [77.96092, 23.3093], [77.96572, 23.30728], [77.97056, 23.30922], [77.97291, 23.31335], [77.97818, 23.31977]]]}}, {"type": "Feature", "properties": {"state": "Madhya Pradesh", "district": "Raisen", "block": "Raisen", "gp_name": "Raisen Rural", "state_code": 23, "district_code": 416, "block_code": 3960, "gp_code": 133348, "centroid_lat": 23.34, "centroid_lon": 77.946, "area_sq_km": 9.3, "boundary_source": "LGD Revenue Village Centroids + Block-Bounded Voronoi Tessellation", "boundary_quality": "DERIVED"}, "geometry": {"type": "Polygon", "coordinates": [[[77.95825, 23.33977], [77.95852, 23.34451], [77.95474, 23.34775], [77.9504, 23.34927], [77.94621, 23.34958], [77.94205, 23.34933], [77.93758, 23.3481], [77.93419, 23.34478], [77.93352, 23.34023], [77.9389, 23.33371], [77.94106, 23.32958], [77.94572, 23.3271], [77.9505, 23.32937], [77.95506, 23.33633], [77.95825, 23.33977]]]}}, {"type": "Feature", "properties": {"state": "Madhya Pradesh", "district": "Raisen", "block": "Badi", "gp_name": "Badi Gram Panchayat", "state_code": 23, "district_code": 416, "block_code": 3961, "gp_code": 133349, "centroid_lat": 23.4451, "centroid_lon": 77.8997, "area_sq_km": 9.4, "boundary_source": "LGD Revenue Village Centroids + Block-Bounded Voronoi Tessellation", "boundary_quality": "DERIVED"}, "geometry": {"type": "Polygon", "coordinates": [[[77.912, 23.44487], [77.91211, 23.44957], [77.9086, 23.45299], [77.90404, 23.45423], [77.89991, 23.4547], [77.89562, 23.45472], [77.89125, 23.45322], [77.88778, 23.44992], [77.88718, 23.44533], [77.89229, 23.43854], [77.89462, 23.43441], [77.89942, 23.43205], [77.90417, 23.43454], [77.90668, 23.4384], [77.912, 23.44487]]]}}, {"type": "Feature", "properties": {"state": "Madhya Pradesh", "district": "Raisen", "block": "Badi", "gp_name": "Badi Rural", "state_code": 23, "district_code": 416, "block_code": 3961, "gp_code": 133350, "centroid_lat": 23.4651, "centroid_lon": 77.8797, "area_sq_km": 4.5, "boundary_source": "LGD Revenue Village Centroids + Block-Bounded Voronoi Tessellation", "boundary_quality": "DERIVED"}, "geometry": {"type": "Polygon", "coordinates": [[[77.89234, 23.46487], [77.8922, 23.46961], [77.88873, 23.4731], [77.8842, 23.47458], [77.87991, 23.47482], [77.87109, 23.47336], [77.86724, 23.47013], [77.86765, 23.46532], [77.87484, 23.45486], [77.87942, 23.45225], [77.88412, 23.45468], [77.88658, 23.45849], [77.89234, 23.46487]]]}}, {"type": "Feature", "properties": {"state": "Madhya Pradesh", "district": "Raisen", "block": "Begamganj", "gp_name": "Begamganj Gram Panchayat", "state_code": 23, "district_code": 416, "block_code": 3962, "gp_code": 133351, "centroid_lat": 23.476, "centroid_lon": 77.7508, "area_sq_km": 4.6, "boundary_source": "LGD Revenue Village Centroids + Block-Bounded Voronoi Tessellation", "boundary_quality": "DERIVED"}, "geometry": {"type": "Polygon", "coordinates": [[[77.76318, 23.47578], [77.76319, 23.48048], [77.75962, 23.48383], [77.75524, 23.48538], [77.75101, 23.48616], [77.74228, 23.48416], [77.73882, 23.48083], [77.73876, 23.47621], [77.74359, 23.46959], [77.74586, 23.46556], [77.75053, 23.46322], [77.75534, 23.46531], [77.75774, 23.46935], [77.76318, 23.47578]]]}}, {"type": "Feature", "properties": {"state": "Madhya Pradesh", "district": "Raisen", "block": "Begamganj", "gp_name": "Begamganj Rural", "state_code": 23, "district_code": 416, "block_code": 3962, "gp_code": 133352, "centroid_lat": 23.496, "centroid_lon": 77.7308, "area_sq_km": 4.7, "boundary_source": "LGD Revenue Village Centroids + Block-Bounded Voronoi Tessellation", "boundary_quality": "DERIVED"}, "geometry": {"type": "Polygon", "coordinates": [[[77.74286, 23.49579], [77.74339, 23.50055], [77.73985, 23.50403], [77.73521, 23.50532], [77.731, 23.5058], [77.72678, 23.50547], [77.72248, 23.50397], [77.71876, 23.50085], [77.71823, 23.49622], [77.72142, 23.49261], [77.72583, 23.4855], [77.73053, 23.483], [77.73531, 23.48538], [77.74286, 23.49579]]]}}, {"type": "Feature", "properties": {"state": "Madhya Pradesh", "district": "Raisen", "block": "Gairatganj", "gp_name": "Gairatganj Gram Panchayat", "state_code": 23, "district_code": 416, "block_code": 3963, "gp_code": 133353, "centroid_lat": 23.3894, "centroid_lon": 77.6314, "area_sq_km": 4.8, "boundary_source": "LGD Revenue Village Centroids + Block-Bounded Voronoi Tessellation", "boundary_quality": "DERIVED"}, "geometry": {"type": "Polygon", "coordinates": [[[77.64406, 23.38919], [77.64379, 23.3939], [77.64003, 23.39708], [77.63596, 23.39906], [77.62734, 23.39894], [77.62278, 23.39765], [77.61917, 23.39432], [77.61885, 23.38961], [77.62411, 23.38291], [77.62638, 23.37876], [77.63115, 23.37661], [77.63586, 23.37893], [77.63833, 23.38277], [77.64406, 23.38919]]]}}, {"type": "Feature", "properties": {"state": "Madhya Pradesh", "district": "Raisen", "block": "Gairatganj", "gp_name": "Gairatganj Rural", "state_code": 23, "district_code": 416, "block_code": 3963, "gp_code": 133354, "centroid_lat": 23.4094, "centroid_lon": 77.6114, "area_sq_km": 4.9, "boundary_source": "LGD Revenue Village Centroids + Block-Bounded Voronoi Tessellation", "boundary_quality": "DERIVED"}, "geometry": {"type": "Polygon", "coordinates": [[[77.62404, 23.40919], [77.62348, 23.41378], [77.62021, 23.41724], [77.61594, 23.41901], [77.60721, 23.41922], [77.6029, 23.41753], [77.59905, 23.41437], [77.59875, 23.40961], [77.60412, 23.40292], [77.60654, 23.39911], [77.61115, 23.39682], [77.61596, 23.39871], [77.61833, 23.40277], [77.62404, 23.40919]]]}}, {"type": "Feature", "properties": {"state": "Madhya Pradesh", "district": "Raisen", "block": "Obedullaganj", "gp_name": "Obedullaganj Gram Panchayat", "state_code": 23, "district_code": 416, "block_code": 3964, "gp_code": 133355, "centroid_lat": 23.2506, "centroid_lon": 77.6314, "area_sq_km": 5.0, "boundary_source": "LGD Revenue Village Centroids + Block-Bounded Voronoi Tessellation", "boundary_quality": "DERIVED"}, "geometry": {"type": "Polygon", "coordinates": [[[77.64361, 23.25039], [77.6434, 23.25496], [77.64017, 23.25841], [77.63571, 23.25973], [77.63159, 23.26035], [77.62737, 23.26007], [77.6229, 23.25874], [77.61947, 23.2554], [77.6191, 23.25081], [77.62158, 23.24703], [77.6243, 23.24427], [77.62659, 23.2404], [77.63115, 23.23801], [77.63592, 23.23998], [77.63814, 23.24415], [77.64361, 23.25039]]]}}, {"type": "Feature", "properties": {"state": "Madhya Pradesh", "district": "Raisen", "block": "Obedullaganj", "gp_name": "Obedullaganj Rural", "state_code": 23, "district_code": 416, "block_code": 3964, "gp_code": 133356, "centroid_lat": 23.2706, "centroid_lon": 77.6114, "area_sq_km": 5.1, "boundary_source": "LGD Revenue Village Centroids + Block-Bounded Voronoi Tessellation", "boundary_quality": "DERIVED"}, "geometry": {"type": "Polygon", "coordinates": [[[77.62361, 23.2704], [77.62366, 23.27505], [77.62031, 23.27854], [77.61575, 23.27982], [77.61159, 23.28053], [77.60745, 23.27989], [77.60302, 23.27863], [77.59921, 23.2755], [77.59897, 23.27081], [77.60433, 23.2643], [77.60659, 23.26039], [77.61115, 23.25756], [77.61604, 23.25969], [77.61846, 23.26384], [77.62361, 23.2704]]]}}, {"type": "Feature", "properties": {"state": "Madhya Pradesh", "district": "Raisen", "block": "Silwani", "gp_name": "Silwani Gram Panchayat", "state_code": 23, "district_code": 416, "block_code": 3965, "gp_code": 133357, "centroid_lat": 23.164, "centroid_lon": 77.7508, "area_sq_km": 5.2, "boundary_source": "LGD Revenue Village Centroids + Block-Bounded Voronoi Tessellation", "boundary_quality": "DERIVED"}, "geometry": {"type": "Polygon", "coordinates": [[[77.76295, 23.16379], [77.76341, 23.16857], [77.75951, 23.17176], [77.75101, 23.17413], [77.74674, 23.17357], [77.74223, 23.17223], [77.73851, 23.16896], [77.73881, 23.16421], [77.74372, 23.15769], [77.74574, 23.15329], [77.75054, 23.1512], [77.75531, 23.15337], [77.75996, 23.1603], [77.76295, 23.16379]]]}}, {"type": "Feature", "properties": {"state": "Madhya Pradesh", "district": "Raisen", "block": "Silwani", "gp_name": "Silwani Rural", "state_code": 23, "district_code": 416, "block_code": 3965, "gp_code": 133358, "centroid_lat": 23.184, "centroid_lon": 77.7308, "area_sq_km": 5.3, "boundary_source": "LGD Revenue Village Centroids + Block-Bounded Voronoi Tessellation", "boundary_quality": "DERIVED"}, "geometry": {"type": "Polygon", "coordinates": [[[77.74292, 23.18379], [77.74281, 23.18835], [77.73954, 23.19178], [77.73526, 23.19345], [77.72675, 23.19355], [77.72243, 23.19204], [77.71878, 23.18885], [77.71855, 23.18421], [77.72372, 23.17769], [77.72586, 23.17353], [77.73054, 23.17115], [77.73539, 23.17318], [77.73773, 23.17735], [77.74292, 23.18379]]]}}, {"type": "Feature", "properties": {"state": "Madhya Pradesh", "district": "Raisen", "block": "Udaipura", "gp_name": "Udaipura Gram Panchayat", "state_code": 23, "district_code": 416, "block_code": 3966, "gp_code": 133359, "centroid_lat": 23.1949, "centroid_lon": 77.8997, "area_sq_km": 5.4, "boundary_source": "LGD Revenue Village Centroids + Block-Bounded Voronoi Tessellation", "boundary_quality": "DERIVED"}, "geometry": {"type": "Polygon", "coordinates": [[[77.91231, 23.19467], [77.91171, 23.19924], [77.90869, 23.20288], [77.90417, 23.20434], [77.89565, 23.20448], [77.891, 23.20327], [77.88741, 23.19987], [77.88734, 23.19513], [77.89265, 23.18864], [77.89483, 23.18462], [77.89943, 23.18233], [77.9041, 23.1845], [77.90649, 23.18837], [77.91231, 23.19467]]]}}, {"type": "Feature", "properties": {"state": "Madhya Pradesh", "district": "Raisen", "block": "Udaipura", "gp_name": "Udaipura Rural", "state_code": 23, "district_code": 416, "block_code": 3966, "gp_code": 133360, "centroid_lat": 23.2149, "centroid_lon": 77.8797, "area_sq_km": 5.5, "boundary_source": "LGD Revenue Village Centroids + Block-Bounded Voronoi Tessellation", "boundary_quality": "DERIVED"}, "geometry": {"type": "Polygon", "coordinates": [[[77.89196, 23.21467], [77.89201, 23.21935], [77.88862, 23.22283], [77.88422, 23.22444], [77.87991, 23.22477], [77.87567, 23.22442], [77.87131, 23.22297], [77.86756, 23.21981], [77.86767, 23.21512], [77.8699, 23.21136], [77.87235, 23.20837], [77.87469, 23.20431], [77.87942, 23.20184], [77.88431, 23.204], [77.88883, 23.21121], [77.89196, 23.21467]]]}}]}