{"type": "FeatureCollection", "features": [{"type": "Feature", "properties": {"state": "Madhya Pradesh", "district": "Ratlam", "block": "Ratlam", "gp_name": "Ratlam Gram Panchayat", "state_code": 23, "district_code": 418, "block_code": 4000, "gp_code": 133373, "centroid_lat": 23.32, "centroid_lon": 75.226, "area_sq_km": 6.8, "boundary_source": "LGD Revenue Village Centroids + Block-Bounded Voronoi Tessellation", "boundary_quality": "DERIVED"}, "geometry": {"type": "Polygon", "coordinates": [[[75.23867, 23.31998], [75.23794, 23.32455], [75.23467, 23.32798], [75.23033, 23.32961], [75.22602, 23.32997], [75.22185, 23.3293], [75.21745, 23.32792], [75.2138, 23.32469], [75.2134, 23.32002], [75.219, 23.31356], [75.22133, 23.30962], [75.22598, 23.30724], [75.23068, 23.30952], [75.2354, 23.31639], [75.23867, 23.31998]]]}}, {"type": "Feature", "properties": {"state": "Madhya Pradesh", "district": "Ratlam", "block": "Ratlam", "gp_name": "Ratlam Rural", "state_code": 23, "district_code": 418, "block_code": 4000, "gp_code": 133374, "centroid_lat": 23.34, "centroid_lon": 75.206, "area_sq_km": 6.9, "boundary_source": "LGD Revenue Village Centroids + Block-Bounded Voronoi Tessellation", "boundary_quality": "DERIVED"}, "geometry": {"type": "Polygon", "coordinates": [[[75.21864, 23.33998], [75.21819, 23.34464], [75.21484, 23.34814], [75.21025, 23.34944], [75.20602, 23.34993], [75.19742, 23.34795], [75.19367, 23.34474], [75.19353, 23.34002], [75.19899, 23.33355], [75.20124, 23.32943], [75.20598, 23.32701], [75.21064, 23.32961], [75.21525, 23.33645], [75.21864, 23.33998]]]}}, {"type": "Feature", "properties": {"state": "Madhya Pradesh", "district": "Ratlam", "block": "Alot", "gp_name": "Alot Gram Panchayat", "state_code": 23, "district_code": 418, "block_code": 4001, "gp_code": 133375, "centroid_lat": 23.4586, "centroid_lon": 75.138, "area_sq_km": 7.0, "boundary_source": "LGD Revenue Village Centroids + Block-Bounded Voronoi Tessellation", "boundary_quality": "DERIVED"}, "geometry": {"type": "Polygon", "coordinates": [[[75.15021, 23.45859], [75.15045, 23.46334], [75.14668, 23.46659], [75.14223, 23.468], [75.13801, 23.46856], [75.13374, 23.46812], [75.12921, 23.46672], [75.12546, 23.46341], [75.12572, 23.45861], [75.13117, 23.45231], [75.13339, 23.44835], [75.13799, 23.4458], [75.1428, 23.44789], [75.14502, 23.45211], [75.15021, 23.45859]]]}}, {"type": "Feature", "properties": {"state": "Madhya Pradesh", "district": "Ratlam", "block": "Alot", "gp_name": "Alot Rural", "state_code": 23, "district_code": 418, "block_code": 4001, "gp_code": 133376, "centroid_lat": 23.4786, "centroid_lon": 75.118, "area_sq_km": 7.1, "boundary_source": "LGD Revenue Village Centroids + Block-Bounded Voronoi Tessellation", "boundary_quality": "DERIVED"}, "geometry": {"type": "Polygon", "coordinates": [[[75.13005, 23.47859], [75.13045, 23.48334], [75.12692, 23.48681], [75.12232, 23.4882], [75.11381, 23.48795], [75.10945, 23.4865], [75.10547, 23.4834], [75.10541, 23.47861], [75.11091, 23.47207], [75.11317, 23.46788], [75.11799, 23.46561], [75.12283, 23.46782], [75.12503, 23.4721], [75.13005, 23.47859]]]}}, {"type": "Feature", "properties": {"state": "Madhya Pradesh", "district": "Ratlam", "block": "Bajna", "gp_name": "Bajna Gram Panchayat", "state_code": 23, "district_code": 418, "block_code": 4002, "gp_code": 133377, "centroid_lat": 23.4586, "centroid_lon": 74.962, "area_sq_km": 7.2, "boundary_source": "LGD Revenue Village Centroids + Block-Bounded Voronoi Tessellation", "boundary_quality": "DERIVED"}, "geometry": {"type": "Polygon", "coordinates": [[[74.9744, 23.4586], [74.97447, 23.46337], [74.97086, 23.46677], [74.96633, 23.46826], [74.95764, 23.46829], [74.95318, 23.46673], [74.9495, 23.46337], [74.94978, 23.4586], [74.95736, 23.44825], [74.962, 23.44571], [74.9667, 23.44814], [74.97123, 23.45508], [74.9744, 23.4586]]]}}, {"type": "Feature", "properties": {"state": "Madhya Pradesh", "district": "Ratlam", "block": "Bajna", "gp_name": "Bajna Rural", "state_code": 23, "district_code": 418, "block_code": 4002, "gp_code": 133378, "centroid_lat": 23.4786, "centroid_lon": 74.942, "area_sq_km": 7.3, "boundary_source": "LGD Revenue Village Centroids + Block-Bounded Voronoi Tessellation", "boundary_quality": "DERIVED"}, "geometry": {"type": "Polygon", "coordinates": [[[74.95401, 23.4786], [74.95454, 23.4834], [74.95089, 23.48681], [74.94629, 23.48817], [74.942, 23.48868], [74.93761, 23.48836], [74.93341, 23.48652], [74.93005, 23.48316], [74.92978, 23.47859], [74.93501, 23.47215], [74.93717, 23.46784], [74.94201, 23.46545], [74.94686, 23.46778], [74.94921, 23.47195], [74.95401, 23.4786]]]}}, {"type": "Feature", "properties": {"state": "Madhya Pradesh", "district": "Ratlam", "block": "Jaora", "gp_name": "Jaora Gram Panchayat", "state_code": 23, "district_code": 418, "block_code": 4003, "gp_code": 133379, "centroid_lat": 23.32, "centroid_lon": 74.874, "area_sq_km": 7.4, "boundary_source": "LGD Revenue Village Centroids + Block-Bounded Voronoi Tessellation", "boundary_quality": "DERIVED"}, "geometry": {"type": "Polygon", "coordinates": [[[74.88653, 23.32001], [74.88642, 23.32476], [74.88294, 23.32827], [74.87819, 23.32937], [74.87399, 23.32979], [74.86534, 23.32799], [74.86172, 23.32468], [74.86186, 23.31999], [74.86937, 23.30966], [74.87401, 23.30697], [74.87866, 23.30963], [74.88331, 23.31645], [74.88653, 23.32001]]]}}, {"type": "Feature", "properties": {"state": "Madhya Pradesh", "district": "Ratlam", "block": "Jaora", "gp_name": "Jaora Rural", "state_code": 23, "district_code": 418, "block_code": 4003, "gp_code": 133380, "centroid_lat": 23.34, "centroid_lon": 74.854, "area_sq_km": 7.5, "boundary_source": "LGD Revenue Village Centroids + Block-Bounded Voronoi Tessellation", "boundary_quality": "DERIVED"}, "geometry": {"type": "Polygon", "coordinates": [[[74.86613, 23.34001], [74.86651, 23.3448], [74.86256, 23.34792], [74.85818, 23.34934], [74.85399, 23.3501], [74.8497, 23.34956], [74.84515, 23.34815], [74.84157, 23.34474], [74.84177, 23.33999], [74.8494, 23.32972], [74.85401, 23.32685], [74.85862, 23.32973], [74.86095, 23.3336], [74.86613, 23.34001]]]}}, {"type": "Feature", "properties": {"state": "Madhya Pradesh", "district": "Ratlam", "block": "Piploda", "gp_name": "Piploda Gram Panchayat", "state_code": 23, "district_code": 418, "block_code": 4004, "gp_code": 133381, "centroid_lat": 23.1814, "centroid_lon": 74.962, "area_sq_km": 7.6, "boundary_source": "LGD Revenue Village Centroids + Block-Bounded Voronoi Tessellation", "boundary_quality": "DERIVED"}, "geometry": {"type": "Polygon", "coordinates": [[[74.97433, 23.1814], [74.97438, 23.18614], [74.97056, 23.18932], [74.96622, 23.19082], [74.962, 23.19154], [74.95776, 23.19085], [74.95323, 23.18951], [74.94973, 23.1861], [74.94969, 23.1814], [74.95277, 23.17786], [74.95731, 23.17093], [74.962, 23.16851], [74.96676, 23.17078], [74.97433, 23.1814]]]}}, {"type": "Feature", "properties": {"state": "Madhya Pradesh", "district": "Ratlam", "block": "Piploda", "gp_name": "Piploda Rural", "state_code": 23, "district_code": 418, "block_code": 4004, "gp_code": 133382, "centroid_lat": 23.2014, "centroid_lon": 74.942, "area_sq_km": 7.7, "boundary_source": "LGD Revenue Village Centroids + Block-Bounded Voronoi Tessellation", "boundary_quality": "DERIVED"}, "geometry": {"type": "Polygon", "coordinates": [[[74.95411, 23.2014], [74.95395, 23.20598], [74.95073, 23.20948], [74.94629, 23.21098], [74.942, 23.21136], [74.93311, 23.20961], [74.92944, 23.2062], [74.92959, 23.20139], [74.93504, 23.19496], [74.93721, 23.1907], [74.94201, 23.18841], [74.94683, 23.19063], [74.95121, 23.19788], [74.95411, 23.2014]]]}}, {"type": "Feature", "properties": {"state": "Madhya Pradesh", "district": "Ratlam", "block": "Sailana", "gp_name": "Sailana Gram Panchayat", "state_code": 23, "district_code": 418, "block_code": 4005, "gp_code": 133383, "centroid_lat": 23.1814, "centroid_lon": 75.138, "area_sq_km": 7.8, "boundary_source": "LGD Revenue Village Centroids + Block-Bounded Voronoi Tessellation", "boundary_quality": "DERIVED"}, "geometry": {"type": "Polygon", "coordinates": [[[75.15019, 23.18139], [75.15023, 23.18607], [75.14685, 23.18956], [75.14214, 23.19062], [75.13801, 23.19103], [75.1338, 23.1908], [75.12936, 23.18941], [75.1256, 23.18616], [75.12569, 23.18141], [75.12887, 23.17791], [75.13327, 23.17088], [75.13799, 23.16826], [75.14279, 23.17068], [75.1452, 23.17473], [75.15019, 23.18139]]]}}, {"type": "Feature", "properties": {"state": "Madhya Pradesh", "district": "Ratlam", "block": "Sailana", "gp_name": "Sailana Rural", "state_code": 23, "district_code": 418, "block_code": 4005, "gp_code": 133384, "centroid_lat": 23.2014, "centroid_lon": 75.118, "area_sq_km": 7.9, "boundary_source": "LGD Revenue Village Centroids + Block-Bounded Voronoi Tessellation", "boundary_quality": "DERIVED"}, "geometry": {"type": "Polygon", "coordinates": [[[75.13032, 23.20139], [75.12992, 23.20595], [75.1266, 23.20934], [75.12214, 23.21062], [75.11801, 23.21128], [75.11376, 23.21089], [75.1094, 23.20936], [75.10555, 23.20618], [75.10549, 23.20141], [75.11116, 23.19508], [75.11338, 23.19112], [75.11799, 23.18848], [75.12261, 23.19108], [75.12485, 23.19506], [75.13032, 23.20139]]]}}]}