{"type": "FeatureCollection", "features": [{"type": "Feature", "properties": {"state": "Madhya Pradesh", "district": "Sehore", "block": "Sehore", "gp_name": "Sehore Gram Panchayat", "state_code": 23, "district_code": 422, "block_code": 4080, "gp_code": 133445, "centroid_lat": 23.19, "centroid_lon": 77.222, "area_sq_km": 9.0, "boundary_source": "LGD Revenue Village Centroids + Block-Bounded Voronoi Tessellation", "boundary_quality": "DERIVED"}, "geometry": {"type": "Polygon", "coordinates": [[[77.23416, 23.18983], [77.23442, 23.19455], [77.23095, 23.19803], [77.22217, 23.19999], [77.21325, 23.19834], [77.21012, 23.19474], [77.20953, 23.19018], [77.21472, 23.18347], [77.21711, 23.17954], [77.22179, 23.17732], [77.22648, 23.17956], [77.23416, 23.18983]]]}}, {"type": "Feature", "properties": {"state": "Madhya Pradesh", "district": "Sehore", "block": "Sehore", "gp_name": "Sehore Rural", "state_code": 23, "district_code": 422, "block_code": 4080, "gp_code": 133446, "centroid_lat": 23.21, "centroid_lon": 77.202, "area_sq_km": 9.1, "boundary_source": "LGD Revenue Village Centroids + Block-Bounded Voronoi Tessellation", "boundary_quality": "DERIVED"}, "geometry": {"type": "Polygon", "coordinates": [[[77.21462, 23.20982], [77.21426, 23.21449], [77.21073, 23.21783], [77.20635, 23.2193], [77.20217, 23.22007], [77.19796, 23.21941], [77.1934, 23.21819], [77.18956, 23.21497], [77.18986, 23.21017], [77.19235, 23.20646], [77.19502, 23.20374], [77.19697, 23.19924], [77.20179, 23.19689], [77.20663, 23.19921], [77.20885, 23.20347], [77.21462, 23.20982]]]}}, {"type": "Feature", "properties": {"state": "Madhya Pradesh", "district": "Sehore", "block": "Ashta", "gp_name": "Ashta Gram Panchayat", "state_code": 23, "district_code": 422, "block_code": 4081, "gp_code": 133447, "centroid_lat": 23.3041, "centroid_lon": 77.1308, "area_sq_km": 9.2, "boundary_source": "LGD Revenue Village Centroids + Block-Bounded Voronoi Tessellation", "boundary_quality": "DERIVED"}, "geometry": {"type": "Polygon", "coordinates": [[[77.14292, 23.30393], [77.14336, 23.30871], [77.13938, 23.3118], [77.13523, 23.31358], [77.12658, 23.31391], [77.122, 23.31247], [77.11834, 23.30907], [77.11816, 23.30427], [77.1235, 23.29755], [77.12591, 23.29363], [77.13059, 23.29096], [77.13544, 23.29331], [77.13777, 23.29747], [77.14292, 23.30393]]]}}, {"type": "Feature", "properties": {"state": "Madhya Pradesh", "district": "Sehore", "block": "Ashta", "gp_name": "Ashta Rural", "state_code": 23, "district_code": 422, "block_code": 4081, "gp_code": 133448, "centroid_lat": 23.3241, "centroid_lon": 77.1108, "area_sq_km": 9.3, "boundary_source": "LGD Revenue Village Centroids + Block-Bounded Voronoi Tessellation", "boundary_quality": "DERIVED"}, "geometry": {"type": "Polygon", "coordinates": [[[77.12282, 23.32394], [77.12288, 23.32853], [77.11966, 23.33205], [77.11524, 23.3336], [77.11095, 23.33381], [77.10681, 23.33338], [77.10235, 23.33214], [77.09868, 23.32893], [77.09828, 23.32427], [77.10374, 23.31777], [77.10578, 23.31335], [77.1106, 23.31146], [77.11539, 23.31343], [77.11992, 23.32046], [77.12282, 23.32394]]]}}, {"type": "Feature", "properties": {"state": "Madhya Pradesh", "district": "Sehore", "block": "Budhni", "gp_name": "Budhni Gram Panchayat", "state_code": 23, "district_code": 422, "block_code": 4082, "gp_code": 133449, "centroid_lat": 23.2605, "centroid_lon": 76.9832, "area_sq_km": 9.4, "boundary_source": "LGD Revenue Village Centroids + Block-Bounded Voronoi Tessellation", "boundary_quality": "DERIVED"}, "geometry": {"type": "Polygon", "coordinates": [[[76.99529, 23.26035], [76.99545, 23.26501], [76.99204, 23.26844], [76.98753, 23.26979], [76.98334, 23.27022], [76.97915, 23.2699], [76.97455, 23.26872], [76.97116, 23.26529], [76.97092, 23.26065], [76.97344, 23.25691], [76.97624, 23.25425], [76.97838, 23.25016], [76.98301, 23.24785], [76.98787, 23.24966], [76.98992, 23.25412], [76.99529, 23.26035]]]}}, {"type": "Feature", "properties": {"state": "Madhya Pradesh", "district": "Sehore", "block": "Budhni", "gp_name": "Budhni Rural", "state_code": 23, "district_code": 422, "block_code": 4082, "gp_code": 133450, "centroid_lat": 23.2805, "centroid_lon": 76.9632, "area_sq_km": 4.5, "boundary_source": "LGD Revenue Village Centroids + Block-Bounded Voronoi Tessellation", "boundary_quality": "DERIVED"}, "geometry": {"type": "Polygon", "coordinates": [[[76.9756, 23.28034], [76.97531, 23.28496], [76.97201, 23.28842], [76.96751, 23.28976], [76.96335, 23.29039], [76.95915, 23.28989], [76.95462, 23.28865], [76.95078, 23.28544], [76.95103, 23.28065], [76.95397, 23.2771], [76.95845, 23.2703], [76.96301, 23.26772], [76.96767, 23.27014], [76.97012, 23.27393], [76.9756, 23.28034]]]}}, {"type": "Feature", "properties": {"state": "Madhya Pradesh", "district": "Sehore", "block": "Ichhawar", "gp_name": "Ichhawar Gram Panchayat", "state_code": 23, "district_code": 422, "block_code": 4083, "gp_code": 133451, "centroid_lat": 23.1195, "centroid_lon": 76.9832, "area_sq_km": 4.6, "boundary_source": "LGD Revenue Village Centroids + Block-Bounded Voronoi Tessellation", "boundary_quality": "DERIVED"}, "geometry": {"type": "Polygon", "coordinates": [[[76.99545, 23.11935], [76.99543, 23.12401], [76.992, 23.12742], [76.98772, 23.12921], [76.98335, 23.12947], [76.97901, 23.12923], [76.97442, 23.12784], [76.97111, 23.12431], [76.9706, 23.11966], [76.97604, 23.11306], [76.97834, 23.10906], [76.98301, 23.10637], [76.98768, 23.10909], [76.99015, 23.11289], [76.99545, 23.11935]]]}}, {"type": "Feature", "properties": {"state": "Madhya Pradesh", "district": "Sehore", "block": "Ichhawar", "gp_name": "Ichhawar Rural", "state_code": 23, "district_code": 422, "block_code": 4083, "gp_code": 133452, "centroid_lat": 23.1395, "centroid_lon": 76.9632, "area_sq_km": 4.7, "boundary_source": "LGD Revenue Village Centroids + Block-Bounded Voronoi Tessellation", "boundary_quality": "DERIVED"}, "geometry": {"type": "Polygon", "coordinates": [[[76.97557, 23.13935], [76.97559, 23.14406], [76.97192, 23.14735], [76.96771, 23.1492], [76.95903, 23.14919], [76.95454, 23.14773], [76.95111, 23.14431], [76.95081, 23.13965], [76.95403, 23.13612], [76.95829, 23.12894], [76.96301, 23.12632], [76.96767, 23.12913], [76.97006, 23.13299], [76.97557, 23.13935]]]}}, {"type": "Feature", "properties": {"state": "Madhya Pradesh", "district": "Sehore", "block": "Nasrullaganj", "gp_name": "Nasrullaganj Gram Panchayat", "state_code": 23, "district_code": 422, "block_code": 4084, "gp_code": 133453, "centroid_lat": 23.0759, "centroid_lon": 77.1308, "area_sq_km": 4.8, "boundary_source": "LGD Revenue Village Centroids + Block-Bounded Voronoi Tessellation", "boundary_quality": "DERIVED"}, "geometry": {"type": "Polygon", "coordinates": [[[77.14296, 23.07574], [77.14317, 23.08044], [77.13945, 23.08367], [77.13096, 23.08588], [77.12668, 23.08549], [77.12233, 23.08397], [77.11882, 23.08068], [77.11828, 23.07607], [77.12365, 23.06947], [77.1259, 23.06539], [77.1306, 23.06303], [77.13528, 23.06548], [77.13758, 23.06944], [77.14041, 23.07206], [77.14296, 23.07574]]]}}, {"type": "Feature", "properties": {"state": "Madhya Pradesh", "district": "Sehore", "block": "Nasrullaganj", "gp_name": "Nasrullaganj Rural", "state_code": 23, "district_code": 422, "block_code": 4084, "gp_code": 133454, "centroid_lat": 23.0959, "centroid_lon": 77.1108, "area_sq_km": 4.9, "boundary_source": "LGD Revenue Village Centroids + Block-Bounded Voronoi Tessellation", "boundary_quality": "DERIVED"}, "geometry": {"type": "Polygon", "coordinates": [[[77.12308, 23.09574], [77.12295, 23.10037], [77.11962, 23.10383], [77.11505, 23.10502], [77.10667, 23.10551], [77.10227, 23.10402], [77.09853, 23.10079], [77.09876, 23.09606], [77.10388, 23.08968], [77.10596, 23.08551], [77.1106, 23.08289], [77.11545, 23.08507], [77.11794, 23.0891], [77.12308, 23.09574]]]}}]}