{"type": "FeatureCollection", "features": [{"type": "Feature", "properties": {"state": "Madhya Pradesh", "district": "Seoni", "block": "Seoni", "gp_name": "Seoni Gram Panchayat", "state_code": 23, "district_code": 423, "block_code": 4100, "gp_code": 133455, "centroid_lat": 22.07, "centroid_lon": 79.726, "area_sq_km": 5.0, "boundary_source": "LGD Revenue Village Centroids + Block-Bounded Voronoi Tessellation", "boundary_quality": "DERIVED"}, "geometry": {"type": "Polygon", "coordinates": [[[79.73819, 22.06965], [79.73847, 22.0744], [79.73501, 22.07789], [79.73062, 22.07954], [79.72634, 22.08006], [79.72203, 22.07979], [79.71784, 22.07809], [79.71429, 22.07492], [79.71359, 22.07036], [79.71873, 22.06363], [79.72091, 22.05948], [79.72558, 22.05742], [79.73026, 22.0595], [79.73819, 22.06965]]]}}, {"type": "Feature", "properties": {"state": "Madhya Pradesh", "district": "Seoni", "block": "Seoni", "gp_name": "Seoni Rural", "state_code": 23, "district_code": 423, "block_code": 4100, "gp_code": 133456, "centroid_lat": 22.09, "centroid_lon": 79.706, "area_sq_km": 5.1, "boundary_source": "LGD Revenue Village Centroids + Block-Bounded Voronoi Tessellation", "boundary_quality": "DERIVED"}, "geometry": {"type": "Polygon", "coordinates": [[[79.71842, 22.08964], [79.71812, 22.09427], [79.71503, 22.09791], [79.7105, 22.0993], [79.70633, 22.09998], [79.70202, 22.09981], [79.69779, 22.09814], [79.69423, 22.09495], [79.69416, 22.09034], [79.69884, 22.08373], [79.70086, 22.07938], [79.70558, 22.07729], [79.71025, 22.07953], [79.71276, 22.0833], [79.71842, 22.08964]]]}}, {"type": "Feature", "properties": {"state": "Madhya Pradesh", "district": "Seoni", "block": "Barghat", "gp_name": "Barghat Gram Panchayat", "state_code": 23, "district_code": 423, "block_code": 4101, "gp_code": 133457, "centroid_lat": 22.1831, "centroid_lon": 79.6745, "area_sq_km": 5.2, "boundary_source": "LGD Revenue Village Centroids + Block-Bounded Voronoi Tessellation", "boundary_quality": "DERIVED"}, "geometry": {"type": "Polygon", "coordinates": [[[79.68642, 22.18276], [79.68648, 22.18732], [79.68345, 22.19093], [79.67483, 22.1931], [79.66599, 22.19153], [79.66236, 22.1882], [79.6623, 22.18345], [79.66751, 22.17698], [79.66954, 22.17286], [79.67407, 22.17014], [79.67883, 22.17244], [79.68642, 22.18276]]]}}, {"type": "Feature", "properties": {"state": "Madhya Pradesh", "district": "Seoni", "block": "Barghat", "gp_name": "Barghat Rural", "state_code": 23, "district_code": 423, "block_code": 4101, "gp_code": 133458, "centroid_lat": 22.2031, "centroid_lon": 79.6545, "area_sq_km": 5.3, "boundary_source": "LGD Revenue Village Centroids + Block-Bounded Voronoi Tessellation", "boundary_quality": "DERIVED"}, "geometry": {"type": "Polygon", "coordinates": [[[79.66649, 22.20276], [79.66662, 22.20737], [79.66326, 22.21077], [79.65916, 22.21272], [79.65054, 22.21283], [79.64635, 22.21117], [79.64277, 22.20802], [79.64229, 22.20345], [79.64958, 22.19294], [79.65407, 22.19022], [79.65876, 22.19262], [79.66649, 22.20276]]]}}, {"type": "Feature", "properties": {"state": "Madhya Pradesh", "district": "Seoni", "block": "Chhapara", "gp_name": "Chhapara Gram Panchayat", "state_code": 23, "district_code": 423, "block_code": 4102, "gp_code": 133459, "centroid_lat": 22.23, "centroid_lon": 79.55, "area_sq_km": 5.4, "boundary_source": "LGD Revenue Village Centroids + Block-Bounded Voronoi Tessellation", "boundary_quality": "DERIVED"}, "geometry": {"type": "Polygon", "coordinates": [[[79.56194, 22.22967], [79.56225, 22.23433], [79.55882, 22.23773], [79.55459, 22.23949], [79.55033, 22.24016], [79.54601, 22.2398], [79.54143, 22.23848], [79.53796, 22.23504], [79.53757, 22.23035], [79.5408, 22.22675], [79.54504, 22.21973], [79.54957, 22.21682], [79.55441, 22.21917], [79.56194, 22.22967]]]}}, {"type": "Feature", "properties": {"state": "Madhya Pradesh", "district": "Seoni", "block": "Chhapara", "gp_name": "Chhapara Rural", "state_code": 23, "district_code": 423, "block_code": 4102, "gp_code": 133460, "centroid_lat": 22.25, "centroid_lon": 79.53, "area_sq_km": 5.5, "boundary_source": "LGD Revenue Village Centroids + Block-Bounded Voronoi Tessellation", "boundary_quality": "DERIVED"}, "geometry": {"type": "Polygon", "coordinates": [[[79.54223, 22.24966], [79.54249, 22.25441], [79.53889, 22.25779], [79.53449, 22.25928], [79.53032, 22.25986], [79.52602, 22.25977], [79.52164, 22.25827], [79.51829, 22.2549], [79.51801, 22.25033], [79.52485, 22.23935], [79.52959, 22.23737], [79.53445, 22.23909], [79.53698, 22.2431], [79.54223, 22.24966]]]}}, {"type": "Feature", "properties": {"state": "Madhya Pradesh", "district": "Seoni", "block": "Dhanora", "gp_name": "Dhanora Gram Panchayat", "state_code": 23, "district_code": 423, "block_code": 4103, "gp_code": 133461, "centroid_lat": 22.1831, "centroid_lon": 79.4255, "area_sq_km": 5.6, "boundary_source": "LGD Revenue Village Centroids + Block-Bounded Voronoi Tessellation", "boundary_quality": "DERIVED"}, "geometry": {"type": "Polygon", "coordinates": [[[79.43796, 22.18276], [79.43754, 22.18736], [79.43431, 22.19084], [79.43011, 22.19266], [79.42151, 22.19287], [79.417, 22.19149], [79.4133, 22.1882], [79.41362, 22.18342], [79.41595, 22.17971], [79.41852, 22.17697], [79.42057, 22.17286], [79.42509, 22.17002], [79.42985, 22.17245], [79.43225, 22.17643], [79.43796, 22.18276]]]}}, {"type": "Feature", "properties": {"state": "Madhya Pradesh", "district": "Seoni", "block": "Dhanora", "gp_name": "Dhanora Rural", "state_code": 23, "district_code": 423, "block_code": 4103, "gp_code": 133462, "centroid_lat": 22.2031, "centroid_lon": 79.4055, "area_sq_km": 5.7, "boundary_source": "LGD Revenue Village Centroids + Block-Bounded Voronoi Tessellation", "boundary_quality": "DERIVED"}, "geometry": {"type": "Polygon", "coordinates": [[[79.41791, 22.20276], [79.41762, 22.20739], [79.41426, 22.2108], [79.41001, 22.21246], [79.40167, 22.21247], [79.39732, 22.21117], [79.39342, 22.20815], [79.39354, 22.20342], [79.39814, 22.19663], [79.40037, 22.19246], [79.40511, 22.19046], [79.40985, 22.19244], [79.41472, 22.19925], [79.41791, 22.20276]]]}}, {"type": "Feature", "properties": {"state": "Madhya Pradesh", "district": "Seoni", "block": "Ghansore", "gp_name": "Ghansore Gram Panchayat", "state_code": 23, "district_code": 423, "block_code": 4104, "gp_code": 133463, "centroid_lat": 22.07, "centroid_lon": 79.374, "area_sq_km": 5.8, "boundary_source": "LGD Revenue Village Centroids + Block-Bounded Voronoi Tessellation", "boundary_quality": "DERIVED"}, "geometry": {"type": "Polygon", "coordinates": [[[79.38594, 22.06968], [79.38643, 22.07441], [79.38286, 22.0778], [79.37431, 22.08003], [79.37006, 22.07964], [79.36573, 22.07816], [79.36201, 22.07501], [79.36209, 22.07032], [79.36901, 22.05963], [79.37361, 22.05734], [79.37842, 22.05918], [79.38079, 22.0633], [79.38594, 22.06968]]]}}, {"type": "Feature", "properties": {"state": "Madhya Pradesh", "district": "Seoni", "block": "Ghansore", "gp_name": "Ghansore Rural", "state_code": 23, "district_code": 423, "block_code": 4104, "gp_code": 133464, "centroid_lat": 22.09, "centroid_lon": 79.354, "area_sq_km": 5.9, "boundary_source": "LGD Revenue Village Centroids + Block-Bounded Voronoi Tessellation", "boundary_quality": "DERIVED"}, "geometry": {"type": "Polygon", "coordinates": [[[79.36639, 22.08967], [79.36623, 22.09434], [79.36292, 22.09785], [79.35855, 22.09946], [79.35002, 22.09974], [79.34549, 22.0984], [79.34172, 22.09513], [79.342, 22.09032], [79.3467, 22.08358], [79.34892, 22.07944], [79.3536, 22.07683], [79.35842, 22.07919], [79.36056, 22.08353], [79.36639, 22.08967]]]}}, {"type": "Feature", "properties": {"state": "Madhya Pradesh", "district": "Seoni", "block": "Keolari", "gp_name": "Keolari Gram Panchayat", "state_code": 23, "district_code": 423, "block_code": 4105, "gp_code": 133465, "centroid_lat": 21.9569, "centroid_lon": 79.4255, "area_sq_km": 6.0, "boundary_source": "LGD Revenue Village Centroids + Block-Bounded Voronoi Tessellation", "boundary_quality": "DERIVED"}, "geometry": {"type": "Polygon", "coordinates": [[[79.43736, 21.95658], [79.43782, 21.96127], [79.43428, 21.96463], [79.42993, 21.96612], [79.42165, 21.96632], [79.41716, 21.96514], [79.41351, 21.96192], [79.41312, 21.95723], [79.41612, 21.95357], [79.4206, 21.94671], [79.42511, 21.94434], [79.42974, 21.94651], [79.43736, 21.95658]]]}}, {"type": "Feature", "properties": {"state": "Madhya Pradesh", "district": "Seoni", "block": "Keolari", "gp_name": "Keolari Rural", "state_code": 23, "district_code": 423, "block_code": 4105, "gp_code": 133466, "centroid_lat": 21.9769, "centroid_lon": 79.4055, "area_sq_km": 6.1, "boundary_source": "LGD Revenue Village Centroids + Block-Bounded Voronoi Tessellation", "boundary_quality": "DERIVED"}, "geometry": {"type": "Polygon", "coordinates": [[[79.41797, 21.97656], [79.41773, 21.98124], [79.41426, 21.98461], [79.4099, 21.98606], [79.40581, 21.9868], [79.40167, 21.98629], [79.39738, 21.98492], [79.39335, 21.98198], [79.39309, 21.97723], [79.39844, 21.97069], [79.4006, 21.96671], [79.40511, 21.9642], [79.40991, 21.96609], [79.41251, 21.96997], [79.41797, 21.97656]]]}}, {"type": "Feature", "properties": {"state": "Madhya Pradesh", "district": "Seoni", "block": "Kurai", "gp_name": "Kurai Gram Panchayat", "state_code": 23, "district_code": 423, "block_code": 4106, "gp_code": 133467, "centroid_lat": 21.91, "centroid_lon": 79.55, "area_sq_km": 6.2, "boundary_source": "LGD Revenue Village Centroids + Block-Bounded Voronoi Tessellation", "boundary_quality": "DERIVED"}, "geometry": {"type": "Polygon", "coordinates": [[[79.56236, 21.90966], [79.56214, 21.9143], [79.55878, 21.91772], [79.55458, 21.91951], [79.55032, 21.92], [79.546, 21.91983], [79.5417, 21.91822], [79.53801, 21.91503], [79.53773, 21.91034], [79.54301, 21.90385], [79.545, 21.89961], [79.54958, 21.89683], [79.5543, 21.89944], [79.55893, 21.90626], [79.56236, 21.90966]]]}}, {"type": "Feature", "properties": {"state": "Madhya Pradesh", "district": "Seoni", "block": "Kurai", "gp_name": "Kurai Rural", "state_code": 23, "district_code": 423, "block_code": 4106, "gp_code": 133468, "centroid_lat": 21.93, "centroid_lon": 79.53, "area_sq_km": 6.3, "boundary_source": "LGD Revenue Village Centroids + Block-Bounded Voronoi Tessellation", "boundary_quality": "DERIVED"}, "geometry": {"type": "Polygon", "coordinates": [[[79.54196, 21.92967], [79.54193, 21.93423], [79.53869, 21.93764], [79.5346, 21.93955], [79.53031, 21.9399], [79.52615, 21.93946], [79.52167, 21.93825], [79.51808, 21.935], [79.51798, 21.93033], [79.52299, 21.92384], [79.52512, 21.91986], [79.52959, 21.91699], [79.53422, 21.91963], [79.54196, 21.92967]]]}}, {"type": "Feature", "properties": {"state": "Madhya Pradesh", "district": "Seoni", "block": "Lakhnadon", "gp_name": "Lakhnadon Gram Panchayat", "state_code": 23, "district_code": 423, "block_code": 4107, "gp_code": 133469, "centroid_lat": 21.9569, "centroid_lon": 79.6745, "area_sq_km": 6.4, "boundary_source": "LGD Revenue Village Centroids + Block-Bounded Voronoi Tessellation", "boundary_quality": "DERIVED"}, "geometry": {"type": "Polygon", "coordinates": [[[79.68677, 21.95655], [79.68671, 21.96121], [79.68345, 21.96475], [79.67896, 21.96614], [79.67483, 21.96705], [79.67058, 21.96656], [79.66638, 21.96495], [79.66239, 21.96199], [79.66231, 21.95725], [79.66736, 21.95064], [79.66942, 21.94637], [79.67408, 21.94409], [79.67887, 21.94613], [79.68112, 21.95033], [79.68677, 21.95655]]]}}, {"type": "Feature", "properties": {"state": "Madhya Pradesh", "district": "Seoni", "block": "Lakhnadon", "gp_name": "Lakhnadon Rural", "state_code": 23, "district_code": 423, "block_code": 4107, "gp_code": 133470, "centroid_lat": 21.9769, "centroid_lon": 79.6545, "area_sq_km": 6.5, "boundary_source": "LGD Revenue Village Centroids + Block-Bounded Voronoi Tessellation", "boundary_quality": "DERIVED"}, "geometry": {"type": "Polygon", "coordinates": [[[79.66683, 21.97655], [79.6667, 21.98121], [79.66348, 21.98478], [79.65902, 21.98626], [79.65482, 21.98682], [79.65052, 21.98669], [79.64631, 21.98502], [79.64264, 21.98188], [79.64247, 21.97724], [79.64955, 21.96665], [79.65408, 21.96417], [79.65885, 21.9662], [79.66343, 21.97315], [79.66683, 21.97655]]]}}]}