{"type": "FeatureCollection", "features": [{"type": "Feature", "properties": {"state": "Madhya Pradesh", "district": "Shahdol", "block": "Shahdol", "gp_name": "Shahdol Gram Panchayat", "state_code": 23, "district_code": 424, "block_code": 4120, "gp_code": 133471, "centroid_lat": 23.28, "centroid_lon": 81.492, "area_sq_km": 6.6, "boundary_source": "LGD Revenue Village Centroids + Block-Bounded Voronoi Tessellation", "boundary_quality": "DERIVED"}, "geometry": {"type": "Polygon", "coordinates": [[[81.50442, 23.27948], [81.50414, 23.28406], [81.50123, 23.28779], [81.49675, 23.28938], [81.49247, 23.28963], [81.48831, 23.2894], [81.48376, 23.28833], [81.48031, 23.28505], [81.47953, 23.28052], [81.48462, 23.27377], [81.48666, 23.26946], [81.49138, 23.26731], [81.49612, 23.26949], [81.49863, 23.2733], [81.50148, 23.2759], [81.50442, 23.27948]]]}}, {"type": "Feature", "properties": {"state": "Madhya Pradesh", "district": "Shahdol", "block": "Shahdol", "gp_name": "Shahdol Rural", "state_code": 23, "district_code": 424, "block_code": 4120, "gp_code": 133472, "centroid_lat": 23.3, "centroid_lon": 81.472, "area_sq_km": 6.7, "boundary_source": "LGD Revenue Village Centroids + Block-Bounded Voronoi Tessellation", "boundary_quality": "DERIVED"}, "geometry": {"type": "Polygon", "coordinates": [[[81.48448, 23.29948], [81.48439, 23.30415], [81.48116, 23.30773], [81.47681, 23.30949], [81.47248, 23.30988], [81.46832, 23.30938], [81.46393, 23.30816], [81.45982, 23.30526], [81.45995, 23.3005], [81.46214, 23.2967], [81.46468, 23.29382], [81.46685, 23.28982], [81.47139, 23.28746], [81.4763, 23.28905], [81.4786, 23.29333], [81.48448, 23.29948]]]}}, {"type": "Feature", "properties": {"state": "Madhya Pradesh", "district": "Shahdol", "block": "Beohari", "gp_name": "Beohari Gram Panchayat", "state_code": 23, "district_code": 424, "block_code": 4121, "gp_code": 133473, "centroid_lat": 23.3941, "centroid_lon": 81.4008, "area_sq_km": 6.8, "boundary_source": "LGD Revenue Village Centroids + Block-Bounded Voronoi Tessellation", "boundary_quality": "DERIVED"}, "geometry": {"type": "Polygon", "coordinates": [[[81.41315, 23.39359], [81.41334, 23.3983], [81.40984, 23.40174], [81.40555, 23.40348], [81.40127, 23.40389], [81.39698, 23.40381], [81.39265, 23.40232], [81.38916, 23.39912], [81.38855, 23.3946], [81.391, 23.39082], [81.39356, 23.38798], [81.39557, 23.38377], [81.40019, 23.38139], [81.40492, 23.38362], [81.40973, 23.39025], [81.41315, 23.39359]]]}}, {"type": "Feature", "properties": {"state": "Madhya Pradesh", "district": "Shahdol", "block": "Beohari", "gp_name": "Beohari Rural", "state_code": 23, "district_code": 424, "block_code": 4121, "gp_code": 133474, "centroid_lat": 23.4141, "centroid_lon": 81.3808, "area_sq_km": 6.9, "boundary_source": "LGD Revenue Village Centroids + Block-Bounded Voronoi Tessellation", "boundary_quality": "DERIVED"}, "geometry": {"type": "Polygon", "coordinates": [[[81.39279, 23.41361], [81.39352, 23.41836], [81.38979, 23.42169], [81.38127, 23.42392], [81.37703, 23.42369], [81.37253, 23.42244], [81.36895, 23.41921], [81.36824, 23.41461], [81.37346, 23.4079], [81.37556, 23.40376], [81.38018, 23.40131], [81.38503, 23.40335], [81.38743, 23.40741], [81.39028, 23.41001], [81.39279, 23.41361]]]}}, {"type": "Feature", "properties": {"state": "Madhya Pradesh", "district": "Shahdol", "block": "Burhar", "gp_name": "Burhar Gram Panchayat", "state_code": 23, "district_code": 424, "block_code": 4122, "gp_code": 133475, "centroid_lat": 23.3505, "centroid_lon": 81.2532, "area_sq_km": 7.0, "boundary_source": "LGD Revenue Village Centroids + Block-Bounded Voronoi Tessellation", "boundary_quality": "DERIVED"}, "geometry": {"type": "Polygon", "coordinates": [[[81.2656, 23.35], [81.26584, 23.35475], [81.26243, 23.35831], [81.25775, 23.35951], [81.25366, 23.36032], [81.2493, 23.36039], [81.24501, 23.35875], [81.24103, 23.35574], [81.24128, 23.35098], [81.24336, 23.34719], [81.24611, 23.3445], [81.24794, 23.34007], [81.25259, 23.33744], [81.25746, 23.3397], [81.25978, 23.34387], [81.2656, 23.35]]]}}, {"type": "Feature", "properties": {"state": "Madhya Pradesh", "district": "Shahdol", "block": "Burhar", "gp_name": "Burhar Rural", "state_code": 23, "district_code": 424, "block_code": 4122, "gp_code": 133476, "centroid_lat": 23.3705, "centroid_lon": 81.2332, "area_sq_km": 7.1, "boundary_source": "LGD Revenue Village Centroids + Block-Bounded Voronoi Tessellation", "boundary_quality": "DERIVED"}, "geometry": {"type": "Polygon", "coordinates": [[[81.24526, 23.37002], [81.24541, 23.37461], [81.242, 23.37795], [81.23778, 23.37958], [81.23366, 23.38024], [81.22944, 23.38004], [81.22478, 23.37898], [81.22102, 23.37574], [81.22075, 23.371], [81.22384, 23.36735], [81.22812, 23.36043], [81.2326, 23.35767], [81.23734, 23.36001], [81.23981, 23.36384], [81.24526, 23.37002]]]}}, {"type": "Feature", "properties": {"state": "Madhya Pradesh", "district": "Shahdol", "block": "Gohparu", "gp_name": "Gohparu Gram Panchayat", "state_code": 23, "district_code": 424, "block_code": 4123, "gp_code": 133477, "centroid_lat": 23.2095, "centroid_lon": 81.2532, "area_sq_km": 7.2, "boundary_source": "LGD Revenue Village Centroids + Block-Bounded Voronoi Tessellation", "boundary_quality": "DERIVED"}, "geometry": {"type": "Polygon", "coordinates": [[[81.26511, 23.20902], [81.26582, 23.21375], [81.26229, 23.21721], [81.25783, 23.21869], [81.25367, 23.21946], [81.24942, 23.21908], [81.24488, 23.21788], [81.2411, 23.21471], [81.24082, 23.20999], [81.24815, 23.19948], [81.2526, 23.19667], [81.25748, 23.19863], [81.25989, 23.20276], [81.26272, 23.2054], [81.26511, 23.20902]]]}}, {"type": "Feature", "properties": {"state": "Madhya Pradesh", "district": "Shahdol", "block": "Gohparu", "gp_name": "Gohparu Rural", "state_code": 23, "district_code": 424, "block_code": 4123, "gp_code": 133478, "centroid_lat": 23.2295, "centroid_lon": 81.2332, "area_sq_km": 7.3, "boundary_source": "LGD Revenue Village Centroids + Block-Bounded Voronoi Tessellation", "boundary_quality": "DERIVED"}, "geometry": {"type": "Polygon", "coordinates": [[[81.24572, 23.229], [81.24542, 23.23362], [81.242, 23.23696], [81.23798, 23.23899], [81.22935, 23.23925], [81.22514, 23.23762], [81.22144, 23.23456], [81.22118, 23.22998], [81.22352, 23.22624], [81.2261, 23.22348], [81.228, 23.21917], [81.2326, 23.21662], [81.23738, 23.21889], [81.24245, 23.22552], [81.24572, 23.229]]]}}, {"type": "Feature", "properties": {"state": "Madhya Pradesh", "district": "Shahdol", "block": "Jaisinghnagar", "gp_name": "Jaisinghnagar Gram Panchayat", "state_code": 23, "district_code": 424, "block_code": 4124, "gp_code": 133479, "centroid_lat": 23.1659, "centroid_lon": 81.4008, "area_sq_km": 7.4, "boundary_source": "LGD Revenue Village Centroids + Block-Bounded Voronoi Tessellation", "boundary_quality": "DERIVED"}, "geometry": {"type": "Polygon", "coordinates": [[[81.41322, 23.16539], [81.41304, 23.17001], [81.40993, 23.17363], [81.40544, 23.17508], [81.40126, 23.17561], [81.39705, 23.17544], [81.39255, 23.17423], [81.38869, 23.17113], [81.38882, 23.16639], [81.39558, 23.15556], [81.40019, 23.15307], [81.40495, 23.15535], [81.4098, 23.16201], [81.41322, 23.16539]]]}}, {"type": "Feature", "properties": {"state": "Madhya Pradesh", "district": "Shahdol", "block": "Jaisinghnagar", "gp_name": "Jaisinghnagar Rural", "state_code": 23, "district_code": 424, "block_code": 4124, "gp_code": 133480, "centroid_lat": 23.1859, "centroid_lon": 81.3808, "area_sq_km": 7.5, "boundary_source": "LGD Revenue Village Centroids + Block-Bounded Voronoi Tessellation", "boundary_quality": "DERIVED"}, "geometry": {"type": "Polygon", "coordinates": [[[81.39283, 23.18541], [81.39298, 23.18999], [81.39001, 23.19369], [81.38554, 23.19528], [81.38126, 23.19561], [81.3771, 23.1953], [81.37263, 23.19415], [81.36892, 23.19103], [81.36854, 23.1864], [81.37158, 23.1828], [81.37567, 23.17575], [81.38018, 23.17282], [81.3849, 23.17548], [81.39283, 23.18541]]]}}]}