{"type": "FeatureCollection", "features": [{"type": "Feature", "properties": {"state": "Madhya Pradesh", "district": "Sidhi", "block": "Sidhi", "gp_name": "Sidhi Gram Panchayat", "state_code": 23, "district_code": 427, "block_code": 4200, "gp_code": 133511, "centroid_lat": 24.4, "centroid_lon": 82.022, "area_sq_km": 5.6, "boundary_source": "LGD Revenue Village Centroids + Block-Bounded Voronoi Tessellation", "boundary_quality": "DERIVED"}, "geometry": {"type": "Polygon", "coordinates": [[[82.03455, 24.39941], [82.03458, 24.4041], [82.03112, 24.40754], [82.02675, 24.40915], [82.02253, 24.40959], [82.01835, 24.40939], [82.01368, 24.40844], [82.00978, 24.40532], [82.00987, 24.40056], [82.01262, 24.39694], [82.01669, 24.38975], [82.02128, 24.387], [82.02614, 24.38934], [82.02885, 24.39306], [82.03455, 24.39941]]]}}, {"type": "Feature", "properties": {"state": "Madhya Pradesh", "district": "Sidhi", "block": "Sidhi", "gp_name": "Sidhi Rural", "state_code": 23, "district_code": 427, "block_code": 4200, "gp_code": 133512, "centroid_lat": 24.42, "centroid_lon": 82.002, "area_sq_km": 5.7, "boundary_source": "LGD Revenue Village Centroids + Block-Bounded Voronoi Tessellation", "boundary_quality": "DERIVED"}, "geometry": {"type": "Polygon", "coordinates": [[[82.01405, 24.41944], [82.0145, 24.42407], [82.0112, 24.42761], [82.0068, 24.42925], [82.00254, 24.42979], [81.99369, 24.42843], [81.99028, 24.4251], [81.98933, 24.42059], [81.99257, 24.41693], [81.99672, 24.40982], [82.00129, 24.40717], [82.0061, 24.40944], [82.01405, 24.41944]]]}}, {"type": "Feature", "properties": {"state": "Madhya Pradesh", "district": "Sidhi", "block": "Kusmi", "gp_name": "Kusmi Gram Panchayat", "state_code": 23, "district_code": 427, "block_code": 4201, "gp_code": 133513, "centroid_lat": 24.5141, "centroid_lon": 81.9308, "area_sq_km": 5.8, "boundary_source": "LGD Revenue Village Centroids + Block-Bounded Voronoi Tessellation", "boundary_quality": "DERIVED"}, "geometry": {"type": "Polygon", "coordinates": [[[81.94304, 24.51353], [81.94341, 24.51821], [81.9401, 24.52179], [81.93134, 24.5239], [81.92695, 24.52398], [81.92237, 24.52263], [81.9191, 24.51918], [81.91824, 24.51468], [81.92332, 24.50792], [81.92543, 24.50375], [81.93011, 24.50155], [81.93503, 24.50323], [81.93748, 24.50734], [81.94304, 24.51353]]]}}, {"type": "Feature", "properties": {"state": "Madhya Pradesh", "district": "Sidhi", "block": "Kusmi", "gp_name": "Kusmi Rural", "state_code": 23, "district_code": 427, "block_code": 4201, "gp_code": 133514, "centroid_lat": 24.5341, "centroid_lon": 81.9108, "area_sq_km": 5.9, "boundary_source": "LGD Revenue Village Centroids + Block-Bounded Voronoi Tessellation", "boundary_quality": "DERIVED"}, "geometry": {"type": "Polygon", "coordinates": [[[81.92291, 24.53354], [81.92337, 24.5382], [81.92015, 24.54183], [81.91563, 24.54341], [81.90698, 24.5439], [81.90243, 24.54256], [81.89862, 24.53939], [81.89829, 24.53468], [81.90144, 24.53105], [81.9056, 24.52408], [81.9101, 24.52139], [81.91497, 24.52339], [81.92291, 24.53354]]]}}, {"type": "Feature", "properties": {"state": "Madhya Pradesh", "district": "Sidhi", "block": "Majhauli", "gp_name": "Majhauli Gram Panchayat", "state_code": 23, "district_code": 427, "block_code": 4202, "gp_code": 133515, "centroid_lat": 24.4705, "centroid_lon": 81.7832, "area_sq_km": 6.0, "boundary_source": "LGD Revenue Village Centroids + Block-Bounded Voronoi Tessellation", "boundary_quality": "DERIVED"}, "geometry": {"type": "Polygon", "coordinates": [[[81.79522, 24.46996], [81.79591, 24.47466], [81.79254, 24.47825], [81.78795, 24.47969], [81.78374, 24.48058], [81.77946, 24.48008], [81.77486, 24.47893], [81.77139, 24.47561], [81.77106, 24.47105], [81.77323, 24.46724], [81.77574, 24.46431], [81.77791, 24.46026], [81.78251, 24.45767], [81.78749, 24.45951], [81.78978, 24.46385], [81.79278, 24.46635], [81.79522, 24.46996]]]}}, {"type": "Feature", "properties": {"state": "Madhya Pradesh", "district": "Sidhi", "block": "Majhauli", "gp_name": "Majhauli Rural", "state_code": 23, "district_code": 427, "block_code": 4202, "gp_code": 133516, "centroid_lat": 24.4905, "centroid_lon": 81.7632, "area_sq_km": 6.1, "boundary_source": "LGD Revenue Village Centroids + Block-Bounded Voronoi Tessellation", "boundary_quality": "DERIVED"}, "geometry": {"type": "Polygon", "coordinates": [[[81.77565, 24.48994], [81.7758, 24.49462], [81.77253, 24.49824], [81.76797, 24.49972], [81.75947, 24.50003], [81.75475, 24.49903], [81.75087, 24.49584], [81.75069, 24.49106], [81.75588, 24.48443], [81.75776, 24.47997], [81.76252, 24.47784], [81.76738, 24.47981], [81.77565, 24.48994]]]}}, {"type": "Feature", "properties": {"state": "Madhya Pradesh", "district": "Sidhi", "block": "Rampur Naikin", "gp_name": "Rampur Naikin Gram Panchayat", "state_code": 23, "district_code": 427, "block_code": 4203, "gp_code": 133517, "centroid_lat": 24.3295, "centroid_lon": 81.7832, "area_sq_km": 6.2, "boundary_source": "LGD Revenue Village Centroids + Block-Bounded Voronoi Tessellation", "boundary_quality": "DERIVED"}, "geometry": {"type": "Polygon", "coordinates": [[[81.79533, 24.32896], [81.79552, 24.33354], [81.79244, 24.33717], [81.78808, 24.33895], [81.77946, 24.33909], [81.77472, 24.33807], [81.77098, 24.33479], [81.77052, 24.33007], [81.77364, 24.32636], [81.77786, 24.31915], [81.78253, 24.31693], [81.78728, 24.31905], [81.79533, 24.32896]]]}}, {"type": "Feature", "properties": {"state": "Madhya Pradesh", "district": "Sidhi", "block": "Rampur Naikin", "gp_name": "Rampur Naikin Rural", "state_code": 23, "district_code": 427, "block_code": 4203, "gp_code": 133518, "centroid_lat": 24.3495, "centroid_lon": 81.7632, "area_sq_km": 6.3, "boundary_source": "LGD Revenue Village Centroids + Block-Bounded Voronoi Tessellation", "boundary_quality": "DERIVED"}, "geometry": {"type": "Polygon", "coordinates": [[[81.77521, 24.34896], [81.77561, 24.35357], [81.77208, 24.35688], [81.76802, 24.35884], [81.76372, 24.35917], [81.75489, 24.35789], [81.75107, 24.35475], [81.75077, 24.35006], [81.75361, 24.34635], [81.75789, 24.3392], [81.76252, 24.33685], [81.76737, 24.33883], [81.77521, 24.34896]]]}}, {"type": "Feature", "properties": {"state": "Madhya Pradesh", "district": "Sidhi", "block": "Sihawal", "gp_name": "Sihawal Gram Panchayat", "state_code": 23, "district_code": 427, "block_code": 4204, "gp_code": 133519, "centroid_lat": 24.2859, "centroid_lon": 81.9308, "area_sq_km": 6.4, "boundary_source": "LGD Revenue Village Centroids + Block-Bounded Voronoi Tessellation", "boundary_quality": "DERIVED"}, "geometry": {"type": "Polygon", "coordinates": [[[81.94312, 24.28533], [81.94303, 24.2899], [81.94019, 24.29369], [81.93551, 24.29501], [81.93133, 24.29562], [81.92712, 24.29534], [81.92255, 24.29426], [81.91851, 24.29124], [81.91849, 24.28646], [81.92351, 24.27985], [81.92557, 24.27579], [81.9301, 24.27306], [81.93488, 24.27543], [81.93976, 24.28201], [81.94312, 24.28533]]]}}, {"type": "Feature", "properties": {"state": "Madhya Pradesh", "district": "Sidhi", "block": "Sihawal", "gp_name": "Sihawal Rural", "state_code": 23, "district_code": 427, "block_code": 4204, "gp_code": 133520, "centroid_lat": 24.3059, "centroid_lon": 81.9108, "area_sq_km": 6.5, "boundary_source": "LGD Revenue Village Centroids + Block-Bounded Voronoi Tessellation", "boundary_quality": "DERIVED"}, "geometry": {"type": "Polygon", "coordinates": [[[81.92337, 24.30532], [81.92357, 24.31008], [81.92012, 24.31363], [81.91134, 24.31576], [81.907, 24.31566], [81.90261, 24.31419], [81.89897, 24.31104], [81.89829, 24.30647], [81.90564, 24.29592], [81.9101, 24.29309], [81.915, 24.29511], [81.91748, 24.29913], [81.92337, 24.30532]]]}}]}