{"type": "FeatureCollection", "features": [{"type": "Feature", "properties": {"state": "Madhya Pradesh", "district": "Ashoknagar", "block": "Ashoknagar", "gp_name": "Ashoknagar Gram Panchayat", "state_code": 23, "district_code": 440, "block_code": 3340, "gp_code": 133019, "centroid_lat": 24.56, "centroid_lon": 77.862, "area_sq_km": 6.4, "boundary_source": "LGD Revenue Village Centroids + Block-Bounded Voronoi Tessellation", "boundary_quality": "DERIVED"}, "geometry": {"type": "Polygon", "coordinates": [[[77.87462, 24.55976], [77.87416, 24.56434], [77.87088, 24.56779], [77.86639, 24.56916], [77.86222, 24.56963], [77.85799, 24.5694], [77.85337, 24.56823], [77.84961, 24.56497], [77.8494, 24.56024], [77.85472, 24.55361], [77.85688, 24.54932], [77.86171, 24.54735], [77.86648, 24.54951], [77.87116, 24.55632], [77.87462, 24.55976]]]}}, {"type": "Feature", "properties": {"state": "Madhya Pradesh", "district": "Ashoknagar", "block": "Ashoknagar", "gp_name": "Ashoknagar Rural", "state_code": 23, "district_code": 440, "block_code": 3340, "gp_code": 133020, "centroid_lat": 24.58, "centroid_lon": 77.842, "area_sq_km": 6.5, "boundary_source": "LGD Revenue Village Centroids + Block-Bounded Voronoi Tessellation", "boundary_quality": "DERIVED"}, "geometry": {"type": "Polygon", "coordinates": [[[77.85441, 24.57977], [77.85478, 24.58456], [77.85112, 24.58801], [77.84662, 24.58962], [77.83793, 24.58953], [77.83345, 24.58815], [77.83007, 24.58479], [77.8298, 24.58023], [77.83211, 24.57647], [77.83696, 24.56948], [77.84171, 24.56722], [77.84665, 24.56911], [77.84906, 24.57327], [77.85441, 24.57977]]]}}, {"type": "Feature", "properties": {"state": "Madhya Pradesh", "district": "Ashoknagar", "block": "Chanderi", "gp_name": "Chanderi Gram Panchayat", "state_code": 23, "district_code": 440, "block_code": 3341, "gp_code": 133021, "centroid_lat": 24.68, "centroid_lon": 77.73, "area_sq_km": 6.6, "boundary_source": "LGD Revenue Village Centroids + Block-Bounded Voronoi Tessellation", "boundary_quality": "DERIVED"}, "geometry": {"type": "Polygon", "coordinates": [[[77.74239, 24.67977], [77.74246, 24.68445], [77.73903, 24.68793], [77.73453, 24.68945], [77.73022, 24.69012], [77.7258, 24.68981], [77.72148, 24.68811], [77.718, 24.6848], [77.71791, 24.68022], [77.72287, 24.67374], [77.72501, 24.66958], [77.72971, 24.66682], [77.73468, 24.66907], [77.73687, 24.67347], [77.74239, 24.67977]]]}}, {"type": "Feature", "properties": {"state": "Madhya Pradesh", "district": "Ashoknagar", "block": "Chanderi", "gp_name": "Chanderi Rural", "state_code": 23, "district_code": 440, "block_code": 3341, "gp_code": 133022, "centroid_lat": 24.7, "centroid_lon": 77.71, "area_sq_km": 6.7, "boundary_source": "LGD Revenue Village Centroids + Block-Bounded Voronoi Tessellation", "boundary_quality": "DERIVED"}, "geometry": {"type": "Polygon", "coordinates": [[[77.72273, 24.69977], [77.72254, 24.70448], [77.71872, 24.70765], [77.71454, 24.70947], [77.70589, 24.7096], [77.70128, 24.70829], [77.69774, 24.7049], [77.69761, 24.70022], [77.70276, 24.69365], [77.70491, 24.68937], [77.70972, 24.68704], [77.71468, 24.68908], [77.71687, 24.69347], [77.72273, 24.69977]]]}}, {"type": "Feature", "properties": {"state": "Madhya Pradesh", "district": "Ashoknagar", "block": "Isagarh", "gp_name": "Isagarh Gram Panchayat", "state_code": 23, "district_code": 440, "block_code": 3342, "gp_code": 133023, "centroid_lat": 24.56, "centroid_lon": 77.598, "area_sq_km": 6.8, "boundary_source": "LGD Revenue Village Centroids + Block-Bounded Voronoi Tessellation", "boundary_quality": "DERIVED"}, "geometry": {"type": "Polygon", "coordinates": [[[77.61013, 24.55979], [77.61023, 24.56439], [77.60695, 24.56788], [77.60256, 24.56956], [77.59382, 24.56974], [77.58929, 24.56827], [77.58561, 24.56494], [77.58559, 24.56021], [77.58847, 24.55658], [77.59297, 24.54947], [77.59774, 24.54741], [77.60252, 24.54947], [77.60487, 24.55347], [77.60768, 24.55614], [77.61013, 24.55979]]]}}, {"type": "Feature", "properties": {"state": "Madhya Pradesh", "district": "Ashoknagar", "block": "Isagarh", "gp_name": "Isagarh Rural", "state_code": 23, "district_code": 440, "block_code": 3342, "gp_code": 133024, "centroid_lat": 24.58, "centroid_lon": 77.578, "area_sq_km": 6.9, "boundary_source": "LGD Revenue Village Centroids + Block-Bounded Voronoi Tessellation", "boundary_quality": "DERIVED"}, "geometry": {"type": "Polygon", "coordinates": [[[77.59013, 24.57979], [77.59038, 24.58444], [77.58707, 24.58799], [77.58236, 24.58913], [77.57387, 24.58962], [77.56927, 24.58829], [77.5655, 24.58499], [77.56528, 24.58022], [77.57304, 24.5696], [77.57774, 24.56717], [77.58249, 24.56953], [77.58479, 24.57356], [77.59013, 24.57979]]]}}, {"type": "Feature", "properties": {"state": "Madhya Pradesh", "district": "Ashoknagar", "block": "Mungawali", "gp_name": "Mungawali Gram Panchayat", "state_code": 23, "district_code": 440, "block_code": 3343, "gp_code": 133025, "centroid_lat": 24.44, "centroid_lon": 77.73, "area_sq_km": 7.0, "boundary_source": "LGD Revenue Village Centroids + Block-Bounded Voronoi Tessellation", "boundary_quality": "DERIVED"}, "geometry": {"type": "Polygon", "coordinates": [[[77.74208, 24.43978], [77.74218, 24.44436], [77.73902, 24.44793], [77.73462, 24.44967], [77.73022, 24.4501], [77.7212, 24.44838], [77.71748, 24.44501], [77.71781, 24.44022], [77.72028, 24.43652], [77.72285, 24.4337], [77.7251, 24.42974], [77.72973, 24.42731], [77.73462, 24.42919], [77.73676, 24.43357], [77.74208, 24.43978]]]}}, {"type": "Feature", "properties": {"state": "Madhya Pradesh", "district": "Ashoknagar", "block": "Mungawali", "gp_name": "Mungawali Rural", "state_code": 23, "district_code": 440, "block_code": 3343, "gp_code": 133026, "centroid_lat": 24.46, "centroid_lon": 77.71, "area_sq_km": 7.1, "boundary_source": "LGD Revenue Village Centroids + Block-Bounded Voronoi Tessellation", "boundary_quality": "DERIVED"}, "geometry": {"type": "Polygon", "coordinates": [[[77.72267, 24.45977], [77.72223, 24.46438], [77.7192, 24.4681], [77.71448, 24.46937], [77.70598, 24.4694], [77.70148, 24.46811], [77.69759, 24.46497], [77.69778, 24.46022], [77.70488, 24.44928], [77.70972, 24.44705], [77.71464, 24.44915], [77.71713, 24.45321], [77.72267, 24.45977]]]}}]}