{"type": "FeatureCollection", "features": [{"type": "Feature", "properties": {"state": "Madhya Pradesh", "district": "Katni", "block": "Katni", "gp_name": "Katni Gram Panchayat", "state_code": 23, "district_code": 445, "block_code": 3760, "gp_code": 133233, "centroid_lat": 23.82, "centroid_lon": 80.586, "area_sq_km": 7.8, "boundary_source": "LGD Revenue Village Centroids + Block-Bounded Voronoi Tessellation", "boundary_quality": "DERIVED"}, "geometry": {"type": "Polygon", "coordinates": [[[80.59828, 23.81955], [80.59844, 23.82422], [80.59504, 23.82768], [80.59062, 23.82922], [80.58205, 23.82984], [80.57786, 23.8281], [80.57409, 23.82505], [80.57379, 23.82044], [80.57874, 23.81383], [80.5807, 23.80943], [80.58546, 23.80741], [80.59031, 23.80924], [80.59507, 23.81615], [80.59828, 23.81955]]]}}, {"type": "Feature", "properties": {"state": "Madhya Pradesh", "district": "Katni", "block": "Katni", "gp_name": "Katni Rural", "state_code": 23, "district_code": 445, "block_code": 3760, "gp_code": 133234, "centroid_lat": 23.84, "centroid_lon": 80.566, "area_sq_km": 7.9, "boundary_source": "LGD Revenue Village Centroids + Block-Bounded Voronoi Tessellation", "boundary_quality": "DERIVED"}, "geometry": {"type": "Polygon", "coordinates": [[[80.57815, 23.83956], [80.57841, 23.84421], [80.57499, 23.84764], [80.57058, 23.84914], [80.56643, 23.85006], [80.56209, 23.84974], [80.55749, 23.84847], [80.55393, 23.84512], [80.554, 23.84043], [80.56086, 23.82975], [80.56546, 23.82738], [80.57038, 23.82909], [80.575, 23.83618], [80.57815, 23.83956]]]}}, {"type": "Feature", "properties": {"state": "Madhya Pradesh", "district": "Katni", "block": "Badwara", "gp_name": "Badwara Gram Panchayat", "state_code": 23, "district_code": 445, "block_code": 3761, "gp_code": 133235, "centroid_lat": 23.9586, "centroid_lon": 80.498, "area_sq_km": 8.0, "boundary_source": "LGD Revenue Village Centroids + Block-Bounded Voronoi Tessellation", "boundary_quality": "DERIVED"}, "geometry": {"type": "Polygon", "coordinates": [[[80.5103, 23.95816], [80.51028, 23.96276], [80.50687, 23.96614], [80.50267, 23.96791], [80.49843, 23.96863], [80.4942, 23.96806], [80.48971, 23.96683], [80.4862, 23.9636], [80.4859, 23.95903], [80.4929, 23.94843], [80.49746, 23.9459], [80.50224, 23.94806], [80.5103, 23.95816]]]}}, {"type": "Feature", "properties": {"state": "Madhya Pradesh", "district": "Katni", "block": "Badwara", "gp_name": "Badwara Rural", "state_code": 23, "district_code": 445, "block_code": 3761, "gp_code": 133236, "centroid_lat": 23.9786, "centroid_lon": 80.478, "area_sq_km": 8.1, "boundary_source": "LGD Revenue Village Centroids + Block-Bounded Voronoi Tessellation", "boundary_quality": "DERIVED"}, "geometry": {"type": "Polygon", "coordinates": [[[80.49021, 23.97816], [80.49071, 23.98291], [80.48709, 23.98632], [80.48266, 23.98789], [80.47843, 23.9887], [80.46945, 23.9871], [80.46577, 23.98377], [80.46539, 23.97905], [80.47087, 23.97254], [80.47296, 23.96854], [80.47745, 23.96565], [80.48234, 23.96781], [80.48483, 23.97181], [80.49021, 23.97816]]]}}, {"type": "Feature", "properties": {"state": "Madhya Pradesh", "district": "Katni", "block": "Bahoriband", "gp_name": "Bahoriband Gram Panchayat", "state_code": 23, "district_code": 445, "block_code": 3762, "gp_code": 133237, "centroid_lat": 23.9586, "centroid_lon": 80.322, "area_sq_km": 8.2, "boundary_source": "LGD Revenue Village Centroids + Block-Bounded Voronoi Tessellation", "boundary_quality": "DERIVED"}, "geometry": {"type": "Polygon", "coordinates": [[[80.33455, 23.95816], [80.33461, 23.96289], [80.33109, 23.96635], [80.32664, 23.96788], [80.31804, 23.96842], [80.31341, 23.96712], [80.31003, 23.96365], [80.30961, 23.95903], [80.31474, 23.95242], [80.3168, 23.94819], [80.32148, 23.946], [80.3262, 23.94819], [80.3312, 23.95472], [80.33455, 23.95816]]]}}, {"type": "Feature", "properties": {"state": "Madhya Pradesh", "district": "Katni", "block": "Bahoriband", "gp_name": "Bahoriband Rural", "state_code": 23, "district_code": 445, "block_code": 3762, "gp_code": 133238, "centroid_lat": 23.9786, "centroid_lon": 80.302, "area_sq_km": 8.3, "boundary_source": "LGD Revenue Village Centroids + Block-Bounded Voronoi Tessellation", "boundary_quality": "DERIVED"}, "geometry": {"type": "Polygon", "coordinates": [[[80.31462, 23.97816], [80.31417, 23.98274], [80.31104, 23.9863], [80.30669, 23.98799], [80.30241, 23.9886], [80.29812, 23.98822], [80.29347, 23.98705], [80.29008, 23.98363], [80.28964, 23.97903], [80.29482, 23.97248], [80.29688, 23.96835], [80.30148, 23.96589], [80.30632, 23.9679], [80.30886, 23.97181], [80.31462, 23.97816]]]}}, {"type": "Feature", "properties": {"state": "Madhya Pradesh", "district": "Katni", "block": "Dheemerkheda", "gp_name": "Dheemerkheda Gram Panchayat", "state_code": 23, "district_code": 445, "block_code": 3763, "gp_code": 133239, "centroid_lat": 23.82, "centroid_lon": 80.234, "area_sq_km": 8.4, "boundary_source": "LGD Revenue Village Centroids + Block-Bounded Voronoi Tessellation", "boundary_quality": "DERIVED"}, "geometry": {"type": "Polygon", "coordinates": [[[80.24627, 23.81958], [80.24623, 23.82418], [80.24288, 23.82759], [80.23876, 23.82955], [80.23012, 23.8296], [80.22574, 23.82818], [80.22199, 23.82506], [80.22164, 23.82042], [80.2289, 23.80976], [80.23347, 23.80684], [80.23821, 23.80957], [80.24071, 23.81336], [80.24627, 23.81958]]]}}, {"type": "Feature", "properties": {"state": "Madhya Pradesh", "district": "Katni", "block": "Dheemerkheda", "gp_name": "Dheemerkheda Rural", "state_code": 23, "district_code": 445, "block_code": 3763, "gp_code": 133240, "centroid_lat": 23.84, "centroid_lon": 80.214, "area_sq_km": 8.5, "boundary_source": "LGD Revenue Village Centroids + Block-Bounded Voronoi Tessellation", "boundary_quality": "DERIVED"}, "geometry": {"type": "Polygon", "coordinates": [[[80.22606, 23.83959], [80.22674, 23.84436], [80.22322, 23.84788], [80.21858, 23.84919], [80.21439, 23.8496], [80.21021, 23.84938], [80.20572, 23.8482], [80.20216, 23.84499], [80.20191, 23.84041], [80.20661, 23.83368], [80.20871, 23.82937], [80.21348, 23.82709], [80.21827, 23.82942], [80.22606, 23.83959]]]}}, {"type": "Feature", "properties": {"state": "Madhya Pradesh", "district": "Katni", "block": "Rithi", "gp_name": "Rithi Gram Panchayat", "state_code": 23, "district_code": 445, "block_code": 3764, "gp_code": 133241, "centroid_lat": 23.6814, "centroid_lon": 80.322, "area_sq_km": 8.6, "boundary_source": "LGD Revenue Village Centroids + Block-Bounded Voronoi Tessellation", "boundary_quality": "DERIVED"}, "geometry": {"type": "Polygon", "coordinates": [[[80.33456, 23.68097], [80.33434, 23.68562], [80.33088, 23.68899], [80.32668, 23.69079], [80.3224, 23.69128], [80.31355, 23.68979], [80.30969, 23.6866], [80.30989, 23.68182], [80.31472, 23.67518], [80.31671, 23.67079], [80.32149, 23.66884], [80.32623, 23.6709], [80.32855, 23.67489], [80.33456, 23.68097]]]}}, {"type": "Feature", "properties": {"state": "Madhya Pradesh", "district": "Katni", "block": "Rithi", "gp_name": "Rithi Rural", "state_code": 23, "district_code": 445, "block_code": 3764, "gp_code": 133242, "centroid_lat": 23.7014, "centroid_lon": 80.302, "area_sq_km": 8.7, "boundary_source": "LGD Revenue Village Centroids + Block-Bounded Voronoi Tessellation", "boundary_quality": "DERIVED"}, "geometry": {"type": "Polygon", "coordinates": [[[80.31432, 23.70098], [80.31451, 23.70567], [80.31102, 23.70911], [80.30241, 23.71143], [80.29382, 23.70951], [80.29024, 23.70636], [80.28944, 23.70183], [80.29457, 23.69505], [80.29677, 23.69089], [80.30149, 23.68874], [80.3063, 23.69072], [80.30855, 23.6949], [80.3114, 23.69743], [80.31432, 23.70098]]]}}, {"type": "Feature", "properties": {"state": "Madhya Pradesh", "district": "Katni", "block": "Vijayraghavgarh", "gp_name": "Vijayraghavgarh Gram Panchayat", "state_code": 23, "district_code": 445, "block_code": 3765, "gp_code": 133243, "centroid_lat": 23.6814, "centroid_lon": 80.498, "area_sq_km": 8.8, "boundary_source": "LGD Revenue Village Centroids + Block-Bounded Voronoi Tessellation", "boundary_quality": "DERIVED"}, "geometry": {"type": "Polygon", "coordinates": [[[80.51038, 23.68096], [80.51054, 23.68567], [80.50711, 23.68917], [80.49842, 23.69146], [80.48946, 23.6899], [80.48607, 23.68646], [80.48593, 23.68183], [80.49296, 23.67132], [80.49747, 23.66881], [80.50222, 23.67089], [80.51038, 23.68096]]]}}, {"type": "Feature", "properties": {"state": "Madhya Pradesh", "district": "Katni", "block": "Vijayraghavgarh", "gp_name": "Vijayraghavgarh Rural", "state_code": 23, "district_code": 445, "block_code": 3765, "gp_code": 133244, "centroid_lat": 23.7014, "centroid_lon": 80.478, "area_sq_km": 8.9, "boundary_source": "LGD Revenue Village Centroids + Block-Bounded Voronoi Tessellation", "boundary_quality": "DERIVED"}, "geometry": {"type": "Polygon", "coordinates": [[[80.49018, 23.70097], [80.4906, 23.70569], [80.48677, 23.70888], [80.48268, 23.71077], [80.47842, 23.71148], [80.46955, 23.7098], [80.46592, 23.70652], [80.46587, 23.70183], [80.46866, 23.69822], [80.47286, 23.69112], [80.47747, 23.68883], [80.4823, 23.69068], [80.49018, 23.70097]]]}}]}