{"type": "FeatureCollection", "features": [{"type": "Feature", "properties": {"state": "Madhya Pradesh", "district": "Neemuch", "block": "Neemuch", "gp_name": "Neemuch Gram Panchayat", "state_code": 23, "district_code": 446, "block_code": 3900, "gp_code": 133325, "centroid_lat": 24.46, "centroid_lon": 75.012, "area_sq_km": 7.0, "boundary_source": "LGD Revenue Village Centroids + Block-Bounded Voronoi Tessellation", "boundary_quality": "DERIVED"}, "geometry": {"type": "Polygon", "coordinates": [[[75.02476, 24.46], [75.02419, 24.46462], [75.02073, 24.46798], [75.0164, 24.46972], [75.00761, 24.4697], [75.00323, 24.46803], [74.9994, 24.46478], [74.99972, 24.46], [75.00225, 24.4563], [75.00483, 24.45344], [75.0072, 24.4494], [75.012, 24.44719], [75.01685, 24.44928], [75.01899, 24.4536], [75.02476, 24.46]]]}}, {"type": "Feature", "properties": {"state": "Madhya Pradesh", "district": "Neemuch", "block": "Neemuch", "gp_name": "Neemuch Rural", "state_code": 23, "district_code": 446, "block_code": 3900, "gp_code": 133326, "centroid_lat": 24.48, "centroid_lon": 74.992, "area_sq_km": 7.1, "boundary_source": "LGD Revenue Village Centroids + Block-Bounded Voronoi Tessellation", "boundary_quality": "DERIVED"}, "geometry": {"type": "Polygon", "coordinates": [[[75.00458, 24.48], [75.00441, 24.4847], [75.00092, 24.48816], [74.99623, 24.48934], [74.992, 24.49003], [74.98299, 24.48825], [74.97956, 24.48471], [74.97939, 24.48], [74.98507, 24.47366], [74.98712, 24.46923], [74.992, 24.46717], [74.99673, 24.46954], [75.00129, 24.47648], [75.00458, 24.48]]]}}, {"type": "Feature", "properties": {"state": "Madhya Pradesh", "district": "Neemuch", "block": "Jawad", "gp_name": "Jawad Gram Panchayat", "state_code": 23, "district_code": 446, "block_code": 3901, "gp_code": 133327, "centroid_lat": 24.5639, "centroid_lon": 74.814, "area_sq_km": 7.2, "boundary_source": "LGD Revenue Village Centroids + Block-Bounded Voronoi Tessellation", "boundary_quality": "DERIVED"}, "geometry": {"type": "Polygon", "coordinates": [[[74.82655, 24.56391], [74.82658, 24.56868], [74.823, 24.57216], [74.81837, 24.57359], [74.80973, 24.5733], [74.80543, 24.57171], [74.80186, 24.56848], [74.80157, 24.56388], [74.80478, 24.5604], [74.80922, 24.5533], [74.81402, 24.55096], [74.8188, 24.55334], [74.82127, 24.55726], [74.82655, 24.56391]]]}}, {"type": "Feature", "properties": {"state": "Madhya Pradesh", "district": "Neemuch", "block": "Jawad", "gp_name": "Jawad Rural", "state_code": 23, "district_code": 446, "block_code": 3901, "gp_code": 133328, "centroid_lat": 24.5839, "centroid_lon": 74.794, "area_sq_km": 7.3, "boundary_source": "LGD Revenue Village Centroids + Block-Bounded Voronoi Tessellation", "boundary_quality": "DERIVED"}, "geometry": {"type": "Polygon", "coordinates": [[[74.80624, 24.58392], [74.8066, 24.58869], [74.80266, 24.59184], [74.79827, 24.59337], [74.79398, 24.59393], [74.78501, 24.59209], [74.78173, 24.58853], [74.78142, 24.58388], [74.787, 24.57748], [74.78918, 24.57322], [74.79402, 24.57093], [74.79883, 24.57329], [74.80122, 24.57732], [74.80624, 24.58392]]]}}, {"type": "Feature", "properties": {"state": "Madhya Pradesh", "district": "Neemuch", "block": "Manasa", "gp_name": "Manasa Gram Panchayat", "state_code": 23, "district_code": 446, "block_code": 3902, "gp_code": 133329, "centroid_lat": 24.3561, "centroid_lon": 74.814, "area_sq_km": 7.4, "boundary_source": "LGD Revenue Village Centroids + Block-Bounded Voronoi Tessellation", "boundary_quality": "DERIVED"}, "geometry": {"type": "Polygon", "coordinates": [[[74.82636, 24.35611], [74.82608, 24.3607], [74.82295, 24.36432], [74.81827, 24.36558], [74.80961, 24.36576], [74.80524, 24.3641], [74.8018, 24.36071], [74.80155, 24.35608], [74.80924, 24.34554], [74.81402, 24.34318], [74.81883, 24.34546], [74.82118, 24.34954], [74.82385, 24.35238], [74.82636, 24.35611]]]}}, {"type": "Feature", "properties": {"state": "Madhya Pradesh", "district": "Neemuch", "block": "Manasa", "gp_name": "Manasa Rural", "state_code": 23, "district_code": 446, "block_code": 3902, "gp_code": 133330, "centroid_lat": 24.3761, "centroid_lon": 74.794, "area_sq_km": 7.5, "boundary_source": "LGD Revenue Village Centroids + Block-Bounded Voronoi Tessellation", "boundary_quality": "DERIVED"}, "geometry": {"type": "Polygon", "coordinates": [[[74.80629, 24.37612], [74.80614, 24.38073], [74.80267, 24.38406], [74.79835, 24.38575], [74.78976, 24.38543], [74.78502, 24.3843], [74.78136, 24.38088], [74.78136, 24.37608], [74.78473, 24.37257], [74.7892, 24.36544], [74.79402, 24.36334], [74.79887, 24.36538], [74.80088, 24.36982], [74.80373, 24.37242], [74.80629, 24.37612]]]}}]}