{"type": "FeatureCollection", "features": [{"type": "Feature", "properties": {"state": "Madhya Pradesh", "district": "Sheopur", "block": "Sheopur", "gp_name": "Sheopur Gram Panchayat", "state_code": 23, "district_code": 447, "block_code": 4160, "gp_code": 133489, "centroid_lat": 25.65, "centroid_lon": 76.832, "area_sq_km": 8.4, "boundary_source": "LGD Revenue Village Centroids + Block-Bounded Voronoi Tessellation", "boundary_quality": "DERIVED"}, "geometry": {"type": "Polygon", "coordinates": [[[76.84421, 25.64985], [76.84432, 25.65445], [76.84114, 25.65805], [76.83653, 25.65953], [76.82785, 25.65945], [76.82309, 25.65831], [76.81952, 25.65487], [76.81958, 25.65016], [76.82212, 25.64643], [76.82708, 25.63963], [76.83181, 25.63736], [76.83671, 25.63927], [76.84129, 25.64638], [76.84421, 25.64985]]]}}, {"type": "Feature", "properties": {"state": "Madhya Pradesh", "district": "Sheopur", "block": "Sheopur", "gp_name": "Sheopur Rural", "state_code": 23, "district_code": 447, "block_code": 4160, "gp_code": 133490, "centroid_lat": 25.67, "centroid_lon": 76.812, "area_sq_km": 8.5, "boundary_source": "LGD Revenue Village Centroids + Block-Bounded Voronoi Tessellation", "boundary_quality": "DERIVED"}, "geometry": {"type": "Polygon", "coordinates": [[[76.82443, 25.66985], [76.82447, 25.6745], [76.82079, 25.67775], [76.81647, 25.67942], [76.81215, 25.67989], [76.8078, 25.67957], [76.8034, 25.67801], [76.79931, 25.67495], [76.79974, 25.67015], [76.80203, 25.6664], [76.80468, 25.66354], [76.80694, 25.65935], [76.81181, 25.65718], [76.81669, 25.65932], [76.81907, 25.66342], [76.82443, 25.66985]]]}}, {"type": "Feature", "properties": {"state": "Madhya Pradesh", "district": "Sheopur", "block": "Karahal", "gp_name": "Karahal Gram Panchayat", "state_code": 23, "district_code": 447, "block_code": 4161, "gp_code": 133491, "centroid_lat": 25.7539, "centroid_lon": 76.634, "area_sq_km": 8.6, "boundary_source": "LGD Revenue Village Centroids + Block-Bounded Voronoi Tessellation", "boundary_quality": "DERIVED"}, "geometry": {"type": "Polygon", "coordinates": [[[76.64659, 25.75376], [76.64672, 25.7585], [76.64312, 25.76195], [76.63858, 25.76357], [76.62983, 25.76334], [76.62507, 25.76219], [76.62174, 25.75866], [76.62161, 25.75404], [76.62696, 25.74768], [76.62914, 25.74363], [76.63383, 25.74115], [76.63857, 25.74354], [76.64093, 25.74747], [76.64381, 25.75009], [76.64659, 25.75376]]]}}, {"type": "Feature", "properties": {"state": "Madhya Pradesh", "district": "Sheopur", "block": "Karahal", "gp_name": "Karahal Rural", "state_code": 23, "district_code": 447, "block_code": 4161, "gp_code": 133492, "centroid_lat": 25.7739, "centroid_lon": 76.614, "area_sq_km": 8.7, "boundary_source": "LGD Revenue Village Centroids + Block-Bounded Voronoi Tessellation", "boundary_quality": "DERIVED"}, "geometry": {"type": "Polygon", "coordinates": [[[76.62635, 25.77376], [76.62669, 25.7785], [76.62308, 25.78192], [76.61844, 25.78327], [76.60991, 25.78315], [76.6053, 25.78197], [76.60135, 25.77881], [76.60167, 25.77404], [76.6041, 25.77031], [76.60912, 25.7636], [76.61383, 25.7612], [76.61869, 25.76328], [76.62095, 25.76745], [76.62635, 25.77376]]]}}, {"type": "Feature", "properties": {"state": "Madhya Pradesh", "district": "Sheopur", "block": "Vijaypur", "gp_name": "Vijaypur Gram Panchayat", "state_code": 23, "district_code": 447, "block_code": 4162, "gp_code": 133493, "centroid_lat": 25.5461, "centroid_lon": 76.634, "area_sq_km": 8.8, "boundary_source": "LGD Revenue Village Centroids + Block-Bounded Voronoi Tessellation", "boundary_quality": "DERIVED"}, "geometry": {"type": "Polygon", "coordinates": [[[76.64689, 25.54596], [76.64626, 25.55055], [76.64311, 25.55416], [76.63845, 25.55551], [76.6299, 25.55539], [76.62535, 25.55414], [76.62169, 25.55088], [76.6218, 25.54624], [76.62674, 25.53968], [76.62899, 25.5355], [76.63383, 25.53353], [76.63857, 25.53574], [76.64104, 25.53955], [76.64689, 25.54596]]]}}, {"type": "Feature", "properties": {"state": "Madhya Pradesh", "district": "Sheopur", "block": "Vijaypur", "gp_name": "Vijaypur Rural", "state_code": 23, "district_code": 447, "block_code": 4162, "gp_code": 133494, "centroid_lat": 25.5661, "centroid_lon": 76.614, "area_sq_km": 8.9, "boundary_source": "LGD Revenue Village Centroids + Block-Bounded Voronoi Tessellation", "boundary_quality": "DERIVED"}, "geometry": {"type": "Polygon", "coordinates": [[[76.62648, 25.56596], [76.62655, 25.57065], [76.62288, 25.57396], [76.61848, 25.57559], [76.61413, 25.57601], [76.60973, 25.57577], [76.60504, 25.57443], [76.60192, 25.5708], [76.6013, 25.56624], [76.60693, 25.55984], [76.60904, 25.55561], [76.61383, 25.55326], [76.61859, 25.55569], [76.62648, 25.56596]]]}}]}