{"type": "FeatureCollection", "features": [{"type": "Feature", "properties": {"state": "Madhya Pradesh", "district": "Alirajpur", "block": "Alirajpur", "gp_name": "Alirajpur Gram Panchayat", "state_code": 23, "district_code": 629, "block_code": 3320, "gp_code": 133009, "centroid_lat": 22.29, "centroid_lon": 74.492, "area_sq_km": 5.4, "boundary_source": "LGD Revenue Village Centroids + Block-Bounded Voronoi Tessellation", "boundary_quality": "DERIVED"}, "geometry": {"type": "Polygon", "coordinates": [[[74.50425, 22.29004], [74.50388, 22.29462], [74.50085, 22.29829], [74.49632, 22.29979], [74.49196, 22.30017], [74.48777, 22.29942], [74.48347, 22.29788], [74.47996, 22.2946], [74.47968, 22.28996], [74.48499, 22.28343], [74.48734, 22.27944], [74.49205, 22.27732], [74.4968, 22.27932], [74.50134, 22.28643], [74.50425, 22.29004]]]}}, {"type": "Feature", "properties": {"state": "Madhya Pradesh", "district": "Alirajpur", "block": "Alirajpur", "gp_name": "Alirajpur Rural", "state_code": 23, "district_code": 629, "block_code": 3320, "gp_code": 133010, "centroid_lat": 22.31, "centroid_lon": 74.472, "area_sq_km": 5.5, "boundary_source": "LGD Revenue Village Centroids + Block-Bounded Voronoi Tessellation", "boundary_quality": "DERIVED"}, "geometry": {"type": "Polygon", "coordinates": [[[74.48447, 22.31004], [74.48398, 22.31466], [74.48078, 22.31822], [74.47609, 22.31928], [74.46783, 22.31928], [74.46326, 22.31807], [74.46008, 22.31455], [74.45972, 22.30996], [74.46275, 22.3064], [74.46731, 22.29936], [74.47205, 22.2971], [74.47687, 22.29917], [74.47894, 22.30359], [74.48447, 22.31004]]]}}, {"type": "Feature", "properties": {"state": "Madhya Pradesh", "district": "Alirajpur", "block": "Bhabhra", "gp_name": "Bhabhra Gram Panchayat", "state_code": 23, "district_code": 629, "block_code": 3321, "gp_code": 133011, "centroid_lat": 22.4041, "centroid_lon": 74.4008, "area_sq_km": 5.6, "boundary_source": "LGD Revenue Village Centroids + Block-Bounded Voronoi Tessellation", "boundary_quality": "DERIVED"}, "geometry": {"type": "Polygon", "coordinates": [[[74.41321, 22.40415], [74.4127, 22.40873], [74.40954, 22.41229], [74.4051, 22.41386], [74.40076, 22.41412], [74.39653, 22.41358], [74.3921, 22.41212], [74.38887, 22.40864], [74.38837, 22.40405], [74.39395, 22.39768], [74.39625, 22.39377], [74.40086, 22.39121], [74.4056, 22.39345], [74.40784, 22.3976], [74.41321, 22.40415]]]}}, {"type": "Feature", "properties": {"state": "Madhya Pradesh", "district": "Alirajpur", "block": "Bhabhra", "gp_name": "Bhabhra Rural", "state_code": 23, "district_code": 629, "block_code": 3321, "gp_code": 133012, "centroid_lat": 22.4241, "centroid_lon": 74.3808, "area_sq_km": 5.7, "boundary_source": "LGD Revenue Village Centroids + Block-Bounded Voronoi Tessellation", "boundary_quality": "DERIVED"}, "geometry": {"type": "Polygon", "coordinates": [[[74.39328, 22.42415], [74.39325, 22.42895], [74.38919, 22.43196], [74.38486, 22.43332], [74.38076, 22.43408], [74.37648, 22.43368], [74.37207, 22.43215], [74.36857, 22.42876], [74.36856, 22.42405], [74.37377, 22.41751], [74.37615, 22.41353], [74.38086, 22.41131], [74.38559, 22.41347], [74.38988, 22.42064], [74.39328, 22.42415]]]}}, {"type": "Feature", "properties": {"state": "Madhya Pradesh", "district": "Alirajpur", "block": "Katthiwada", "gp_name": "Katthiwada Gram Panchayat", "state_code": 23, "district_code": 629, "block_code": 3322, "gp_code": 133013, "centroid_lat": 22.3605, "centroid_lon": 74.2532, "area_sq_km": 5.8, "boundary_source": "LGD Revenue Village Centroids + Block-Bounded Voronoi Tessellation", "boundary_quality": "DERIVED"}, "geometry": {"type": "Polygon", "coordinates": [[[74.26563, 22.36056], [74.26509, 22.36514], [74.2619, 22.36867], [74.25729, 22.36982], [74.25315, 22.37036], [74.24888, 22.37006], [74.2443, 22.36869], [74.24069, 22.36525], [74.24128, 22.36044], [74.24858, 22.34998], [74.25327, 22.3475], [74.25789, 22.35012], [74.26563, 22.36056]]]}}, {"type": "Feature", "properties": {"state": "Madhya Pradesh", "district": "Alirajpur", "block": "Katthiwada", "gp_name": "Katthiwada Rural", "state_code": 23, "district_code": 629, "block_code": 3322, "gp_code": 133014, "centroid_lat": 22.3805, "centroid_lon": 74.2332, "area_sq_km": 5.9, "boundary_source": "LGD Revenue Village Centroids + Block-Bounded Voronoi Tessellation", "boundary_quality": "DERIVED"}, "geometry": {"type": "Polygon", "coordinates": [[[74.24562, 22.38056], [74.24506, 22.38514], [74.24161, 22.3884], [74.23748, 22.39025], [74.22895, 22.3899], [74.22437, 22.38863], [74.22075, 22.38522], [74.22124, 22.38044], [74.22363, 22.37676], [74.2264, 22.37411], [74.22869, 22.37022], [74.23327, 22.3676], [74.23809, 22.36968], [74.24025, 22.37401], [74.24562, 22.38056]]]}}, {"type": "Feature", "properties": {"state": "Madhya Pradesh", "district": "Alirajpur", "block": "Sondwa", "gp_name": "Sondwa Gram Panchayat", "state_code": 23, "district_code": 629, "block_code": 3323, "gp_code": 133015, "centroid_lat": 22.2195, "centroid_lon": 74.2532, "area_sq_km": 6.0, "boundary_source": "LGD Revenue Village Centroids + Block-Bounded Voronoi Tessellation", "boundary_quality": "DERIVED"}, "geometry": {"type": "Polygon", "coordinates": [[[74.26537, 22.21956], [74.26551, 22.22431], [74.26168, 22.22747], [74.25726, 22.22875], [74.25315, 22.22949], [74.24884, 22.22917], [74.24434, 22.22767], [74.24094, 22.22416], [74.24066, 22.21944], [74.24416, 22.21597], [74.24847, 22.20872], [74.25327, 22.20665], [74.25793, 22.20901], [74.26017, 22.21307], [74.26537, 22.21956]]]}}, {"type": "Feature", "properties": {"state": "Madhya Pradesh", "district": "Alirajpur", "block": "Sondwa", "gp_name": "Sondwa Rural", "state_code": 23, "district_code": 629, "block_code": 3323, "gp_code": 133016, "centroid_lat": 22.2395, "centroid_lon": 74.2332, "area_sq_km": 6.1, "boundary_source": "LGD Revenue Village Centroids + Block-Bounded Voronoi Tessellation", "boundary_quality": "DERIVED"}, "geometry": {"type": "Polygon", "coordinates": [[[74.24568, 22.23956], [74.24534, 22.24425], [74.24176, 22.24755], [74.23726, 22.24876], [74.2289, 22.24902], [74.22457, 22.24745], [74.22088, 22.24418], [74.22082, 22.23944], [74.22647, 22.23317], [74.22847, 22.22872], [74.23327, 22.22634], [74.23802, 22.22882], [74.24005, 22.23319], [74.24568, 22.23956]]]}}, {"type": "Feature", "properties": {"state": "Madhya Pradesh", "district": "Alirajpur", "block": "Udaygarh", "gp_name": "Udaygarh Gram Panchayat", "state_code": 23, "district_code": 629, "block_code": 3324, "gp_code": 133017, "centroid_lat": 22.1759, "centroid_lon": 74.4008, "area_sq_km": 6.2, "boundary_source": "LGD Revenue Village Centroids + Block-Bounded Voronoi Tessellation", "boundary_quality": "DERIVED"}, "geometry": {"type": "Polygon", "coordinates": [[[74.41331, 22.17595], [74.41298, 22.18065], [74.4093, 22.18388], [74.4051, 22.18567], [74.3965, 22.18546], [74.39204, 22.18399], [74.38844, 22.18062], [74.38891, 22.17586], [74.3912, 22.17215], [74.39387, 22.1694], [74.39605, 22.1651], [74.40085, 22.16322], [74.40556, 22.16533], [74.40767, 22.16956], [74.41331, 22.17595]]]}}, {"type": "Feature", "properties": {"state": "Madhya Pradesh", "district": "Alirajpur", "block": "Udaygarh", "gp_name": "Udaygarh Rural", "state_code": 23, "district_code": 629, "block_code": 3324, "gp_code": 133018, "centroid_lat": 22.1959, "centroid_lon": 74.3808, "area_sq_km": 6.3, "boundary_source": "LGD Revenue Village Centroids + Block-Bounded Voronoi Tessellation", "boundary_quality": "DERIVED"}, "geometry": {"type": "Polygon", "coordinates": [[[74.39318, 22.19595], [74.39313, 22.20071], [74.3895, 22.20407], [74.38076, 22.20558], [74.37653, 22.2054], [74.37219, 22.20385], [74.36879, 22.20048], [74.36835, 22.19585], [74.37177, 22.19237], [74.37603, 22.18504], [74.38086, 22.18332], [74.38551, 22.18543], [74.38785, 22.18939], [74.39318, 22.19595]]]}}]}