{"type": "FeatureCollection", "features": [{"type": "Feature", "properties": {"state": "Madhya Pradesh", "district": "Mauganj", "block": "Mauganj", "gp_name": "Mauganj Gram Panchayat", "state_code": 23, "district_code": 745, "block_code": 4340, "gp_code": 133579, "centroid_lat": 24.67, "centroid_lon": 82.012, "area_sq_km": 7.4, "boundary_source": "LGD Revenue Village Centroids + Block-Bounded Voronoi Tessellation", "boundary_quality": "DERIVED"}, "geometry": {"type": "Polygon", "coordinates": [[[82.02451, 24.66941], [82.02464, 24.6741], [82.02106, 24.67747], [82.01685, 24.67932], [82.01256, 24.67989], [82.00825, 24.67965], [82.0038, 24.67831], [81.99998, 24.67522], [81.99932, 24.67059], [82.00468, 24.66396], [82.00669, 24.6598], [82.01128, 24.65712], [82.01624, 24.6591], [82.01871, 24.66321], [82.02451, 24.66941]]]}}, {"type": "Feature", "properties": {"state": "Madhya Pradesh", "district": "Mauganj", "block": "Mauganj", "gp_name": "Mauganj Rural", "state_code": 23, "district_code": 745, "block_code": 4340, "gp_code": 133580, "centroid_lat": 24.69, "centroid_lon": 81.992, "area_sq_km": 7.5, "boundary_source": "LGD Revenue Village Centroids + Block-Bounded Voronoi Tessellation", "boundary_quality": "DERIVED"}, "geometry": {"type": "Polygon", "coordinates": [[[82.00437, 24.68942], [82.00468, 24.69412], [82.00108, 24.69749], [81.99256, 24.69998], [81.98818, 24.69983], [81.98384, 24.69826], [81.97971, 24.69534], [81.97941, 24.69059], [81.98252, 24.68692], [81.98674, 24.67988], [81.9913, 24.67748], [81.9961, 24.67946], [81.99854, 24.68337], [82.00437, 24.68942]]]}}, {"type": "Feature", "properties": {"state": "Madhya Pradesh", "district": "Mauganj", "block": "Hanumana", "gp_name": "Hanumana Gram Panchayat", "state_code": 23, "district_code": 745, "block_code": 4341, "gp_code": 133581, "centroid_lat": 24.7739, "centroid_lon": 81.814, "area_sq_km": 7.6, "boundary_source": "LGD Revenue Village Centroids + Block-Bounded Voronoi Tessellation", "boundary_quality": "DERIVED"}, "geometry": {"type": "Polygon", "coordinates": [[[81.82647, 24.77333], [81.82636, 24.77792], [81.82317, 24.78147], [81.81875, 24.78305], [81.81452, 24.78343], [81.80548, 24.7825], [81.80189, 24.77914], [81.80166, 24.77446], [81.80875, 24.76378], [81.81331, 24.76137], [81.81807, 24.76347], [81.82306, 24.76998], [81.82647, 24.77333]]]}}, {"type": "Feature", "properties": {"state": "Madhya Pradesh", "district": "Mauganj", "block": "Hanumana", "gp_name": "Hanumana Rural", "state_code": 23, "district_code": 745, "block_code": 4341, "gp_code": 133582, "centroid_lat": 24.7939, "centroid_lon": 81.794, "area_sq_km": 7.7, "boundary_source": "LGD Revenue Village Centroids + Block-Bounded Voronoi Tessellation", "boundary_quality": "DERIVED"}, "geometry": {"type": "Polygon", "coordinates": [[[81.8064, 24.79333], [81.80648, 24.79796], [81.80299, 24.80132], [81.79869, 24.80293], [81.79454, 24.8038], [81.78563, 24.80234], [81.78165, 24.79924], [81.78179, 24.79446], [81.7845, 24.79081], [81.78864, 24.78358], [81.7933, 24.78107], [81.79828, 24.78295], [81.80088, 24.78695], [81.8064, 24.79333]]]}}, {"type": "Feature", "properties": {"state": "Madhya Pradesh", "district": "Mauganj", "block": "Naigarhi", "gp_name": "Naigarhi Gram Panchayat", "state_code": 23, "district_code": 745, "block_code": 4342, "gp_code": 133583, "centroid_lat": 24.5661, "centroid_lon": 81.814, "area_sq_km": 7.8, "boundary_source": "LGD Revenue Village Centroids + Block-Bounded Voronoi Tessellation", "boundary_quality": "DERIVED"}, "geometry": {"type": "Polygon", "coordinates": [[[81.82653, 24.56553], [81.82638, 24.57014], [81.82324, 24.57375], [81.81454, 24.57603], [81.81024, 24.57574], [81.80553, 24.57466], [81.80209, 24.57126], [81.80143, 24.56667], [81.80443, 24.56297], [81.80867, 24.5558], [81.81331, 24.55341], [81.81821, 24.55532], [81.82299, 24.56221], [81.82653, 24.56553]]]}}, {"type": "Feature", "properties": {"state": "Madhya Pradesh", "district": "Mauganj", "block": "Naigarhi", "gp_name": "Naigarhi Rural", "state_code": 23, "district_code": 745, "block_code": 4342, "gp_code": 133584, "centroid_lat": 24.5861, "centroid_lon": 81.794, "area_sq_km": 7.9, "boundary_source": "LGD Revenue Village Centroids + Block-Bounded Voronoi Tessellation", "boundary_quality": "DERIVED"}, "geometry": {"type": "Polygon", "coordinates": [[[81.80649, 24.58553], [81.80673, 24.59026], [81.80323, 24.59374], [81.79866, 24.59511], [81.79014, 24.59599], [81.7858, 24.59438], [81.78177, 24.59139], [81.78162, 24.58666], [81.78681, 24.58015], [81.78875, 24.57595], [81.79332, 24.57352], [81.79816, 24.57544], [81.80071, 24.57932], [81.80649, 24.58553]]]}}]}