{"type": "FeatureCollection", "features": [{"type": "Feature", "properties": {"state": "Madhya Pradesh", "district": "Maihar", "block": "Maihar", "gp_name": "Maihar Gram Panchayat", "state_code": 23, "district_code": 746, "block_code": 4360, "gp_code": 133585, "centroid_lat": 24.26, "centroid_lon": 80.902, "area_sq_km": 8.0, "boundary_source": "LGD Revenue Village Centroids + Block-Bounded Voronoi Tessellation", "boundary_quality": "DERIVED"}, "geometry": {"type": "Polygon", "coordinates": [[[80.91417, 24.25953], [80.91444, 24.26417], [80.91088, 24.26747], [80.90665, 24.26917], [80.90246, 24.27003], [80.89819, 24.26956], [80.89368, 24.26831], [80.89021, 24.26502], [80.88932, 24.26049], [80.89484, 24.25397], [80.8967, 24.24954], [80.9014, 24.24712], [80.9062, 24.24947], [80.91101, 24.25616], [80.91417, 24.25953]]]}}, {"type": "Feature", "properties": {"state": "Madhya Pradesh", "district": "Maihar", "block": "Maihar", "gp_name": "Maihar Rural", "state_code": 23, "district_code": 746, "block_code": 4360, "gp_code": 133586, "centroid_lat": 24.28, "centroid_lon": 80.882, "area_sq_km": 8.1, "boundary_source": "LGD Revenue Village Centroids + Block-Bounded Voronoi Tessellation", "boundary_quality": "DERIVED"}, "geometry": {"type": "Polygon", "coordinates": [[[80.89427, 24.27952], [80.89423, 24.2841], [80.89122, 24.28776], [80.88666, 24.28918], [80.88245, 24.28974], [80.87822, 24.28947], [80.87361, 24.28837], [80.87019, 24.28503], [80.86991, 24.28047], [80.8745, 24.27369], [80.87667, 24.26949], [80.88141, 24.26726], [80.88624, 24.26936], [80.89427, 24.27952]]]}}, {"type": "Feature", "properties": {"state": "Madhya Pradesh", "district": "Maihar", "block": "Amarpatan", "gp_name": "Amarpatan Gram Panchayat", "state_code": 23, "district_code": 746, "block_code": 4361, "gp_code": 133587, "centroid_lat": 24.3639, "centroid_lon": 80.704, "area_sq_km": 8.2, "boundary_source": "LGD Revenue Village Centroids + Block-Bounded Voronoi Tessellation", "boundary_quality": "DERIVED"}, "geometry": {"type": "Polygon", "coordinates": [[[80.71661, 24.36342], [80.71645, 24.36808], [80.71328, 24.37172], [80.70446, 24.37403], [80.69549, 24.37236], [80.6921, 24.36895], [80.6915, 24.36437], [80.69409, 24.36057], [80.69682, 24.35784], [80.69887, 24.35375], [80.70343, 24.35113], [80.70818, 24.35345], [80.71064, 24.3573], [80.71661, 24.36342]]]}}, {"type": "Feature", "properties": {"state": "Madhya Pradesh", "district": "Maihar", "block": "Amarpatan", "gp_name": "Amarpatan Rural", "state_code": 23, "district_code": 746, "block_code": 4361, "gp_code": 133588, "centroid_lat": 24.3839, "centroid_lon": 80.684, "area_sq_km": 8.3, "boundary_source": "LGD Revenue Village Centroids + Block-Bounded Voronoi Tessellation", "boundary_quality": "DERIVED"}, "geometry": {"type": "Polygon", "coordinates": [[[80.69662, 24.38342], [80.69621, 24.388], [80.69324, 24.3917], [80.68882, 24.39344], [80.68019, 24.39341], [80.67584, 24.39201], [80.67194, 24.38901], [80.67174, 24.38436], [80.67684, 24.37786], [80.67884, 24.37369], [80.68343, 24.37118], [80.68823, 24.37335], [80.69309, 24.38004], [80.69662, 24.38342]]]}}, {"type": "Feature", "properties": {"state": "Madhya Pradesh", "district": "Maihar", "block": "Ramnagar", "gp_name": "Ramnagar Gram Panchayat", "state_code": 23, "district_code": 746, "block_code": 4362, "gp_code": 133589, "centroid_lat": 24.1561, "centroid_lon": 80.704, "area_sq_km": 8.4, "boundary_source": "LGD Revenue Village Centroids + Block-Bounded Voronoi Tessellation", "boundary_quality": "DERIVED"}, "geometry": {"type": "Polygon", "coordinates": [[[80.71633, 24.15564], [80.71623, 24.16022], [80.71321, 24.16389], [80.70861, 24.16524], [80.70444, 24.16594], [80.7002, 24.16559], [80.69585, 24.16422], [80.69185, 24.16126], [80.69157, 24.15657], [80.69465, 24.15295], [80.69879, 24.14577], [80.70342, 24.14299], [80.70834, 24.14526], [80.71067, 24.14946], [80.71633, 24.15564]]]}}, {"type": "Feature", "properties": {"state": "Madhya Pradesh", "district": "Maihar", "block": "Ramnagar", "gp_name": "Ramnagar Rural", "state_code": 23, "district_code": 746, "block_code": 4362, "gp_code": 133590, "centroid_lat": 24.1761, "centroid_lon": 80.684, "area_sq_km": 8.5, "boundary_source": "LGD Revenue Village Centroids + Block-Bounded Voronoi Tessellation", "boundary_quality": "DERIVED"}, "geometry": {"type": "Polygon", "coordinates": [[[80.69606, 24.17565], [80.69638, 24.18027], [80.69311, 24.1838], [80.68861, 24.18525], [80.68445, 24.18616], [80.68013, 24.18577], [80.67552, 24.18455], [80.67174, 24.18131], [80.67181, 24.17656], [80.6767, 24.16992], [80.67888, 24.16594], [80.68342, 24.16312], [80.68818, 24.16566], [80.69069, 24.16944], [80.69606, 24.17565]]]}}]}