{"type": "FeatureCollection", "features": [{"type": "Feature", "properties": {"state": "Madhya Pradesh", "district": "Pandhurna", "block": "Pandhurna", "gp_name": "Pandhurna Gram Panchayat", "state_code": 23, "district_code": 747, "block_code": 4380, "gp_code": 133591, "centroid_lat": 21.59, "centroid_lon": 78.672, "area_sq_km": 8.6, "boundary_source": "LGD Revenue Village Centroids + Block-Bounded Voronoi Tessellation", "boundary_quality": "DERIVED"}, "geometry": {"type": "Polygon", "coordinates": [[[78.68415, 21.58973], [78.68449, 21.59452], [78.68063, 21.5977], [78.67649, 21.5995], [78.67225, 21.59996], [78.66355, 21.59828], [78.66022, 21.59487], [78.66006, 21.59026], [78.66501, 21.58376], [78.66709, 21.5796], [78.67168, 21.57713], [78.67639, 21.57937], [78.67887, 21.58326], [78.68415, 21.58973]]]}}, {"type": "Feature", "properties": {"state": "Madhya Pradesh", "district": "Pandhurna", "block": "Pandhurna", "gp_name": "Pandhurna Rural", "state_code": 23, "district_code": 747, "block_code": 4380, "gp_code": 133592, "centroid_lat": 21.61, "centroid_lon": 78.652, "area_sq_km": 8.7, "boundary_source": "LGD Revenue Village Centroids + Block-Bounded Voronoi Tessellation", "boundary_quality": "DERIVED"}, "geometry": {"type": "Polygon", "coordinates": [[[78.66442, 21.60973], [78.66396, 21.61433], [78.6609, 21.61794], [78.65639, 21.61929], [78.65225, 21.62011], [78.64816, 21.61927], [78.64377, 21.61807], [78.64001, 21.61495], [78.63971, 21.61027], [78.64505, 21.6038], [78.64699, 21.5994], [78.65168, 21.59718], [78.6565, 21.59912], [78.65878, 21.60336], [78.66442, 21.60973]]]}}, {"type": "Feature", "properties": {"state": "Madhya Pradesh", "district": "Pandhurna", "block": "Sausar", "gp_name": "Sausar Gram Panchayat", "state_code": 23, "district_code": 747, "block_code": 4381, "gp_code": 133593, "centroid_lat": 21.59, "centroid_lon": 78.408, "area_sq_km": 8.8, "boundary_source": "LGD Revenue Village Centroids + Block-Bounded Voronoi Tessellation", "boundary_quality": "DERIVED"}, "geometry": {"type": "Polygon", "coordinates": [[[78.41984, 21.58976], [78.42027, 21.59446], [78.41691, 21.59798], [78.40824, 21.60013], [78.40399, 21.59966], [78.39967, 21.59814], [78.3958, 21.59502], [78.3957, 21.59025], [78.40095, 21.58369], [78.40308, 21.57954], [78.40771, 21.57741], [78.4125, 21.57917], [78.41984, 21.58976]]]}}, {"type": "Feature", "properties": {"state": "Madhya Pradesh", "district": "Pandhurna", "block": "Sausar", "gp_name": "Sausar Rural", "state_code": 23, "district_code": 747, "block_code": 4381, "gp_code": 133594, "centroid_lat": 21.61, "centroid_lon": 78.388, "area_sq_km": 8.9, "boundary_source": "LGD Revenue Village Centroids + Block-Bounded Voronoi Tessellation", "boundary_quality": "DERIVED"}, "geometry": {"type": "Polygon", "coordinates": [[[78.39998, 21.60976], [78.40039, 21.61451], [78.39684, 21.61792], [78.3925, 21.61956], [78.38413, 21.61931], [78.37955, 21.61826], [78.37596, 21.61495], [78.37559, 21.61025], [78.38306, 21.5995], [78.3877, 21.59729], [78.39231, 21.59965], [78.39465, 21.6035], [78.39998, 21.60976]]]}}]}