{"type": "FeatureCollection", "features": [{"type": "Feature", "properties": {"name": "India's claimed extent in Kashmir, as a silhouette", "source": "Natural Earth 10m admin-0 disputed areas (public domain), features where ADM0_A3_IN == IND, fused with the rendered IN-JK/IN-LA districts", "note": "Outline only. Carries no forecast or observation value; the districts drawn on top of it do."}, "geometry": {"type": "Polygon", "coordinates": [[[74.7987730619854, 32.48433950934335], [74.69830634057568, 32.4849396805512], [74.68080568587851, 32.5383549180499], [74.65228610044608, 32.559961081532514], [74.64191534210701, 32.61097563419981], [74.67562030670898, 32.66559121411421], [74.6503415832575, 32.71840628040505], [74.70025085776426, 32.82703726902599], [74.68080568587851, 32.83844052197515], [74.64191534210701, 32.822836070571036], [74.64126716971083, 32.79162716776281], [74.61404392907077, 32.75741740891533], [74.53172603475443, 32.74061261509552], [74.46626062273907, 32.781424257229354], [74.42996296855235, 32.84444223405366], [74.42477758938281, 32.89305610188955], [74.40598058989325, 32.90686003967011], [74.347645074236, 32.90806038208581], [74.32740273310455, 32.91580216758318], [74.33378788300007, 32.849262187000036], [74.31698854100006, 32.823067314000085], [73.98300826000019, 32.969073995000116], [73.95107222500008, 33.011448670000036], [73.92606083200008, 33.025969747000076], [73.87376428200008, 33.028734436000036], [73.82239790900013, 33.0132056680001], [73.80586145000012, 33.015143535000036], [73.73196415200005, 33.062660014000045], [73.64049686700008, 33.10330352800008], [73.62251346900013, 33.12449086500004], [73.6453544520001, 33.1430943810001], [73.65486291500014, 33.1846939090001], [73.62075647000012, 33.21200490300002], [73.61465865100007, 33.23244293200007], [73.58375614400012, 33.227637024000074], [73.57982873600014, 33.23926422100003], [73.60029260300007, 33.24670562800014], [73.59347131400011, 33.3042990120001], [73.60318648300006, 33.3330311080001], [73.57641809100011, 33.369540507000124], [73.57383426900009, 33.38739471500007], [73.59440148900006, 33.411734314000086], [73.60422001200004, 33.4415774540001], [73.62757775900008, 33.452067770000056], [73.61465865100007, 33.519660543000015], [73.63501916500013, 33.54079620400006], [73.61465865100007, 33.59311859200007], [73.57311079900012, 33.63365875300009], [73.57745162000009, 33.663243510000115], [73.60029260300007, 33.70858958000005], [73.59574507700012, 33.7456157430001], [73.5672196860001, 33.803441671000115], [73.58251591000004, 33.87674469000004], [73.57982873600014, 33.91046356200009], [73.5186438400001, 34.007770284000046], [73.49042850800015, 34.12949412100011], [73.49042850800015, 34.19835296700012], [73.47409875500011, 34.269175517000065], [73.4071260990001, 34.355035909000094], [73.4002014570001, 34.37552561500006], [73.42592266900016, 34.43033032300012], [73.4366850180001, 34.5221574910001], [73.45012089000011, 34.562594300000086], [73.49414921100004, 34.574944967000135], [73.53404341600009, 34.57163767500005], [73.58323938000012, 34.588380839000095], [73.60534621700009, 34.584923634000035], [73.62344364400019, 34.563989563000064], [73.65951379400019, 34.63364939400009], [73.64897180200012, 34.672458395000035], [73.70870975800011, 34.76330556300012], [73.75056766800009, 34.78997060200007], [73.78374393700011, 34.792451070000126], [73.81950402800004, 34.81048614500013], [73.88957727100006, 34.81270823200005], [73.95437951700012, 34.86267934200002], [74.01783817600011, 34.880662740000105], [74.0341679280001, 34.9145108040001], [74.0614530840001, 34.94169260700009], [74.06693078600006, 34.98179351800009], [74.10031376200004, 35.00964711500005], [74.09266565000019, 35.02670033800008], [74.06961796100012, 35.03910268200006], [74.06755090300004, 35.055380758000084], [74.08842818200009, 35.08504303000004], [74.12470114600012, 35.099201380000096], [74.1243949790001, 35.10509348600009], [74.10517134600013, 35.12137156200002], [74.10186405500014, 35.1404918420001], [74.03148075400003, 35.14679636700002], [73.99227481700012, 35.175267983000055], [73.9540694580001, 35.170722555000026], [73.92430383300012, 35.19888621000007], [73.88782027200011, 35.208084615000075], [73.86434609500009, 35.20230240700002], [73.80961761400005, 35.23352059700002], [73.77309859200011, 35.23449127200004], [73.73868208800008, 35.20978993800013], [73.72214563000011, 35.215732727000045], [73.7148075770001, 35.23015045200006], [73.71842492700006, 35.26410186800008], [73.68741906800005, 35.3101455690001], [73.69020959500011, 35.35742950500014], [73.72751997900014, 35.4176325480001], [73.78415734900011, 35.447139791000026], [73.77206506400017, 35.52196726500006], [73.62954146300012, 35.542999573000074], [73.50479455600004, 35.533852845000084], [73.46572717300012, 35.55757232700003], [73.44257613100012, 35.56175811800007], [73.40970992000013, 35.547753805000056], [73.3825281170001, 35.58821645100005], [73.3070805260001, 35.600308736000045], [73.2904407150001, 35.62283966100006], [73.12559289600011, 35.72479726200007], [73.1284867760001, 35.796317444000096], [73.15473840300012, 35.82489451100007], [73.08838586400009, 35.87589915000011], [73.06430464700014, 35.859517721000074], [73.04218713400013, 35.85605540000003], [72.97159712700005, 35.87812123600011], [72.87217167200004, 35.874297180000084], [72.79238326000007, 35.8375552370001], [72.65585412600007, 35.85414337200011], [72.51560428900018, 35.90395945300014], [72.58908817600013, 36.01614898700012], [72.57916630100016, 36.04276235000006], [72.5412357990001, 36.07252797500004], [72.52914351400017, 36.09753936800004], [72.53172733600013, 36.112318828000056], [72.5621130780001, 36.14999094700009], [72.55136438000011, 36.1735554000001], [72.56800419100011, 36.23675567700006], [72.60748498500016, 36.272722473000044], [72.64293501800006, 36.278975322000036], [72.69244104000012, 36.27106882800008], [72.71879602100006, 36.30011098300008], [72.78452844300011, 36.32879140200008], [72.83021040900013, 36.37039093000007], [72.87692590300014, 36.384291891000146], [72.88653772000004, 36.397055970000025], [72.88994836400019, 36.45710398400004], [72.90648482300014, 36.46563059500005], [72.98492964700011, 36.472761943000094], [72.98958052600017, 36.48376902300008], [72.98296594300012, 36.511260885000056], [73.04218713400013, 36.53115631100006], [73.06306441300012, 36.5489846800001], [73.09551721200012, 36.60660390200006], [73.0733996990001, 36.66360300700005], [73.0733996990001, 36.69853627600013], [73.13055383300014, 36.70938832600008], [73.17654585800017, 36.73486480700011], [73.21344283100007, 36.712902324000126], [73.29633182800012, 36.71744985000008], [73.41601444500009, 36.75207305900008], [73.51988407400012, 36.73073069300008], [73.57104374200003, 36.72773346000007], [73.59512495900009, 36.73548492500008], [73.6223067630001, 36.710163473000094], [73.67863407400006, 36.70396230100002], [73.72121545400012, 36.7271133430001], [73.7616264240001, 36.7160545860001], [73.8019340410001, 36.728456930000064], [73.87934533700013, 36.71161041300009], [73.88813033100007, 36.71993031800005], [73.88730350800006, 36.7705215460001], [73.79893680800018, 36.82798573800011], [73.72028527800006, 36.85113678000009], [73.7089164630001, 36.87382273400006], [73.71184199100009, 36.89413889400005], [73.83407678300006, 36.88286610900009], [73.94693811000013, 36.83087961800008], [74.03530480900014, 36.81558339400003], [74.0943192950001, 36.831241354000085], [74.10393111200011, 36.841318258000015], [74.11529992700008, 36.88953236900001], [74.12966597500008, 36.89842071600013], [74.21172815000011, 36.89513926200003], [74.23570601500012, 36.902167257000045], [74.39404260300012, 36.99402211500011], [74.43559045400013, 37.0032205210001], [74.47662154100004, 36.999318950000045], [74.52137333100012, 36.95849456800006], [74.53739302600007, 36.96224110900006], [74.54927860600003, 37.00893076600006], [74.54235396300004, 37.021669006000124], [74.66244999200006, 37.05448354100004], [74.67795292100004, 37.051693014000065], [74.71919071500008, 37.01644968700002], [74.79257124800012, 37.01515777600004], [74.8245072840001, 36.994125468000036], [74.86088749200007, 36.94689320900001], [74.87235966000009, 36.907102356000095], [74.88579553300013, 36.91144317600008], [74.90078169800012, 36.949916280000124], [74.9249662680001, 36.970871074000016], [74.9768494060001, 36.98428110800005], [75.10014937300008, 36.994125468000036], [75.13280887900004, 36.98469451900006], [75.19513065600006, 36.948882752000046], [75.35129683500008, 36.91578399700005], [75.37796187400005, 36.894286601000104], [75.39449833200007, 36.86426259400004], [75.41051802600003, 36.747318827000086], [75.43191206900013, 36.72292755100004], [75.49258020000008, 36.72070546500005], [75.50797977700006, 36.74762888700006], [75.5705082610001, 36.766749166000054], [75.64977990700004, 36.75403676400002], [75.72874149600005, 36.723185934000114], [75.79054650900008, 36.687839254000025], [75.87477909400013, 36.61947133400004], [75.97658166500008, 36.46263336200012], [75.98108273200012, 36.445443571000084], [76.14928430200018, 36.42454783200009], [76.23899458800014, 36.31990305600006], [76.31857629400014, 36.33008331300003], [76.38885624200009, 36.30977447500001], [76.42864709500009, 36.23954620400012], [76.4692647710001, 36.220012513000114], [76.5682768150001, 36.190401917000074], [76.66894250500013, 36.190401917000074], [76.71875858600009, 36.15991282200008], [76.75865279200013, 36.11004506500004], [76.77890995300015, 36.03981679300006], [76.77890995300015, 35.91026397700006], [76.8390613200001, 35.859517721000074], [77.00856001800014, 35.81972686800006], [77.06860803200004, 35.77993601500013], [77.08958866400013, 35.74019683900005], [77.2089612220002, 35.709656067000054], [77.34859094300015, 35.7197846480001], [77.42135135900008, 35.64015126600006], [77.4688936770001, 35.651881816000056], [77.5086845300001, 35.58015492800007], [77.51960817800011, 35.477439204000035], [77.66061324100008, 35.45809519500007], [77.68965539600009, 35.46269439700005], [77.76034875500005, 35.49809275300005], [77.80034631400014, 35.49540557900012], [77.8287444698607, 35.49004420282653], [77.84647966887859, 35.5008], [77.85575475426522, 35.484944847221925], [77.86029097500017, 35.484088440000065], [77.88984989400006, 35.48176300100003], [77.91517134600014, 35.4941653450001], [77.9547554930001, 35.56170644200006], [77.98452111800009, 35.56325673500007], [78.10161991400014, 35.538297018000094], [78.1148490810001, 35.54454986600008], [78.14234094300008, 35.60578643800004], [78.16187463400007, 35.62361480700007], [78.22936405500013, 35.64748931900006], [78.27576949100012, 35.694721578000085], [78.32992639200017, 35.70924265600004], [78.43524296100009, 35.76097076400009], [78.50893355300008, 35.76789540600008], [78.54531376200009, 35.78112457300007], [78.66478967300003, 35.85254140200007], [78.73654347965672, 35.868056796585016], [78.82526393374569, 35.86521232942552], [78.97143043007092, 35.887433783514005], [79.0280835625449, 35.85237031085193], [79.13253415702576, 35.836216874709066], [79.19404953775603, 35.886924354175676], [79.18362105300014, 35.94132151300009], [79.29007450400013, 35.97728831000006], [79.32366418500004, 35.98002716100011], [79.40024865700019, 35.96199208600011], [79.42391646300013, 35.939822897000084], [79.4282572840001, 35.90850697900008], [79.46081928723959, 35.88576658555411], [79.62333450967992, 35.84565075667712], [79.71635663195303, 35.817181285587935], [79.73753684604867, 35.80200874690621], [79.87556084835455, 35.784959795258374], [79.91855292257935, 35.822250278327715], [79.96028509158378, 35.838863256634056], [80.00451993703041, 35.838928010589804], [80.03823871054811, 35.79976218018055], [80.05823521808088, 35.74993700039232], [80.08849334629093, 35.72468909332707], [80.11107334705736, 35.68000585928303], [80.17790478991645, 35.66694993871173], [80.24357089667961, 35.63866059570995], [80.29150434265136, 35.60741849226963], [80.3271178212305, 35.47687382946373], [80.3263159299363, 35.46678158350335], [80.2844189441192, 35.44552136749148], [80.27771447800006, 35.34523386700003], [80.25549361200012, 35.31267771400009], [80.2612813720001, 35.26988962800006], [80.24183227864009, 35.22315810481719], [80.20257407636029, 35.190850351163455], [80.1879583147403, 35.1506382217185], [80.1626058611404, 34.95087516566176], [80.07790704905507, 34.837333435146704], [80.07387227354076, 34.7922748381632], [80.0855815020002, 34.776586406000035], [80.06635787000005, 34.73741567000009], [80.04971805800011, 34.673130188000115], [80.03524865700012, 34.657472229000064], [79.9957678630002, 34.64749867800006], [79.90729781100003, 34.66186472600006], [79.86678348800012, 34.65804067000002], [79.85210738100017, 34.644449768000115], [79.83071333800012, 34.58083608000004], [79.8133500570001, 34.565384827000045], [79.73149458800009, 34.545075989000026], [79.70214237500011, 34.52034881600011], [79.70172896300011, 34.50029836000006], [79.73676558400012, 34.46332387300002], [79.73800581900014, 34.444720358000055], [79.71268436700018, 34.41531646800007], [79.66958622300012, 34.40743581200012], [79.54359908100014, 34.4286748250001], [79.5230318610001, 34.4260910040001], [79.5103194580002, 34.41216420500011], [79.50949263500013, 34.392165426000076], [79.54835331200013, 34.250649516000124], [79.55155725100008, 34.20956675200007], [79.5328503830001, 34.18416778600006], [79.48820194500018, 34.181894023000055], [79.49502323400014, 34.1059296670001], [79.40551965300011, 34.02190378900008], [79.3759607340001, 34.01141347300003], [79.13225468000013, 34.026477153000116], [79.10166223200014, 34.01999176100006], [79.07065637200014, 33.9954971320001], [78.93505741400014, 34.00715016700006], [78.90281132000013, 33.98317230300006], [78.88751509600013, 33.946456197000074], [78.89754032400009, 33.90746632900009], [78.94539270000007, 33.79982432100013], [78.99128137200017, 33.75192026800002], [79.01277876800009, 33.63368459100009], [79.0025468340001, 33.61934438100009], [78.94539270000007, 33.634123841000104], [78.9173840740001, 33.63340037100002], [78.89599003100005, 33.6200936890001], [78.88524133300012, 33.5917750040001], [78.88689497900009, 33.566892802000055], [78.90983931500011, 33.494235738000015], [78.90756555200011, 33.4235423790001], [78.91230294881913, 33.40610343991692], [78.92114950176435, 33.39840025889967], [79.06634011851128, 33.29577098235724], [79.07476635966178, 33.22855180707798], [79.14152811646952, 33.200343760309], [79.18041846024101, 33.1943420482305], [79.19532642535343, 33.15713143334377], [79.15513973678955, 33.089912258064516], [79.14865801282762, 33.052701643177784], [79.16226963314764, 33.0148908570832], [79.26014366497259, 32.98488229669068], [79.28218152644311, 32.93566825764693], [79.27894066446216, 32.88285319135609], [79.24977290663352, 32.831838638688794], [79.28866325040502, 32.79342768138636], [79.28736690561264, 32.75261603925253], [79.26468087174594, 32.673993611024116], [79.29190411238598, 32.65358778995719], [79.26403269934974, 32.589969641925045], [79.24912473423734, 32.52275046664578], [79.14865801282762, 32.4837393381355], [79.11819391020661, 32.450129750495876], [79.12143477218757, 32.415919991648394], [79.1045822898866, 32.371507322267455], [79.06763646330367, 32.38471108884017], [78.99374481013783, 32.364305267773254], [78.97105877627111, 32.34449961791418], [78.91466777780244, 32.367306123812504], [78.87448108923856, 32.414719649232694], [78.83623891786324, 32.425522730974], [78.78114426418695, 32.47533694122559], [78.76493995428217, 32.57496536172878], [78.78049609179077, 32.598372038834945], [78.76040274750882, 32.684196521557574], [78.73642036884974, 32.69619994571458], [78.65410247453339, 32.64938659150224], [78.63206461306288, 32.61097563419981], [78.52641251248363, 32.60677443574485], [78.48557765152356, 32.57316484810523], [78.45252085931779, 32.57976673139158], [78.4123341707539, 32.55636005428541], [78.40131524001865, 32.51794909698298], [78.38251824052908, 32.52995252113999], [78.31057110455181, 32.47593711243344], [78.27881065713842, 32.50774618644952], [78.29890400142035, 32.52935234993214], [78.2963113118356, 32.57736604656018], [78.33196079362614, 32.58516827226224], [78.388999964491, 32.62297905835682], [78.36307306864333, 32.67219309740056], [78.37798103375574, 32.7190064516129], [78.37149930979382, 32.76161860737029], [78.34492424154996, 32.76341912099384], [78.2878850706851, 32.737611759056264], [78.2956631394394, 32.7130047395344], [78.23667945138595, 32.69499960329888], [78.18417748729443, 32.66379070049065], [78.13621272997625, 32.67039258377701], [78.0934333518276, 32.6619901868671], [78.03574600856655, 32.591770155548595], [77.9767623205131, 32.591770155548595], [77.92037132204443, 32.67939515189477], [77.90351883974344, 32.69319908967533], [77.91777863245966, 32.75681723770748], [77.86722118555672, 32.79042682534711], [77.86138763399099, 32.816234187284685], [77.76156908497748, 32.864848055120575], [77.79008867040992, 32.90565969725441], [77.7123079828669, 32.97167853011796], [77.66499139794492, 32.98608263910638], [77.65332429481347, 32.959675105960955], [77.58656253800572, 32.93986945610189], [77.51980078119799, 32.88765456101889], [77.48479947180364, 32.88645421860319], [77.45498354157883, 32.86184719908132], [77.4258157837502, 32.88345336256394], [77.37914737122439, 32.88105267773254], [77.35840585454626, 32.85644565821067], [77.3629430613196, 32.84684291888506], [77.35646133735769, 32.82523675540244], [77.34868326860338, 32.821035556947486], [77.33571982067956, 32.818634872116085], [77.32146002796334, 32.822235899363186], [77.22812320291173, 32.89545678672095], [77.15099068776493, 32.92006380624282], [77.13608272265252, 32.98068109823572], [77.07515451741051, 32.97347904374151], [77.03561600124281, 32.99988657688694], [76.99867017465989, 32.98968366635348], [76.91764862513594, 33.03349616452657], [76.87746193657205, 33.11391910637853], [76.85283138551677, 33.11151842154713], [76.79838490423667, 33.17333605595574], [76.82820083446148, 33.24655694331349], [76.80940383497193, 33.24415625848209], [76.80810749017954, 33.24415625848209], [76.80616297299096, 33.236354032780035], [76.76338359484232, 33.25435916901555], [76.76014273286135, 33.22495077983088], [76.73032680263654, 33.185339480112745], [76.72967863024036, 33.17933776803424], [76.69662183803457, 33.18173845286564], [76.62726739164206, 33.16253297421442], [76.59939597860583, 33.17393622716359], [76.58189532390865, 33.20694564359536], [76.54754218691049, 33.20934632842676], [76.4691133269713, 33.17993793924209], [76.3919808118245, 33.186539822528445], [76.35892401961873, 33.15773160455162], [76.27530978051, 33.103716195845074], [76.25521643622805, 33.052101471969934], [76.21632609245655, 33.02869479486376], [76.15215702523358, 33.02269308278526], [76.09382150957633, 33.004687946549744], [76.08215440644489, 32.96867767407871], [76.01733716682571, 32.917663121411415], [75.94603820324464, 32.88525387618749], [75.933722927717, 32.88405353377179], [75.86696117090925, 32.93026671677628], [75.80797748285582, 32.92966654556843], [75.78982865576245, 32.89425644430525], [75.78723596617768, 32.89305610188955], [75.78982865576245, 32.88165284894039], [75.79436586253578, 32.870249595991226], [75.82094093077964, 32.8426417204301], [75.87409106726736, 32.81383350245328], [75.91233323864267, 32.75681723770748], [75.89872161832264, 32.68059549431047], [75.92335216937792, 32.643985050631585], [75.87279472247498, 32.57616570414448], [75.83779341308063, 32.53775474684205], [75.80408844847867, 32.48734036538261], [75.74575293282142, 32.4765372836413], [75.71139979582325, 32.418320676479794], [75.64787890099647, 32.38891228729512], [75.59278424732018, 32.38171023280091], [75.52407797332387, 32.34029841945923], [75.51565173217337, 32.2982864349097], [75.49879924987239, 32.275479929011375], [75.47352052642091, 32.33909807704353], [75.41518501076366, 32.324093796847265], [75.33157077165494, 32.34449961791418], [75.32249635810825, 32.33729756341998], [75.23175222264143, 32.39911519782858], [75.1792502585499, 32.425522730974], [75.14748981113651, 32.413519306816994], [75.08267257151735, 32.4801383108884], [75.03017060742582, 32.49154156383756], [74.98803940167336, 32.449529579288026], [74.93359292039327, 32.46753471552354], [74.8998879557913, 32.466334373107834], [74.83507071617213, 32.496342933500365], [74.7987730619854, 32.48433950934335]]]}}]}