{"type": "FeatureCollection", "features": [{"type": "Feature", "properties": {"state": "Madhya Pradesh", "district": "Bhind", "block": "Bhind", "gp_name": "Bhind Gram Panchayat", "state_code": 23, "district_code": 394, "block_code": 3420, "gp_code": 133063, "centroid_lat": 26.55, "centroid_lon": 78.966, "area_sq_km": 5.8, "boundary_source": "LGD Revenue Village Centroids + Block-Bounded Voronoi Tessellation", "boundary_quality": "DERIVED"}, "geometry": {"type": "Polygon", "coordinates": [[[78.97837, 26.54965], [78.97837, 26.55421], [78.97536, 26.55791], [78.9708, 26.55957], [78.96634, 26.55982], [78.95718, 26.55844], [78.9533, 26.55515], [78.95347, 26.55035], [78.95879, 26.54391], [78.96085, 26.53973], [78.96555, 26.53686], [78.97041, 26.53952], [78.97297, 26.54333], [78.97837, 26.54965]]]}}, {"type": "Feature", "properties": {"state": "Madhya Pradesh", "district": "Bhind", "block": "Bhind", "gp_name": "Bhind Rural", "state_code": 23, "district_code": 394, "block_code": 3420, "gp_code": 133064, "centroid_lat": 26.57, "centroid_lon": 78.946, "area_sq_km": 5.9, "boundary_source": "LGD Revenue Village Centroids + Block-Bounded Voronoi Tessellation", "boundary_quality": "DERIVED"}, "geometry": {"type": "Polygon", "coordinates": [[[78.95882, 26.56964], [78.95861, 26.57429], [78.9551, 26.57769], [78.95082, 26.57962], [78.94196, 26.57959], [78.93712, 26.57849], [78.93346, 26.57508], [78.93358, 26.57034], [78.93859, 26.56374], [78.94065, 26.55934], [78.94555, 26.55694], [78.95049, 26.55933], [78.95293, 26.56337], [78.95882, 26.56964]]]}}, {"type": "Feature", "properties": {"state": "Madhya Pradesh", "district": "Bhind", "block": "Ater", "gp_name": "Ater Gram Panchayat", "state_code": 23, "district_code": 394, "block_code": 3421, "gp_code": 133065, "centroid_lat": 26.6886, "centroid_lon": 78.878, "area_sq_km": 6.0, "boundary_source": "LGD Revenue Village Centroids + Block-Bounded Voronoi Tessellation", "boundary_quality": "DERIVED"}, "geometry": {"type": "Polygon", "coordinates": [[[78.89033, 26.68826], [78.89069, 26.69292], [78.8872, 26.69638], [78.88273, 26.69803], [78.87834, 26.6985], [78.87395, 26.69819], [78.86941, 26.6968], [78.86527, 26.69375], [78.86545, 26.68894], [78.87062, 26.68237], [78.87293, 26.67848], [78.87757, 26.6758], [78.88244, 26.67808], [78.89033, 26.68826]]]}}, {"type": "Feature", "properties": {"state": "Madhya Pradesh", "district": "Bhind", "block": "Ater", "gp_name": "Ater Rural", "state_code": 23, "district_code": 394, "block_code": 3421, "gp_code": 133066, "centroid_lat": 26.7086, "centroid_lon": 78.858, "area_sq_km": 6.1, "boundary_source": "LGD Revenue Village Centroids + Block-Bounded Voronoi Tessellation", "boundary_quality": "DERIVED"}, "geometry": {"type": "Polygon", "coordinates": [[[78.87082, 26.70825], [78.8707, 26.71292], [78.8673, 26.71646], [78.85834, 26.71876], [78.85399, 26.71809], [78.84946, 26.71675], [78.84531, 26.71373], [78.84569, 26.70893], [78.8507, 26.70243], [78.85282, 26.69826], [78.85757, 26.69594], [78.86242, 26.69812], [78.86489, 26.70202], [78.87082, 26.70825]]]}}, {"type": "Feature", "properties": {"state": "Madhya Pradesh", "district": "Bhind", "block": "Gohad", "gp_name": "Gohad Gram Panchayat", "state_code": 23, "district_code": 394, "block_code": 3422, "gp_code": 133067, "centroid_lat": 26.6886, "centroid_lon": 78.702, "area_sq_km": 6.2, "boundary_source": "LGD Revenue Village Centroids + Block-Bounded Voronoi Tessellation", "boundary_quality": "DERIVED"}, "geometry": {"type": "Polygon", "coordinates": [[[78.71486, 26.68826], [78.71442, 26.69284], [78.71122, 26.69641], [78.7068, 26.69822], [78.698, 26.69804], [78.69347, 26.69672], [78.68987, 26.69349], [78.6896, 26.68892], [78.69467, 26.68239], [78.69681, 26.67821], [78.70159, 26.6758], [78.70648, 26.67802], [78.70905, 26.68189], [78.71486, 26.68826]]]}}, {"type": "Feature", "properties": {"state": "Madhya Pradesh", "district": "Bhind", "block": "Gohad", "gp_name": "Gohad Rural", "state_code": 23, "district_code": 394, "block_code": 3422, "gp_code": 133068, "centroid_lat": 26.7086, "centroid_lon": 78.682, "area_sq_km": 6.3, "boundary_source": "LGD Revenue Village Centroids + Block-Bounded Voronoi Tessellation", "boundary_quality": "DERIVED"}, "geometry": {"type": "Polygon", "coordinates": [[[78.69447, 26.70828], [78.69486, 26.713], [78.69108, 26.7163], [78.68669, 26.71799], [78.68232, 26.7186], [78.67783, 26.71844], [78.67351, 26.71668], [78.66991, 26.71347], [78.66951, 26.70892], [78.67459, 26.70232], [78.67679, 26.69816], [78.68158, 26.69557], [78.68649, 26.69802], [78.69447, 26.70828]]]}}, {"type": "Feature", "properties": {"state": "Madhya Pradesh", "district": "Bhind", "block": "Lahar", "gp_name": "Lahar Gram Panchayat", "state_code": 23, "district_code": 394, "block_code": 3423, "gp_code": 133069, "centroid_lat": 26.55, "centroid_lon": 78.614, "area_sq_km": 6.4, "boundary_source": "LGD Revenue Village Centroids + Block-Bounded Voronoi Tessellation", "boundary_quality": "DERIVED"}, "geometry": {"type": "Polygon", "coordinates": [[[78.62671, 26.54968], [78.62677, 26.55438], [78.62326, 26.55787], [78.61856, 26.55917], [78.61431, 26.55991], [78.61, 26.55944], [78.60548, 26.55811], [78.60137, 26.55508], [78.60146, 26.55032], [78.60442, 26.54671], [78.60875, 26.53945], [78.6136, 26.53739], [78.61859, 26.53919], [78.62086, 26.54347], [78.62671, 26.54968]]]}}, {"type": "Feature", "properties": {"state": "Madhya Pradesh", "district": "Bhind", "block": "Lahar", "gp_name": "Lahar Rural", "state_code": 23, "district_code": 394, "block_code": 3423, "gp_code": 133070, "centroid_lat": 26.57, "centroid_lon": 78.594, "area_sq_km": 6.5, "boundary_source": "LGD Revenue Village Centroids + Block-Bounded Voronoi Tessellation", "boundary_quality": "DERIVED"}, "geometry": {"type": "Polygon", "coordinates": [[[78.60697, 26.56967], [78.60697, 26.57445], [78.60304, 26.57768], [78.5987, 26.57944], [78.5943, 26.57975], [78.58524, 26.57833], [78.58181, 26.5749], [78.58107, 26.57033], [78.58662, 26.56373], [78.58889, 26.55973], [78.59359, 26.55703], [78.59863, 26.55909], [78.60095, 26.56339], [78.60697, 26.56967]]]}}, {"type": "Feature", "properties": {"state": "Madhya Pradesh", "district": "Bhind", "block": "Mehgaon", "gp_name": "Mehgaon Gram Panchayat", "state_code": 23, "district_code": 394, "block_code": 3424, "gp_code": 133071, "centroid_lat": 26.4114, "centroid_lon": 78.702, "area_sq_km": 6.6, "boundary_source": "LGD Revenue Village Centroids + Block-Bounded Voronoi Tessellation", "boundary_quality": "DERIVED"}, "geometry": {"type": "Polygon", "coordinates": [[[78.7145, 26.41108], [78.71435, 26.41563], [78.71102, 26.41907], [78.70673, 26.42091], [78.70232, 26.42143], [78.6979, 26.4211], [78.69341, 26.41959], [78.68974, 26.41635], [78.68914, 26.41173], [78.69256, 26.40816], [78.69672, 26.40079], [78.70159, 26.39852], [78.70642, 26.40096], [78.70889, 26.40483], [78.7145, 26.41108]]]}}, {"type": "Feature", "properties": {"state": "Madhya Pradesh", "district": "Bhind", "block": "Mehgaon", "gp_name": "Mehgaon Rural", "state_code": 23, "district_code": 394, "block_code": 3424, "gp_code": 133072, "centroid_lat": 26.4314, "centroid_lon": 78.682, "area_sq_km": 6.7, "boundary_source": "LGD Revenue Village Centroids + Block-Bounded Voronoi Tessellation", "boundary_quality": "DERIVED"}, "geometry": {"type": "Polygon", "coordinates": [[[78.69464, 26.43107], [78.69458, 26.43572], [78.69097, 26.43903], [78.68677, 26.44099], [78.68231, 26.44128], [78.67798, 26.44091], [78.67328, 26.43971], [78.66989, 26.43629], [78.66953, 26.43172], [78.67202, 26.42798], [78.67468, 26.42518], [78.6769, 26.42115], [78.68159, 26.41847], [78.68649, 26.4208], [78.68891, 26.42481], [78.69464, 26.43107]]]}}, {"type": "Feature", "properties": {"state": "Madhya Pradesh", "district": "Bhind", "block": "Ron", "gp_name": "Ron Gram Panchayat", "state_code": 23, "district_code": 394, "block_code": 3425, "gp_code": 133073, "centroid_lat": 26.4114, "centroid_lon": 78.878, "area_sq_km": 6.8, "boundary_source": "LGD Revenue Village Centroids + Block-Bounded Voronoi Tessellation", "boundary_quality": "DERIVED"}, "geometry": {"type": "Polygon", "coordinates": [[[78.89054, 26.41106], [78.89038, 26.41563], [78.88707, 26.41909], [78.88254, 26.42049], [78.87832, 26.42103], [78.87408, 26.4207], [78.86939, 26.41963], [78.86588, 26.41631], [78.86533, 26.41174], [78.87063, 26.40515], [78.87282, 26.40102], [78.87757, 26.39868], [78.88237, 26.40102], [78.88482, 26.40487], [78.89054, 26.41106]]]}}, {"type": "Feature", "properties": {"state": "Madhya Pradesh", "district": "Bhind", "block": "Ron", "gp_name": "Ron Rural", "state_code": 23, "district_code": 394, "block_code": 3425, "gp_code": 133074, "centroid_lat": 26.4314, "centroid_lon": 78.858, "area_sq_km": 6.9, "boundary_source": "LGD Revenue Village Centroids + Block-Bounded Voronoi Tessellation", "boundary_quality": "DERIVED"}, "geometry": {"type": "Polygon", "coordinates": [[[78.87034, 26.43107], [78.8704, 26.43563], [78.86734, 26.43932], [78.85834, 26.44156], [78.8493, 26.43972], [78.84582, 26.43633], [78.84506, 26.43175], [78.85055, 26.42508], [78.85289, 26.42116], [78.85757, 26.41855], [78.86259, 26.4205], [78.86476, 26.42493], [78.87034, 26.43107]]]}}]}