{"type": "FeatureCollection", "features": [{"type": "Feature", "properties": {"state": "Madhya Pradesh", "district": "Chhatarpur", "block": "Chhatarpur", "gp_name": "Chhatarpur Gram Panchayat", "state_code": 23, "district_code": 396, "block_code": 3480, "gp_code": 133083, "centroid_lat": 24.9, "centroid_lon": 79.766, "area_sq_km": 7.8, "boundary_source": "LGD Revenue Village Centroids + Block-Bounded Voronoi Tessellation", "boundary_quality": "DERIVED"}, "geometry": {"type": "Polygon", "coordinates": [[[79.77848, 24.8996], [79.77839, 24.90422], [79.77489, 24.90756], [79.77062, 24.90924], [79.762, 24.90976], [79.75754, 24.90827], [79.75409, 24.90495], [79.75379, 24.90039], [79.76083, 24.88966], [79.76551, 24.88718], [79.77034, 24.88942], [79.77296, 24.89319], [79.77848, 24.8996]]]}}, {"type": "Feature", "properties": {"state": "Madhya Pradesh", "district": "Chhatarpur", "block": "Chhatarpur", "gp_name": "Chhatarpur Rural", "state_code": 23, "district_code": 396, "block_code": 3480, "gp_code": 133084, "centroid_lat": 24.92, "centroid_lon": 79.746, "area_sq_km": 7.9, "boundary_source": "LGD Revenue Village Centroids + Block-Bounded Voronoi Tessellation", "boundary_quality": "DERIVED"}, "geometry": {"type": "Polygon", "coordinates": [[[79.75821, 24.91961], [79.75886, 24.92438], [79.75491, 24.92758], [79.75072, 24.92943], [79.74203, 24.92968], [79.73729, 24.92851], [79.73361, 24.92515], [79.73358, 24.9204], [79.73845, 24.91358], [79.74071, 24.90941], [79.74551, 24.90719], [79.75036, 24.90936], [79.75279, 24.91336], [79.75821, 24.91961]]]}}, {"type": "Feature", "properties": {"state": "Madhya Pradesh", "district": "Chhatarpur", "block": "Bakswaha", "gp_name": "Bakswaha Gram Panchayat", "state_code": 23, "district_code": 396, "block_code": 3481, "gp_code": 133085, "centroid_lat": 25.0386, "centroid_lon": 79.678, "area_sq_km": 8.0, "boundary_source": "LGD Revenue Village Centroids + Block-Bounded Voronoi Tessellation", "boundary_quality": "DERIVED"}, "geometry": {"type": "Polygon", "coordinates": [[[79.69037, 25.03821], [79.69036, 25.04281], [79.68697, 25.04622], [79.68266, 25.04792], [79.67839, 25.04874], [79.67417, 25.04791], [79.66968, 25.04672], [79.66554, 25.04377], [79.66572, 25.03899], [79.67085, 25.03252], [79.67275, 25.02809], [79.67751, 25.02574], [79.68227, 25.02821], [79.68483, 25.03193], [79.69037, 25.03821]]]}}, {"type": "Feature", "properties": {"state": "Madhya Pradesh", "district": "Chhatarpur", "block": "Bakswaha", "gp_name": "Bakswaha Rural", "state_code": 23, "district_code": 396, "block_code": 3481, "gp_code": 133086, "centroid_lat": 25.0586, "centroid_lon": 79.658, "area_sq_km": 8.1, "boundary_source": "LGD Revenue Village Centroids + Block-Bounded Voronoi Tessellation", "boundary_quality": "DERIVED"}, "geometry": {"type": "Polygon", "coordinates": [[[79.6705, 25.05821], [79.67056, 25.06288], [79.66689, 25.06616], [79.66268, 25.06796], [79.6541, 25.06809], [79.64935, 25.06704], [79.64572, 25.06369], [79.64584, 25.05898], [79.65079, 25.05247], [79.65285, 25.0483], [79.65752, 25.04605], [79.66244, 25.0478], [79.66482, 25.05194], [79.6705, 25.05821]]]}}, {"type": "Feature", "properties": {"state": "Madhya Pradesh", "district": "Chhatarpur", "block": "Bijawar", "gp_name": "Bijawar Gram Panchayat", "state_code": 23, "district_code": 396, "block_code": 3482, "gp_code": 133087, "centroid_lat": 25.0386, "centroid_lon": 79.502, "area_sq_km": 8.2, "boundary_source": "LGD Revenue Village Centroids + Block-Bounded Voronoi Tessellation", "boundary_quality": "DERIVED"}, "geometry": {"type": "Polygon", "coordinates": [[[79.51425, 25.03823], [79.5146, 25.04291], [79.51114, 25.04639], [79.50676, 25.04816], [79.49793, 25.04846], [79.49351, 25.04686], [79.49005, 25.04354], [79.48978, 25.03897], [79.49488, 25.03253], [79.49684, 25.02824], [79.50154, 25.02598], [79.50649, 25.02771], [79.50887, 25.03191], [79.51425, 25.03823]]]}}, {"type": "Feature", "properties": {"state": "Madhya Pradesh", "district": "Chhatarpur", "block": "Bijawar", "gp_name": "Bijawar Rural", "state_code": 23, "district_code": 396, "block_code": 3482, "gp_code": 133088, "centroid_lat": 25.0586, "centroid_lon": 79.482, "area_sq_km": 8.3, "boundary_source": "LGD Revenue Village Centroids + Block-Bounded Voronoi Tessellation", "boundary_quality": "DERIVED"}, "geometry": {"type": "Polygon", "coordinates": [[[79.4941, 25.05823], [79.49486, 25.063], [79.49109, 25.06635], [79.48653, 25.0677], [79.48235, 25.06824], [79.47807, 25.06813], [79.47335, 25.06702], [79.46957, 25.06374], [79.46943, 25.05898], [79.47483, 25.05249], [79.47675, 25.04806], [79.48154, 25.04593], [79.48645, 25.04781], [79.4941, 25.05823]]]}}, {"type": "Feature", "properties": {"state": "Madhya Pradesh", "district": "Chhatarpur", "block": "Laundi", "gp_name": "Laundi Gram Panchayat", "state_code": 23, "district_code": 396, "block_code": 3483, "gp_code": 133089, "centroid_lat": 24.9, "centroid_lon": 79.414, "area_sq_km": 8.4, "boundary_source": "LGD Revenue Village Centroids + Block-Bounded Voronoi Tessellation", "boundary_quality": "DERIVED"}, "geometry": {"type": "Polygon", "coordinates": [[[79.42647, 24.89963], [79.42669, 24.90436], [79.42284, 24.90756], [79.41873, 24.90952], [79.41015, 24.90932], [79.40573, 24.90805], [79.40167, 24.90509], [79.40148, 24.90037], [79.4065, 24.89359], [79.40872, 24.88936], [79.41355, 24.8873], [79.41833, 24.88952], [79.42075, 24.89343], [79.42647, 24.89963]]]}}, {"type": "Feature", "properties": {"state": "Madhya Pradesh", "district": "Chhatarpur", "block": "Laundi", "gp_name": "Laundi Rural", "state_code": 23, "district_code": 396, "block_code": 3483, "gp_code": 133090, "centroid_lat": 24.92, "centroid_lon": 79.394, "area_sq_km": 8.5, "boundary_source": "LGD Revenue Village Centroids + Block-Bounded Voronoi Tessellation", "boundary_quality": "DERIVED"}, "geometry": {"type": "Polygon", "coordinates": [[[79.40664, 24.91963], [79.40669, 24.92436], [79.40324, 24.92789], [79.39869, 24.92945], [79.39007, 24.92952], [79.38555, 24.92822], [79.38194, 24.92498], [79.38159, 24.92037], [79.38443, 24.91671], [79.38881, 24.90954], [79.39353, 24.90686], [79.39846, 24.9092], [79.40089, 24.9133], [79.40664, 24.91963]]]}}, {"type": "Feature", "properties": {"state": "Madhya Pradesh", "district": "Chhatarpur", "block": "Nowgong", "gp_name": "Nowgong Gram Panchayat", "state_code": 23, "district_code": 396, "block_code": 3484, "gp_code": 133091, "centroid_lat": 24.7614, "centroid_lon": 79.502, "area_sq_km": 8.6, "boundary_source": "LGD Revenue Village Centroids + Block-Bounded Voronoi Tessellation", "boundary_quality": "DERIVED"}, "geometry": {"type": "Polygon", "coordinates": [[[79.51473, 24.76102], [79.51464, 24.76574], [79.51107, 24.76915], [79.50657, 24.7706], [79.50236, 24.77124], [79.49798, 24.77116], [79.49358, 24.76961], [79.49, 24.76637], [79.48991, 24.76176], [79.49208, 24.75799], [79.49475, 24.7552], [79.49681, 24.75095], [79.50153, 24.74835], [79.50639, 24.75073], [79.50887, 24.7547], [79.51473, 24.76102]]]}}, {"type": "Feature", "properties": {"state": "Madhya Pradesh", "district": "Chhatarpur", "block": "Nowgong", "gp_name": "Nowgong Rural", "state_code": 23, "district_code": 396, "block_code": 3484, "gp_code": 133092, "centroid_lat": 24.7814, "centroid_lon": 79.482, "area_sq_km": 8.7, "boundary_source": "LGD Revenue Village Centroids + Block-Bounded Voronoi Tessellation", "boundary_quality": "DERIVED"}, "geometry": {"type": "Polygon", "coordinates": [[[79.49443, 24.78103], [79.49449, 24.78569], [79.49112, 24.7892], [79.48663, 24.79073], [79.47807, 24.79094], [79.47356, 24.78963], [79.46985, 24.78643], [79.46992, 24.78176], [79.47469, 24.77515], [79.47683, 24.77098], [79.48153, 24.76827], [79.48638, 24.77078], [79.49109, 24.77764], [79.49443, 24.78103]]]}}, {"type": "Feature", "properties": {"state": "Madhya Pradesh", "district": "Chhatarpur", "block": "Rajnagar", "gp_name": "Rajnagar Gram Panchayat", "state_code": 23, "district_code": 396, "block_code": 3485, "gp_code": 133093, "centroid_lat": 24.7614, "centroid_lon": 79.678, "area_sq_km": 8.8, "boundary_source": "LGD Revenue Village Centroids + Block-Bounded Voronoi Tessellation", "boundary_quality": "DERIVED"}, "geometry": {"type": "Polygon", "coordinates": [[[79.6902, 24.76102], [79.6907, 24.76574], [79.6871, 24.76916], [79.68253, 24.77048], [79.67837, 24.77131], [79.66943, 24.76978], [79.66577, 24.76648], [79.66533, 24.7618], [79.67064, 24.75513], [79.67282, 24.75101], [79.67753, 24.74875], [79.68237, 24.75074], [79.6902, 24.76102]]]}}, {"type": "Feature", "properties": {"state": "Madhya Pradesh", "district": "Chhatarpur", "block": "Rajnagar", "gp_name": "Rajnagar Rural", "state_code": 23, "district_code": 396, "block_code": 3485, "gp_code": 133094, "centroid_lat": 24.7814, "centroid_lon": 79.658, "area_sq_km": 8.9, "boundary_source": "LGD Revenue Village Centroids + Block-Bounded Voronoi Tessellation", "boundary_quality": "DERIVED"}, "geometry": {"type": "Polygon", "coordinates": [[[79.67014, 24.78102], [79.67062, 24.78572], [79.66685, 24.78894], [79.66256, 24.79054], [79.65837, 24.7912], [79.65397, 24.79123], [79.64963, 24.78958], [79.64604, 24.78637], [79.64552, 24.78179], [79.65278, 24.77091], [79.65751, 24.76831], [79.66243, 24.77062], [79.6648, 24.77475], [79.67014, 24.78102]]]}}]}