{"type": "FeatureCollection", "features": [{"type": "Feature", "properties": {"state": "Madhya Pradesh", "district": "Dhar", "block": "Dhar", "gp_name": "Dhar Gram Panchayat", "state_code": 23, "district_code": 399, "block_code": 3580, "gp_code": 133137, "centroid_lat": 22.58, "centroid_lon": 75.486, "area_sq_km": 8.2, "boundary_source": "LGD Revenue Village Centroids + Block-Bounded Voronoi Tessellation", "boundary_quality": "DERIVED"}, "geometry": {"type": "Polygon", "coordinates": [[[75.49819, 22.57996], [75.49797, 22.58456], [75.49455, 22.58789], [75.49025, 22.58944], [75.48603, 22.5899], [75.47754, 22.58791], [75.47406, 22.58463], [75.47378, 22.58004], [75.48119, 22.5693], [75.48595, 22.56694], [75.49068, 22.56941], [75.49819, 22.57996]]]}}, {"type": "Feature", "properties": {"state": "Madhya Pradesh", "district": "Dhar", "block": "Dhar", "gp_name": "Dhar Rural", "state_code": 23, "district_code": 399, "block_code": 3580, "gp_code": 133138, "centroid_lat": 22.6, "centroid_lon": 75.466, "area_sq_km": 8.3, "boundary_source": "LGD Revenue Village Centroids + Block-Bounded Voronoi Tessellation", "boundary_quality": "DERIVED"}, "geometry": {"type": "Polygon", "coordinates": [[[75.4784, 22.59996], [75.47791, 22.60454], [75.47493, 22.60823], [75.46603, 22.61013], [75.45735, 22.60808], [75.4541, 22.60462], [75.45375, 22.60004], [75.45886, 22.59341], [75.46122, 22.58938], [75.46596, 22.58712], [75.47072, 22.58931], [75.47287, 22.59358], [75.4784, 22.59996]]]}}, {"type": "Feature", "properties": {"state": "Madhya Pradesh", "district": "Dhar", "block": "Badnawar", "gp_name": "Badnawar Gram Panchayat", "state_code": 23, "district_code": 399, "block_code": 3581, "gp_code": 133139, "centroid_lat": 22.7051, "centroid_lon": 75.4197, "area_sq_km": 8.4, "boundary_source": "LGD Revenue Village Centroids + Block-Bounded Voronoi Tessellation", "boundary_quality": "DERIVED"}, "geometry": {"type": "Polygon", "coordinates": [[[75.43183, 22.70507], [75.43179, 22.70971], [75.4282, 22.71294], [75.42401, 22.71467], [75.41547, 22.71465], [75.41089, 22.71332], [75.40742, 22.70986], [75.40773, 22.70513], [75.41278, 22.69871], [75.41486, 22.69435], [75.41966, 22.69227], [75.42437, 22.69456], [75.43183, 22.70507]]]}}, {"type": "Feature", "properties": {"state": "Madhya Pradesh", "district": "Dhar", "block": "Badnawar", "gp_name": "Badnawar Rural", "state_code": 23, "district_code": 399, "block_code": 3581, "gp_code": 133140, "centroid_lat": 22.7251, "centroid_lon": 75.3997, "area_sq_km": 8.5, "boundary_source": "LGD Revenue Village Centroids + Block-Bounded Voronoi Tessellation", "boundary_quality": "DERIVED"}, "geometry": {"type": "Polygon", "coordinates": [[[75.41213, 22.72507], [75.41167, 22.72966], [75.40843, 22.73315], [75.40407, 22.73481], [75.39543, 22.73474], [75.3911, 22.73312], [75.38774, 22.72973], [75.38733, 22.72513], [75.39262, 22.71856], [75.39505, 22.71476], [75.39966, 22.7123], [75.40445, 22.71438], [75.40685, 22.71843], [75.41213, 22.72507]]]}}, {"type": "Feature", "properties": {"state": "Madhya Pradesh", "district": "Dhar", "block": "Dharampuri", "gp_name": "Dharampuri Gram Panchayat", "state_code": 23, "district_code": 399, "block_code": 3582, "gp_code": 133141, "centroid_lat": 22.736, "centroid_lon": 75.2708, "area_sq_km": 8.6, "boundary_source": "LGD Revenue Village Centroids + Block-Bounded Voronoi Tessellation", "boundary_quality": "DERIVED"}, "geometry": {"type": "Polygon", "coordinates": [[[75.28332, 22.73598], [75.28276, 22.74057], [75.27971, 22.74424], [75.27512, 22.74562], [75.27082, 22.74617], [75.26668, 22.74527], [75.26238, 22.74383], [75.25874, 22.74066], [75.25862, 22.73602], [75.26609, 22.72549], [75.27077, 22.72325], [75.27559, 22.72523], [75.28025, 22.73235], [75.28332, 22.73598]]]}}, {"type": "Feature", "properties": {"state": "Madhya Pradesh", "district": "Dhar", "block": "Dharampuri", "gp_name": "Dharampuri Rural", "state_code": 23, "district_code": 399, "block_code": 3582, "gp_code": 133142, "centroid_lat": 22.756, "centroid_lon": 75.2508, "area_sq_km": 8.7, "boundary_source": "LGD Revenue Village Centroids + Block-Bounded Voronoi Tessellation", "boundary_quality": "DERIVED"}, "geometry": {"type": "Polygon", "coordinates": [[[75.26285, 22.75598], [75.26282, 22.7606], [75.25972, 22.76424], [75.25503, 22.76543], [75.24653, 22.7656], [75.24218, 22.76402], [75.23878, 22.76064], [75.23866, 22.75602], [75.2417, 22.75252], [75.24607, 22.74547], [75.25078, 22.74297], [75.2555, 22.74543], [75.26285, 22.75598]]]}}, {"type": "Feature", "properties": {"state": "Madhya Pradesh", "district": "Dhar", "block": "Gandhwani", "gp_name": "Gandhwani Gram Panchayat", "state_code": 23, "district_code": 399, "block_code": 3583, "gp_code": 133143, "centroid_lat": 22.6494, "centroid_lon": 75.1514, "area_sq_km": 8.8, "boundary_source": "LGD Revenue Village Centroids + Block-Bounded Voronoi Tessellation", "boundary_quality": "DERIVED"}, "geometry": {"type": "Polygon", "coordinates": [[[75.16352, 22.64939], [75.16384, 22.65417], [75.1602, 22.65755], [75.15559, 22.65876], [75.14705, 22.65916], [75.14273, 22.65746], [75.13894, 22.6542], [75.13902, 22.64941], [75.14458, 22.64308], [75.14656, 22.63859], [75.15139, 22.63663], [75.15601, 22.63903], [75.15822, 22.64306], [75.16352, 22.64939]]]}}, {"type": "Feature", "properties": {"state": "Madhya Pradesh", "district": "Dhar", "block": "Gandhwani", "gp_name": "Gandhwani Rural", "state_code": 23, "district_code": 399, "block_code": 3583, "gp_code": 133144, "centroid_lat": 22.6694, "centroid_lon": 75.1314, "area_sq_km": 8.9, "boundary_source": "LGD Revenue Village Centroids + Block-Bounded Voronoi Tessellation", "boundary_quality": "DERIVED"}, "geometry": {"type": "Polygon", "coordinates": [[[75.14356, 22.66939], [75.14386, 22.67418], [75.13984, 22.67722], [75.13555, 22.67868], [75.12715, 22.67894], [75.1228, 22.6774], [75.11908, 22.67415], [75.11885, 22.66941], [75.12673, 22.65896], [75.13139, 22.65679], [75.13609, 22.65886], [75.14356, 22.66939]]]}}, {"type": "Feature", "properties": {"state": "Madhya Pradesh", "district": "Dhar", "block": "Kukshi", "gp_name": "Kukshi Gram Panchayat", "state_code": 23, "district_code": 399, "block_code": 3584, "gp_code": 133145, "centroid_lat": 22.5106, "centroid_lon": 75.1514, "area_sq_km": 9.0, "boundary_source": "LGD Revenue Village Centroids + Block-Bounded Voronoi Tessellation", "boundary_quality": "DERIVED"}, "geometry": {"type": "Polygon", "coordinates": [[[75.16395, 22.51059], [75.16382, 22.51536], [75.16013, 22.5187], [75.15576, 22.52034], [75.14719, 22.52008], [75.14298, 22.51843], [75.13953, 22.51518], [75.13949, 22.51061], [75.1423, 22.50711], [75.1466, 22.49985], [75.15139, 22.49749], [75.15603, 22.50018], [75.1584, 22.50409], [75.16395, 22.51059]]]}}, {"type": "Feature", "properties": {"state": "Madhya Pradesh", "district": "Dhar", "block": "Kukshi", "gp_name": "Kukshi Rural", "state_code": 23, "district_code": 399, "block_code": 3584, "gp_code": 133146, "centroid_lat": 22.5306, "centroid_lon": 75.1314, "area_sq_km": 9.1, "boundary_source": "LGD Revenue Village Centroids + Block-Bounded Voronoi Tessellation", "boundary_quality": "DERIVED"}, "geometry": {"type": "Polygon", "coordinates": [[[75.14373, 22.53059], [75.14326, 22.53515], [75.13996, 22.53854], [75.13565, 22.5401], [75.13141, 22.54062], [75.12717, 22.54011], [75.12278, 22.53862], [75.11901, 22.53538], [75.11887, 22.53061], [75.12443, 22.52414], [75.12663, 22.51993], [75.13139, 22.51748], [75.13612, 22.51999], [75.13821, 22.52427], [75.14373, 22.53059]]]}}, {"type": "Feature", "properties": {"state": "Madhya Pradesh", "district": "Dhar", "block": "Manawar", "gp_name": "Manawar Gram Panchayat", "state_code": 23, "district_code": 399, "block_code": 3585, "gp_code": 133147, "centroid_lat": 22.424, "centroid_lon": 75.2708, "area_sq_km": 9.2, "boundary_source": "LGD Revenue Village Centroids + Block-Bounded Voronoi Tessellation", "boundary_quality": "DERIVED"}, "geometry": {"type": "Polygon", "coordinates": [[[75.28309, 22.42398], [75.28271, 22.42856], [75.27958, 22.43213], [75.27509, 22.43357], [75.27082, 22.43389], [75.26668, 22.43329], [75.26232, 22.43191], [75.25886, 22.42862], [75.25886, 22.42402], [75.26129, 22.42036], [75.26621, 22.41374], [75.27077, 22.41102], [75.27553, 22.41333], [75.2776, 22.41766], [75.28309, 22.42398]]]}}, {"type": "Feature", "properties": {"state": "Madhya Pradesh", "district": "Dhar", "block": "Manawar", "gp_name": "Manawar Rural", "state_code": 23, "district_code": 399, "block_code": 3585, "gp_code": 133148, "centroid_lat": 22.444, "centroid_lon": 75.2508, "area_sq_km": 9.3, "boundary_source": "LGD Revenue Village Centroids + Block-Bounded Voronoi Tessellation", "boundary_quality": "DERIVED"}, "geometry": {"type": "Polygon", "coordinates": [[[75.26323, 22.44398], [75.26273, 22.44857], [75.25926, 22.45184], [75.25508, 22.45357], [75.25082, 22.45413], [75.24668, 22.45328], [75.24229, 22.45194], [75.23849, 22.44876], [75.23838, 22.44402], [75.24614, 22.43358], [75.25078, 22.43122], [75.25549, 22.43343], [75.25765, 22.43761], [75.26323, 22.44398]]]}}, {"type": "Feature", "properties": {"state": "Madhya Pradesh", "district": "Dhar", "block": "Sardarpur", "gp_name": "Sardarpur Gram Panchayat", "state_code": 23, "district_code": 399, "block_code": 3586, "gp_code": 133149, "centroid_lat": 22.4549, "centroid_lon": 75.4197, "area_sq_km": 9.4, "boundary_source": "LGD Revenue Village Centroids + Block-Bounded Voronoi Tessellation", "boundary_quality": "DERIVED"}, "geometry": {"type": "Polygon", "coordinates": [[[75.43193, 22.45487], [75.43193, 22.45957], [75.42847, 22.463], [75.42393, 22.46432], [75.41973, 22.46488], [75.4154, 22.46463], [75.41131, 22.46274], [75.40756, 22.45961], [75.40714, 22.45493], [75.41054, 22.4514], [75.41507, 22.44459], [75.41966, 22.44168], [75.42437, 22.44433], [75.42654, 22.44851], [75.43193, 22.45487]]]}}, {"type": "Feature", "properties": {"state": "Madhya Pradesh", "district": "Dhar", "block": "Sardarpur", "gp_name": "Sardarpur Rural", "state_code": 23, "district_code": 399, "block_code": 3586, "gp_code": 133150, "centroid_lat": 22.4749, "centroid_lon": 75.3997, "area_sq_km": 4.5, "boundary_source": "LGD Revenue Village Centroids + Block-Bounded Voronoi Tessellation", "boundary_quality": "DERIVED"}, "geometry": {"type": "Polygon", "coordinates": [[[75.41204, 22.47487], [75.41187, 22.47955], [75.40854, 22.48307], [75.40408, 22.48465], [75.39549, 22.48442], [75.39092, 22.4831], [75.3876, 22.47959], [75.38767, 22.47493], [75.39063, 22.47143], [75.39495, 22.46433], [75.39966, 22.46212], [75.40426, 22.4646], [75.40893, 22.47132], [75.41204, 22.47487]]]}}]}