{"type": "FeatureCollection", "features": [{"type": "Feature", "properties": {"state": "Madhya Pradesh", "district": "Narmadapuram", "block": "Hoshangabad", "gp_name": "Hoshangabad Gram Panchayat", "state_code": 23, "district_code": 402, "block_code": 3680, "gp_code": 133187, "centroid_lat": 22.74, "centroid_lon": 77.906, "area_sq_km": 8.2, "boundary_source": "LGD Revenue Village Centroids + Block-Bounded Voronoi Tessellation", "boundary_quality": "DERIVED"}, "geometry": {"type": "Polygon", "coordinates": [[[77.91823, 22.73978], [77.91809, 22.74439], [77.9146, 22.74767], [77.91048, 22.74949], [77.9062, 22.74969], [77.90208, 22.74928], [77.89759, 22.74812], [77.8938, 22.74495], [77.89345, 22.74023], [77.89624, 22.73646], [77.89899, 22.73374], [77.90093, 22.72926], [77.90573, 22.72715], [77.91048, 22.72938], [77.91501, 22.73635], [77.91823, 22.73978]]]}}, {"type": "Feature", "properties": {"state": "Madhya Pradesh", "district": "Narmadapuram", "block": "Hoshangabad", "gp_name": "Hoshangabad Rural", "state_code": 23, "district_code": 402, "block_code": 3680, "gp_code": 133188, "centroid_lat": 22.76, "centroid_lon": 77.886, "area_sq_km": 8.3, "boundary_source": "LGD Revenue Village Centroids + Block-Bounded Voronoi Tessellation", "boundary_quality": "DERIVED"}, "geometry": {"type": "Polygon", "coordinates": [[[77.898, 22.75978], [77.89854, 22.76455], [77.8948, 22.76785], [77.8905, 22.76954], [77.88621, 22.77016], [77.87748, 22.76821], [77.87409, 22.76483], [77.87379, 22.76022], [77.87883, 22.75361], [77.88095, 22.74929], [77.88573, 22.74714], [77.89052, 22.74929], [77.89513, 22.7563], [77.898, 22.75978]]]}}, {"type": "Feature", "properties": {"state": "Madhya Pradesh", "district": "Narmadapuram", "block": "Babai", "gp_name": "Babai Gram Panchayat", "state_code": 23, "district_code": 402, "block_code": 3681, "gp_code": 133189, "centroid_lat": 22.8786, "centroid_lon": 77.818, "area_sq_km": 8.4, "boundary_source": "LGD Revenue Village Centroids + Block-Bounded Voronoi Tessellation", "boundary_quality": "DERIVED"}, "geometry": {"type": "Polygon", "coordinates": [[[77.8305, 22.87838], [77.83029, 22.88306], [77.82661, 22.88628], [77.82255, 22.88826], [77.81821, 22.88874], [77.80927, 22.887], [77.80594, 22.88348], [77.80564, 22.87882], [77.8109, 22.87227], [77.813, 22.868], [77.81773, 22.86562], [77.82261, 22.86771], [77.82469, 22.87216], [77.8305, 22.87838]]]}}, {"type": "Feature", "properties": {"state": "Madhya Pradesh", "district": "Narmadapuram", "block": "Babai", "gp_name": "Babai Rural", "state_code": 23, "district_code": 402, "block_code": 3681, "gp_code": 133190, "centroid_lat": 22.8986, "centroid_lon": 77.798, "area_sq_km": 8.5, "boundary_source": "LGD Revenue Village Centroids + Block-Bounded Voronoi Tessellation", "boundary_quality": "DERIVED"}, "geometry": {"type": "Polygon", "coordinates": [[[77.81055, 22.89838], [77.81016, 22.90302], [77.80692, 22.90656], [77.80251, 22.90817], [77.7982, 22.90852], [77.79392, 22.90824], [77.78955, 22.90673], [77.78578, 22.90354], [77.78573, 22.89882], [77.79321, 22.88843], [77.79773, 22.88545], [77.8024, 22.88821], [77.80726, 22.89485], [77.81055, 22.89838]]]}}, {"type": "Feature", "properties": {"state": "Madhya Pradesh", "district": "Narmadapuram", "block": "Bankhedi", "gp_name": "Bankhedi Gram Panchayat", "state_code": 23, "district_code": 402, "block_code": 3682, "gp_code": 133191, "centroid_lat": 22.8786, "centroid_lon": 77.642, "area_sq_km": 8.6, "boundary_source": "LGD Revenue Village Centroids + Block-Bounded Voronoi Tessellation", "boundary_quality": "DERIVED"}, "geometry": {"type": "Polygon", "coordinates": [[[77.65438, 22.87839], [77.6543, 22.88308], [77.65058, 22.88627], [77.6464, 22.88796], [77.64219, 22.88842], [77.63807, 22.88786], [77.63365, 22.88662], [77.62991, 22.88348], [77.62978, 22.8788], [77.63483, 22.87219], [77.63715, 22.86828], [77.64175, 22.86568], [77.64659, 22.86778], [77.64869, 22.87217], [77.65438, 22.87839]]]}}, {"type": "Feature", "properties": {"state": "Madhya Pradesh", "district": "Narmadapuram", "block": "Bankhedi", "gp_name": "Bankhedi Rural", "state_code": 23, "district_code": 402, "block_code": 3682, "gp_code": 133192, "centroid_lat": 22.8986, "centroid_lon": 77.622, "area_sq_km": 8.7, "boundary_source": "LGD Revenue Village Centroids + Block-Bounded Voronoi Tessellation", "boundary_quality": "DERIVED"}, "geometry": {"type": "Polygon", "coordinates": [[[77.63393, 22.8984], [77.63426, 22.90307], [77.63061, 22.9063], [77.62654, 22.90826], [77.62219, 22.90851], [77.61786, 22.90835], [77.6137, 22.90657], [77.61019, 22.90336], [77.60944, 22.89881], [77.61277, 22.89524], [77.61702, 22.888], [77.62175, 22.8857], [77.62661, 22.88775], [77.62895, 22.89192], [77.63161, 22.89473], [77.63393, 22.8984]]]}}, {"type": "Feature", "properties": {"state": "Madhya Pradesh", "district": "Narmadapuram", "block": "Pipariya", "gp_name": "Pipariya Gram Panchayat", "state_code": 23, "district_code": 402, "block_code": 3683, "gp_code": 133193, "centroid_lat": 22.74, "centroid_lon": 77.554, "area_sq_km": 8.8, "boundary_source": "LGD Revenue Village Centroids + Block-Bounded Voronoi Tessellation", "boundary_quality": "DERIVED"}, "geometry": {"type": "Polygon", "coordinates": [[[77.56595, 22.73981], [77.56601, 22.74439], [77.56263, 22.74773], [77.55836, 22.7493], [77.55419, 22.75004], [77.55001, 22.74939], [77.5455, 22.74816], [77.54165, 22.74498], [77.54176, 22.7402], [77.54911, 22.72957], [77.55377, 22.72742], [77.5586, 22.72919], [77.56101, 22.73327], [77.56595, 22.73981]]]}}, {"type": "Feature", "properties": {"state": "Madhya Pradesh", "district": "Narmadapuram", "block": "Pipariya", "gp_name": "Pipariya Rural", "state_code": 23, "district_code": 402, "block_code": 3683, "gp_code": 133194, "centroid_lat": 22.76, "centroid_lon": 77.534, "area_sq_km": 8.9, "boundary_source": "LGD Revenue Village Centroids + Block-Bounded Voronoi Tessellation", "boundary_quality": "DERIVED"}, "geometry": {"type": "Polygon", "coordinates": [[[77.54612, 22.75981], [77.54634, 22.76451], [77.54262, 22.76772], [77.53839, 22.76937], [77.53418, 22.76997], [77.52983, 22.7698], [77.52534, 22.76831], [77.52197, 22.76485], [77.5217, 22.76019], [77.52919, 22.74974], [77.53376, 22.74717], [77.53858, 22.74922], [77.54307, 22.75634], [77.54612, 22.75981]]]}}, {"type": "Feature", "properties": {"state": "Madhya Pradesh", "district": "Narmadapuram", "block": "Sohagpur", "gp_name": "Sohagpur Gram Panchayat", "state_code": 23, "district_code": 402, "block_code": 3684, "gp_code": 133195, "centroid_lat": 22.6014, "centroid_lon": 77.642, "area_sq_km": 9.0, "boundary_source": "LGD Revenue Village Centroids + Block-Bounded Voronoi Tessellation", "boundary_quality": "DERIVED"}, "geometry": {"type": "Polygon", "coordinates": [[[77.65442, 22.6012], [77.65456, 22.60599], [77.65083, 22.60931], [77.6465, 22.61099], [77.63786, 22.61116], [77.63356, 22.60952], [77.62978, 22.60634], [77.62965, 22.6016], [77.63233, 22.59786], [77.63511, 22.59522], [77.63717, 22.5911], [77.64176, 22.58876], [77.64657, 22.59063], [77.64869, 22.59497], [77.65442, 22.6012]]]}}, {"type": "Feature", "properties": {"state": "Madhya Pradesh", "district": "Narmadapuram", "block": "Sohagpur", "gp_name": "Sohagpur Rural", "state_code": 23, "district_code": 402, "block_code": 3684, "gp_code": 133196, "centroid_lat": 22.6214, "centroid_lon": 77.622, "area_sq_km": 9.1, "boundary_source": "LGD Revenue Village Centroids + Block-Bounded Voronoi Tessellation", "boundary_quality": "DERIVED"}, "geometry": {"type": "Polygon", "coordinates": [[[77.63411, 22.6212], [77.63447, 22.62596], [77.63061, 22.62911], [77.62635, 22.63069], [77.62219, 22.63147], [77.61792, 22.63103], [77.61352, 22.62955], [77.61021, 22.62616], [77.61009, 22.62159], [77.61723, 22.61121], [77.62175, 22.6083], [77.62658, 22.6106], [77.6288, 22.61486], [77.63411, 22.6212]]]}}, {"type": "Feature", "properties": {"state": "Madhya Pradesh", "district": "Narmadapuram", "block": "Seoni Malwa", "gp_name": "Seoni Malwa Gram Panchayat", "state_code": 23, "district_code": 402, "block_code": 3685, "gp_code": 133197, "centroid_lat": 22.6014, "centroid_lon": 77.818, "area_sq_km": 9.2, "boundary_source": "LGD Revenue Village Centroids + Block-Bounded Voronoi Tessellation", "boundary_quality": "DERIVED"}, "geometry": {"type": "Polygon", "coordinates": [[[77.83036, 22.60118], [77.83045, 22.60593], [77.82678, 22.60925], [77.82249, 22.61095], [77.81821, 22.6115], [77.81387, 22.61117], [77.80939, 22.60971], [77.80624, 22.60617], [77.80566, 22.60162], [77.80876, 22.59803], [77.81319, 22.59116], [77.81774, 22.58847], [77.82247, 22.59083], [77.82472, 22.59492], [77.83036, 22.60118]]]}}, {"type": "Feature", "properties": {"state": "Madhya Pradesh", "district": "Narmadapuram", "block": "Seoni Malwa", "gp_name": "Seoni Malwa Rural", "state_code": 23, "district_code": 402, "block_code": 3685, "gp_code": 133198, "centroid_lat": 22.6214, "centroid_lon": 77.798, "area_sq_km": 9.3, "boundary_source": "LGD Revenue Village Centroids + Block-Bounded Voronoi Tessellation", "boundary_quality": "DERIVED"}, "geometry": {"type": "Polygon", "coordinates": [[[77.8103, 22.62118], [77.81007, 22.6258], [77.80689, 22.62935], [77.80246, 22.63089], [77.7982, 22.63124], [77.79398, 22.63091], [77.78968, 22.62942], [77.78614, 22.6262], [77.78588, 22.62161], [77.79105, 22.61519], [77.79316, 22.61111], [77.79774, 22.60853], [77.80259, 22.61054], [77.80467, 22.61497], [77.8103, 22.62118]]]}}]}