{"type": "FeatureCollection", "features": [{"type": "Feature", "properties": {"state": "Madhya Pradesh", "district": "Khandwa", "block": "Khandwa", "gp_name": "Khandwa Gram Panchayat", "state_code": 23, "district_code": 406, "block_code": 3780, "gp_code": 133245, "centroid_lat": 21.82, "centroid_lon": 76.536, "area_sq_km": 9.0, "boundary_source": "LGD Revenue Village Centroids + Block-Bounded Voronoi Tessellation", "boundary_quality": "DERIVED"}, "geometry": {"type": "Polygon", "coordinates": [[[76.54785, 21.81989], [76.54809, 21.82454], [76.5449, 21.82815], [76.54027, 21.82936], [76.53191, 21.8295], [76.52746, 21.82814], [76.52406, 21.82475], [76.5237, 21.82011], [76.52632, 21.81636], [76.52912, 21.8137], [76.53108, 21.8092], [76.53587, 21.80741], [76.54059, 21.80936], [76.54294, 21.81339], [76.54785, 21.81989]]]}}, {"type": "Feature", "properties": {"state": "Madhya Pradesh", "district": "Khandwa", "block": "Khandwa", "gp_name": "Khandwa Rural", "state_code": 23, "district_code": 406, "block_code": 3780, "gp_code": 133246, "centroid_lat": 21.84, "centroid_lon": 76.516, "area_sq_km": 9.1, "boundary_source": "LGD Revenue Village Centroids + Block-Bounded Voronoi Tessellation", "boundary_quality": "DERIVED"}, "geometry": {"type": "Polygon", "coordinates": [[[76.52813, 21.83989], [76.52811, 21.84455], [76.52468, 21.84794], [76.52039, 21.84961], [76.5161, 21.84988], [76.51187, 21.84956], [76.50745, 21.84814], [76.50405, 21.84475], [76.50353, 21.84011], [76.50631, 21.83635], [76.50903, 21.83362], [76.51108, 21.82921], [76.51587, 21.82727], [76.52045, 21.82969], [76.52267, 21.83365], [76.52537, 21.83627], [76.52813, 21.83989]]]}}, {"type": "Feature", "properties": {"state": "Madhya Pradesh", "district": "Khandwa", "block": "Baladi", "gp_name": "Baladi Gram Panchayat", "state_code": 23, "district_code": 406, "block_code": 3781, "gp_code": 133247, "centroid_lat": 21.9451, "centroid_lon": 76.4697, "area_sq_km": 9.2, "boundary_source": "LGD Revenue Village Centroids + Block-Bounded Voronoi Tessellation", "boundary_quality": "DERIVED"}, "geometry": {"type": "Polygon", "coordinates": [[[76.48189, 21.94499], [76.48206, 21.94975], [76.47825, 21.95292], [76.47402, 21.95457], [76.4698, 21.9549], [76.46562, 21.95454], [76.46137, 21.95303], [76.45758, 21.94991], [76.45783, 21.94521], [76.46024, 21.94154], [76.46288, 21.93886], [76.46492, 21.93461], [76.46957, 21.93253], [76.47428, 21.93449], [76.47886, 21.94146], [76.48189, 21.94499]]]}}, {"type": "Feature", "properties": {"state": "Madhya Pradesh", "district": "Khandwa", "block": "Baladi", "gp_name": "Baladi Rural", "state_code": 23, "district_code": 406, "block_code": 3781, "gp_code": 133248, "centroid_lat": 21.9651, "centroid_lon": 76.4497, "area_sq_km": 9.3, "boundary_source": "LGD Revenue Village Centroids + Block-Bounded Voronoi Tessellation", "boundary_quality": "DERIVED"}, "geometry": {"type": "Polygon", "coordinates": [[[76.46203, 21.96499], [76.46201, 21.96973], [76.45831, 21.97298], [76.45396, 21.97445], [76.44548, 21.97487], [76.44135, 21.97304], [76.43735, 21.97], [76.43725, 21.96521], [76.44264, 21.95863], [76.44479, 21.95432], [76.44957, 21.95225], [76.45428, 21.9545], [76.45872, 21.96152], [76.46203, 21.96499]]]}}, {"type": "Feature", "properties": {"state": "Madhya Pradesh", "district": "Khandwa", "block": "Chhegaon Makhan", "gp_name": "Chhegaon Makhan Gram Panchayat", "state_code": 23, "district_code": 406, "block_code": 3782, "gp_code": 133249, "centroid_lat": 21.976, "centroid_lon": 76.3208, "area_sq_km": 9.4, "boundary_source": "LGD Revenue Village Centroids + Block-Bounded Voronoi Tessellation", "boundary_quality": "DERIVED"}, "geometry": {"type": "Polygon", "coordinates": [[[76.33324, 21.9759], [76.33277, 21.98051], [76.32931, 21.9838], [76.32519, 21.98565], [76.32089, 21.98597], [76.31214, 21.98422], [76.3087, 21.98079], [76.30841, 21.9761], [76.31159, 21.97253], [76.31605, 21.96556], [76.32068, 21.96337], [76.3255, 21.96516], [76.32762, 21.96953], [76.33324, 21.9759]]]}}, {"type": "Feature", "properties": {"state": "Madhya Pradesh", "district": "Khandwa", "block": "Chhegaon Makhan", "gp_name": "Chhegaon Makhan Rural", "state_code": 23, "district_code": 406, "block_code": 3782, "gp_code": 133250, "centroid_lat": 21.996, "centroid_lon": 76.3008, "area_sq_km": 4.5, "boundary_source": "LGD Revenue Village Centroids + Block-Bounded Voronoi Tessellation", "boundary_quality": "DERIVED"}, "geometry": {"type": "Polygon", "coordinates": [[[76.31289, 21.9959], [76.31301, 22.0006], [76.30963, 22.00409], [76.30502, 22.00528], [76.30089, 22.00608], [76.29657, 22.00576], [76.29206, 22.00429], [76.28861, 22.00082], [76.28883, 21.99609], [76.29392, 21.98969], [76.29614, 21.98575], [76.30068, 21.98286], [76.30529, 21.98565], [76.31289, 21.9959]]]}}, {"type": "Feature", "properties": {"state": "Madhya Pradesh", "district": "Khandwa", "block": "Harsud", "gp_name": "Harsud Gram Panchayat", "state_code": 23, "district_code": 406, "block_code": 3783, "gp_code": 133251, "centroid_lat": 21.8894, "centroid_lon": 76.2014, "area_sq_km": 4.6, "boundary_source": "LGD Revenue Village Centroids + Block-Bounded Voronoi Tessellation", "boundary_quality": "DERIVED"}, "geometry": {"type": "Polygon", "coordinates": [[[76.21357, 21.88931], [76.21341, 21.89394], [76.2101, 21.89739], [76.20575, 21.899], [76.20148, 21.89944], [76.19728, 21.89889], [76.19309, 21.89728], [76.18963, 21.89405], [76.18932, 21.88949], [76.19429, 21.88286], [76.19654, 21.87868], [76.20129, 21.87667], [76.20602, 21.87876], [76.20818, 21.88297], [76.21088, 21.88565], [76.21357, 21.88931]]]}}, {"type": "Feature", "properties": {"state": "Madhya Pradesh", "district": "Khandwa", "block": "Harsud", "gp_name": "Harsud Rural", "state_code": 23, "district_code": 406, "block_code": 3783, "gp_code": 133252, "centroid_lat": 21.9094, "centroid_lon": 76.1814, "area_sq_km": 4.7, "boundary_source": "LGD Revenue Village Centroids + Block-Bounded Voronoi Tessellation", "boundary_quality": "DERIVED"}, "geometry": {"type": "Polygon", "coordinates": [[[76.19362, 21.90931], [76.19359, 21.91401], [76.18999, 21.91729], [76.18576, 21.91901], [76.17729, 21.91887], [76.17275, 21.9176], [76.1693, 21.91418], [76.16952, 21.90948], [76.1743, 21.90288], [76.17654, 21.89869], [76.1813, 21.8967], [76.1861, 21.89858], [76.18849, 21.90268], [76.19362, 21.90931]]]}}, {"type": "Feature", "properties": {"state": "Madhya Pradesh", "district": "Khandwa", "block": "Khalwa", "gp_name": "Khalwa Gram Panchayat", "state_code": 23, "district_code": 406, "block_code": 3784, "gp_code": 133253, "centroid_lat": 21.7506, "centroid_lon": 76.2014, "area_sq_km": 4.8, "boundary_source": "LGD Revenue Village Centroids + Block-Bounded Voronoi Tessellation", "boundary_quality": "DERIVED"}, "geometry": {"type": "Polygon", "coordinates": [[[76.2139, 21.75051], [76.21371, 21.75526], [76.20987, 21.75839], [76.20572, 21.76013], [76.20148, 21.76058], [76.19717, 21.76035], [76.19282, 21.75874], [76.1892, 21.75542], [76.18902, 21.75069], [76.19449, 21.74424], [76.1966, 21.74002], [76.20129, 21.7375], [76.206, 21.73999], [76.20835, 21.74401], [76.2139, 21.75051]]]}}, {"type": "Feature", "properties": {"state": "Madhya Pradesh", "district": "Khandwa", "block": "Khalwa", "gp_name": "Khalwa Rural", "state_code": 23, "district_code": 406, "block_code": 3784, "gp_code": 133254, "centroid_lat": 21.7706, "centroid_lon": 76.1814, "area_sq_km": 4.9, "boundary_source": "LGD Revenue Village Centroids + Block-Bounded Voronoi Tessellation", "boundary_quality": "DERIVED"}, "geometry": {"type": "Polygon", "coordinates": [[[76.19384, 21.77051], [76.19383, 21.7753], [76.19013, 21.77863], [76.18572, 21.78014], [76.18148, 21.78049], [76.17724, 21.78018], [76.17278, 21.77877], [76.16956, 21.77528], [76.16898, 21.77069], [76.17453, 21.76428], [76.17667, 21.76015], [76.18129, 21.75746], [76.18603, 21.75992], [76.18828, 21.76407], [76.19384, 21.77051]]]}}, {"type": "Feature", "properties": {"state": "Madhya Pradesh", "district": "Khandwa", "block": "Pandhana", "gp_name": "Pandhana Gram Panchayat", "state_code": 23, "district_code": 406, "block_code": 3785, "gp_code": 133255, "centroid_lat": 21.664, "centroid_lon": 76.3208, "area_sq_km": 5.0, "boundary_source": "LGD Revenue Village Centroids + Block-Bounded Voronoi Tessellation", "boundary_quality": "DERIVED"}, "geometry": {"type": "Polygon", "coordinates": [[[76.33294, 21.6639], [76.33324, 21.6687], [76.32939, 21.67189], [76.32508, 21.67344], [76.32089, 21.67406], [76.31676, 21.67335], [76.31251, 21.67188], [76.30849, 21.66888], [76.30893, 21.66409], [76.31167, 21.66055], [76.31596, 21.65334], [76.32068, 21.65111], [76.32541, 21.65334], [76.32979, 21.66043], [76.33294, 21.6639]]]}}, {"type": "Feature", "properties": {"state": "Madhya Pradesh", "district": "Khandwa", "block": "Pandhana", "gp_name": "Pandhana Rural", "state_code": 23, "district_code": 406, "block_code": 3785, "gp_code": 133256, "centroid_lat": 21.684, "centroid_lon": 76.3008, "area_sq_km": 5.1, "boundary_source": "LGD Revenue Village Centroids + Block-Bounded Voronoi Tessellation", "boundary_quality": "DERIVED"}, "geometry": {"type": "Polygon", "coordinates": [[[76.31319, 21.6839], [76.31326, 21.68871], [76.30943, 21.69193], [76.30498, 21.69322], [76.30089, 21.6938], [76.29676, 21.69335], [76.29243, 21.69195], [76.28906, 21.68865], [76.28892, 21.68409], [76.29123, 21.68038], [76.2939, 21.67766], [76.29606, 21.67355], [76.30068, 21.67104], [76.30549, 21.67316], [76.30988, 21.6804], [76.31319, 21.6839]]]}}, {"type": "Feature", "properties": {"state": "Madhya Pradesh", "district": "Khandwa", "block": "Punasa", "gp_name": "Punasa Gram Panchayat", "state_code": 23, "district_code": 406, "block_code": 3786, "gp_code": 133257, "centroid_lat": 21.6949, "centroid_lon": 76.4697, "area_sq_km": 5.2, "boundary_source": "LGD Revenue Village Centroids + Block-Bounded Voronoi Tessellation", "boundary_quality": "DERIVED"}, "geometry": {"type": "Polygon", "coordinates": [[[76.48206, 21.69479], [76.48179, 21.69946], [76.47841, 21.70289], [76.47403, 21.7044], [76.4698, 21.70471], [76.4656, 21.7044], [76.46135, 21.70285], [76.45771, 21.69967], [76.45772, 21.69501], [76.46487, 21.68428], [76.46957, 21.68196], [76.47436, 21.6841], [76.4766, 21.68832], [76.48206, 21.69479]]]}}, {"type": "Feature", "properties": {"state": "Madhya Pradesh", "district": "Khandwa", "block": "Punasa", "gp_name": "Punasa Rural", "state_code": 23, "district_code": 406, "block_code": 3786, "gp_code": 133258, "centroid_lat": 21.7149, "centroid_lon": 76.4497, "area_sq_km": 5.3, "boundary_source": "LGD Revenue Village Centroids + Block-Bounded Voronoi Tessellation", "boundary_quality": "DERIVED"}, "geometry": {"type": "Polygon", "coordinates": [[[76.46209, 21.71479], [76.46161, 21.71939], [76.4582, 21.7227], [76.45413, 21.72463], [76.44564, 21.7243], [76.44141, 21.72279], [76.43737, 21.7198], [76.4378, 21.715], [76.44019, 21.71132], [76.44285, 21.70862], [76.44501, 21.70459], [76.44957, 21.70176], [76.45425, 21.70435], [76.45644, 21.70848], [76.46209, 21.71479]]]}}]}