{"type": "FeatureCollection", "features": [{"type": "Feature", "properties": {"state": "Madhya Pradesh", "district": "Mandsaur", "block": "Mandsaur", "gp_name": "Mandsaur Gram Panchayat", "state_code": 23, "district_code": 410, "block_code": 3840, "gp_code": 133287, "centroid_lat": 24.06, "centroid_lon": 75.246, "area_sq_km": 8.2, "boundary_source": "LGD Revenue Village Centroids + Block-Bounded Voronoi Tessellation", "boundary_quality": "DERIVED"}, "geometry": {"type": "Polygon", "coordinates": [[[75.25807, 24.05998], [75.25852, 24.06474], [75.25494, 24.06818], [75.25032, 24.06954], [75.24602, 24.06977], [75.23712, 24.06818], [75.23368, 24.06471], [75.23379, 24.06002], [75.23895, 24.05355], [75.24117, 24.04935], [75.24597, 24.04685], [75.25069, 24.04954], [75.25299, 24.05356], [75.25807, 24.05998]]]}}, {"type": "Feature", "properties": {"state": "Madhya Pradesh", "district": "Mandsaur", "block": "Mandsaur", "gp_name": "Mandsaur Rural", "state_code": 23, "district_code": 410, "block_code": 3840, "gp_code": 133288, "centroid_lat": 24.08, "centroid_lon": 75.226, "area_sq_km": 8.3, "boundary_source": "LGD Revenue Village Centroids + Block-Bounded Voronoi Tessellation", "boundary_quality": "DERIVED"}, "geometry": {"type": "Polygon", "coordinates": [[[75.23836, 24.07998], [75.23807, 24.08457], [75.23477, 24.08802], [75.23042, 24.08974], [75.22602, 24.08993], [75.2174, 24.08792], [75.21397, 24.08459], [75.21345, 24.08002], [75.21676, 24.0765], [75.22129, 24.06961], [75.22598, 24.06698], [75.23079, 24.06933], [75.23301, 24.07354], [75.23836, 24.07998]]]}}, {"type": "Feature", "properties": {"state": "Madhya Pradesh", "district": "Mandsaur", "block": "Bhanpura", "gp_name": "Bhanpura Gram Panchayat", "state_code": 23, "district_code": 410, "block_code": 3841, "gp_code": 133289, "centroid_lat": 24.1986, "centroid_lon": 75.158, "area_sq_km": 8.4, "boundary_source": "LGD Revenue Village Centroids + Block-Bounded Voronoi Tessellation", "boundary_quality": "DERIVED"}, "geometry": {"type": "Polygon", "coordinates": [[[75.17041, 24.19859], [75.17059, 24.20337], [75.16661, 24.20648], [75.1622, 24.20788], [75.15801, 24.20826], [75.15377, 24.20799], [75.14926, 24.20663], [75.14554, 24.20335], [75.1455, 24.19861], [75.15098, 24.19217], [75.15325, 24.18811], [75.15798, 24.18562], [75.16262, 24.18833], [75.16494, 24.19222], [75.16779, 24.19487], [75.17041, 24.19859]]]}}, {"type": "Feature", "properties": {"state": "Madhya Pradesh", "district": "Mandsaur", "block": "Bhanpura", "gp_name": "Bhanpura Rural", "state_code": 23, "district_code": 410, "block_code": 3841, "gp_code": 133290, "centroid_lat": 24.2186, "centroid_lon": 75.138, "area_sq_km": 8.5, "boundary_source": "LGD Revenue Village Centroids + Block-Bounded Voronoi Tessellation", "boundary_quality": "DERIVED"}, "geometry": {"type": "Polygon", "coordinates": [[[75.15042, 24.21859], [75.15053, 24.22335], [75.14691, 24.22675], [75.14238, 24.22827], [75.13801, 24.2285], [75.13377, 24.228], [75.12908, 24.22679], [75.12572, 24.22328], [75.12568, 24.21861], [75.12861, 24.21504], [75.13317, 24.20793], [75.13799, 24.20543], [75.14288, 24.20776], [75.14495, 24.21221], [75.15042, 24.21859]]]}}, {"type": "Feature", "properties": {"state": "Madhya Pradesh", "district": "Mandsaur", "block": "Daloda", "gp_name": "Daloda Gram Panchayat", "state_code": 23, "district_code": 410, "block_code": 3842, "gp_code": 133291, "centroid_lat": 24.1986, "centroid_lon": 74.982, "area_sq_km": 8.6, "boundary_source": "LGD Revenue Village Centroids + Block-Bounded Voronoi Tessellation", "boundary_quality": "DERIVED"}, "geometry": {"type": "Polygon", "coordinates": [[[74.99427, 24.1986], [74.99438, 24.2033], [74.99083, 24.2067], [74.98636, 24.20825], [74.97784, 24.20781], [74.97328, 24.2066], [74.9696, 24.20331], [74.9695, 24.1986], [74.97494, 24.19212], [74.9772, 24.18798], [74.982, 24.18597], [74.98669, 24.18821], [74.99427, 24.1986]]]}}, {"type": "Feature", "properties": {"state": "Madhya Pradesh", "district": "Mandsaur", "block": "Daloda", "gp_name": "Daloda Rural", "state_code": 23, "district_code": 410, "block_code": 3842, "gp_code": 133292, "centroid_lat": 24.2186, "centroid_lon": 74.962, "area_sq_km": 8.7, "boundary_source": "LGD Revenue Village Centroids + Block-Bounded Voronoi Tessellation", "boundary_quality": "DERIVED"}, "geometry": {"type": "Polygon", "coordinates": [[[74.97447, 24.2186], [74.97404, 24.22318], [74.97056, 24.22646], [74.96639, 24.22832], [74.962, 24.22856], [74.953, 24.22685], [74.94967, 24.22328], [74.94941, 24.2186], [74.95505, 24.21222], [74.95721, 24.20799], [74.962, 24.20564], [74.96675, 24.20808], [74.96917, 24.21202], [74.97447, 24.2186]]]}}, {"type": "Feature", "properties": {"state": "Madhya Pradesh", "district": "Mandsaur", "block": "Garoth", "gp_name": "Garoth Gram Panchayat", "state_code": 23, "district_code": 410, "block_code": 3843, "gp_code": 133293, "centroid_lat": 24.06, "centroid_lon": 74.894, "area_sq_km": 8.8, "boundary_source": "LGD Revenue Village Centroids + Block-Bounded Voronoi Tessellation", "boundary_quality": "DERIVED"}, "geometry": {"type": "Polygon", "coordinates": [[[74.90635, 24.06001], [74.90614, 24.06463], [74.90291, 24.06819], [74.89823, 24.06941], [74.88959, 24.06975], [74.88517, 24.06809], [74.88184, 24.06461], [74.88159, 24.05999], [74.88703, 24.05359], [74.88933, 24.04961], [74.89401, 24.04721], [74.89887, 24.04922], [74.90108, 24.05351], [74.90635, 24.06001]]]}}, {"type": "Feature", "properties": {"state": "Madhya Pradesh", "district": "Mandsaur", "block": "Garoth", "gp_name": "Garoth Rural", "state_code": 23, "district_code": 410, "block_code": 3843, "gp_code": 133294, "centroid_lat": 24.08, "centroid_lon": 74.874, "area_sq_km": 8.9, "boundary_source": "LGD Revenue Village Centroids + Block-Bounded Voronoi Tessellation", "boundary_quality": "DERIVED"}, "geometry": {"type": "Polygon", "coordinates": [[[74.88675, 24.08001], [74.8866, 24.0848], [74.883, 24.08827], [74.87817, 24.08928], [74.86961, 24.0897], [74.86515, 24.08811], [74.86173, 24.08465], [74.86141, 24.07999], [74.86938, 24.06974], [74.87401, 24.06722], [74.87883, 24.06931], [74.88332, 24.07646], [74.88675, 24.08001]]]}}, {"type": "Feature", "properties": {"state": "Madhya Pradesh", "district": "Mandsaur", "block": "Malhargarh", "gp_name": "Malhargarh Gram Panchayat", "state_code": 23, "district_code": 410, "block_code": 3844, "gp_code": 133295, "centroid_lat": 23.9214, "centroid_lon": 74.982, "area_sq_km": 9.0, "boundary_source": "LGD Revenue Village Centroids + Block-Bounded Voronoi Tessellation", "boundary_quality": "DERIVED"}, "geometry": {"type": "Polygon", "coordinates": [[[74.99469, 23.9214], [74.9945, 23.92616], [74.99089, 23.92957], [74.98627, 23.93087], [74.982, 23.93119], [74.97774, 23.93085], [74.97334, 23.92936], [74.96945, 23.92617], [74.96984, 23.9214], [74.975, 23.91496], [74.97736, 23.91111], [74.982, 23.90821], [74.98669, 23.911], [74.98893, 23.91503], [74.99177, 23.91768], [74.99469, 23.9214]]]}}, {"type": "Feature", "properties": {"state": "Madhya Pradesh", "district": "Mandsaur", "block": "Malhargarh", "gp_name": "Malhargarh Rural", "state_code": 23, "district_code": 410, "block_code": 3844, "gp_code": 133296, "centroid_lat": 23.9414, "centroid_lon": 74.962, "area_sq_km": 9.1, "boundary_source": "LGD Revenue Village Centroids + Block-Bounded Voronoi Tessellation", "boundary_quality": "DERIVED"}, "geometry": {"type": "Polygon", "coordinates": [[[74.97461, 23.9414], [74.97428, 23.94608], [74.97076, 23.94945], [74.96634, 23.95103], [74.95785, 23.95061], [74.9534, 23.9493], [74.94945, 23.94617], [74.94965, 23.9414], [74.95507, 23.93502], [74.95734, 23.93106], [74.962, 23.92822], [74.96681, 23.93073], [74.96892, 23.93504], [74.97461, 23.9414]]]}}, {"type": "Feature", "properties": {"state": "Madhya Pradesh", "district": "Mandsaur", "block": "Sitamau", "gp_name": "Sitamau Gram Panchayat", "state_code": 23, "district_code": 410, "block_code": 3845, "gp_code": 133297, "centroid_lat": 23.9214, "centroid_lon": 75.158, "area_sq_km": 9.2, "boundary_source": "LGD Revenue Village Centroids + Block-Bounded Voronoi Tessellation", "boundary_quality": "DERIVED"}, "geometry": {"type": "Polygon", "coordinates": [[[75.17059, 23.92139], [75.17037, 23.92609], [75.16656, 23.92925], [75.16226, 23.93083], [75.15362, 23.93115], [75.14919, 23.92952], [75.14563, 23.92612], [75.14577, 23.92141], [75.14823, 23.91769], [75.15101, 23.91498], [75.15333, 23.91107], [75.15798, 23.90831], [75.16271, 23.9109], [75.16505, 23.9149], [75.17059, 23.92139]]]}}, {"type": "Feature", "properties": {"state": "Madhya Pradesh", "district": "Mandsaur", "block": "Sitamau", "gp_name": "Sitamau Rural", "state_code": 23, "district_code": 410, "block_code": 3845, "gp_code": 133298, "centroid_lat": 23.9414, "centroid_lon": 75.138, "area_sq_km": 9.3, "boundary_source": "LGD Revenue Village Centroids + Block-Bounded Voronoi Tessellation", "boundary_quality": "DERIVED"}, "geometry": {"type": "Polygon", "coordinates": [[[75.15066, 23.94139], [75.15058, 23.94617], [75.1467, 23.94938], [75.14216, 23.9506], [75.13801, 23.95116], [75.13363, 23.95113], [75.12926, 23.94945], [75.12541, 23.94621], [75.12579, 23.94141], [75.13103, 23.93501], [75.13335, 23.93111], [75.13799, 23.9284], [75.14279, 23.93073], [75.14735, 23.93783], [75.15066, 23.94139]]]}}]}