{"type": "FeatureCollection", "features": [{"type": "Feature", "properties": {"state": "Madhya Pradesh", "district": "Mandla", "block": "Mandla", "gp_name": "Mandla Gram Panchayat", "state_code": 23, "district_code": 411, "block_code": 3820, "gp_code": 133273, "centroid_lat": 22.59, "centroid_lon": 80.556, "area_sq_km": 6.8, "boundary_source": "LGD Revenue Village Centroids + Block-Bounded Voronoi Tessellation", "boundary_quality": "DERIVED"}, "geometry": {"type": "Polygon", "coordinates": [[[80.56792, 22.58959], [80.56808, 22.59416], [80.56507, 22.59782], [80.56066, 22.59944], [80.5564, 22.59998], [80.5521, 22.59977], [80.54767, 22.59833], [80.54394, 22.59513], [80.54382, 22.59042], [80.54899, 22.58396], [80.55086, 22.57959], [80.55547, 22.57688], [80.56015, 22.57962], [80.56251, 22.58348], [80.56546, 22.58597], [80.56792, 22.58959]]]}}, {"type": "Feature", "properties": {"state": "Madhya Pradesh", "district": "Mandla", "block": "Mandla", "gp_name": "Mandla Rural", "state_code": 23, "district_code": 411, "block_code": 3820, "gp_code": 133274, "centroid_lat": 22.61, "centroid_lon": 80.536, "area_sq_km": 6.9, "boundary_source": "LGD Revenue Village Centroids + Block-Bounded Voronoi Tessellation", "boundary_quality": "DERIVED"}, "geometry": {"type": "Polygon", "coordinates": [[[80.5482, 22.60958], [80.54831, 22.61424], [80.54512, 22.61786], [80.54059, 22.6193], [80.53208, 22.6198], [80.52758, 22.61842], [80.52377, 22.61521], [80.52355, 22.61043], [80.5289, 22.60388], [80.53096, 22.59978], [80.5355, 22.59744], [80.54023, 22.59943], [80.5482, 22.60958]]]}}, {"type": "Feature", "properties": {"state": "Madhya Pradesh", "district": "Mandla", "block": "Bichhiya", "gp_name": "Bichhiya Gram Panchayat", "state_code": 23, "district_code": 411, "block_code": 3821, "gp_code": 133275, "centroid_lat": 22.7151, "centroid_lon": 80.4897, "area_sq_km": 7.0, "boundary_source": "LGD Revenue Village Centroids + Block-Bounded Voronoi Tessellation", "boundary_quality": "DERIVED"}, "geometry": {"type": "Polygon", "coordinates": [[[80.50159, 22.71469], [80.50219, 22.7194], [80.49845, 22.72263], [80.49439, 22.72459], [80.48586, 22.72469], [80.48137, 22.72342], [80.47788, 22.72013], [80.47766, 22.71551], [80.47995, 22.71174], [80.48261, 22.70899], [80.48468, 22.70493], [80.48917, 22.70195], [80.49386, 22.7047], [80.50159, 22.71469]]]}}, {"type": "Feature", "properties": {"state": "Madhya Pradesh", "district": "Mandla", "block": "Bichhiya", "gp_name": "Bichhiya Rural", "state_code": 23, "district_code": 411, "block_code": 3821, "gp_code": 133276, "centroid_lat": 22.7351, "centroid_lon": 80.4697, "area_sq_km": 7.1, "boundary_source": "LGD Revenue Village Centroids + Block-Bounded Voronoi Tessellation", "boundary_quality": "DERIVED"}, "geometry": {"type": "Polygon", "coordinates": [[[80.48164, 22.73469], [80.4823, 22.73944], [80.47852, 22.7427], [80.47439, 22.74459], [80.4658, 22.74484], [80.46139, 22.7434], [80.45755, 22.74027], [80.45753, 22.73552], [80.46253, 22.72892], [80.46471, 22.72499], [80.46919, 22.72243], [80.47394, 22.72451], [80.47623, 22.72857], [80.48164, 22.73469]]]}}, {"type": "Feature", "properties": {"state": "Madhya Pradesh", "district": "Mandla", "block": "Ghughri", "gp_name": "Ghughri Gram Panchayat", "state_code": 23, "district_code": 411, "block_code": 3822, "gp_code": 133277, "centroid_lat": 22.746, "centroid_lon": 80.3408, "area_sq_km": 7.2, "boundary_source": "LGD Revenue Village Centroids + Block-Bounded Voronoi Tessellation", "boundary_quality": "DERIVED"}, "geometry": {"type": "Polygon", "coordinates": [[[80.35273, 22.7456], [80.35323, 22.75029], [80.34974, 22.75371], [80.34534, 22.7552], [80.34118, 22.75582], [80.33245, 22.75432], [80.32883, 22.75107], [80.32858, 22.74641], [80.33361, 22.73979], [80.33569, 22.73564], [80.34031, 22.73333], [80.34506, 22.7354], [80.34755, 22.73927], [80.35273, 22.7456]]]}}, {"type": "Feature", "properties": {"state": "Madhya Pradesh", "district": "Mandla", "block": "Ghughri", "gp_name": "Ghughri Rural", "state_code": 23, "district_code": 411, "block_code": 3822, "gp_code": 133278, "centroid_lat": 22.766, "centroid_lon": 80.3208, "area_sq_km": 7.3, "boundary_source": "LGD Revenue Village Centroids + Block-Bounded Voronoi Tessellation", "boundary_quality": "DERIVED"}, "geometry": {"type": "Polygon", "coordinates": [[[80.33274, 22.7656], [80.33311, 22.77025], [80.32975, 22.77372], [80.32535, 22.77523], [80.31686, 22.77581], [80.31225, 22.77452], [80.30866, 22.77115], [80.30843, 22.76641], [80.3135, 22.7597], [80.31577, 22.75579], [80.3203, 22.75311], [80.32507, 22.75538], [80.33274, 22.7656]]]}}, {"type": "Feature", "properties": {"state": "Madhya Pradesh", "district": "Mandla", "block": "Mohgaon", "gp_name": "Mohgaon Gram Panchayat", "state_code": 23, "district_code": 411, "block_code": 3823, "gp_code": 133279, "centroid_lat": 22.6594, "centroid_lon": 80.2214, "area_sq_km": 7.4, "boundary_source": "LGD Revenue Village Centroids + Block-Bounded Voronoi Tessellation", "boundary_quality": "DERIVED"}, "geometry": {"type": "Polygon", "coordinates": [[[80.23358, 22.659], [80.23391, 22.66374], [80.23022, 22.66703], [80.22586, 22.66848], [80.21754, 22.669], [80.21304, 22.66772], [80.20942, 22.66447], [80.20932, 22.65979], [80.21636, 22.64915], [80.2209, 22.64628], [80.22572, 22.64866], [80.22803, 22.6528], [80.23086, 22.65539], [80.23358, 22.659]]]}}, {"type": "Feature", "properties": {"state": "Madhya Pradesh", "district": "Mandla", "block": "Mohgaon", "gp_name": "Mohgaon Rural", "state_code": 23, "district_code": 411, "block_code": 3823, "gp_code": 133280, "centroid_lat": 22.6794, "centroid_lon": 80.2014, "area_sq_km": 7.5, "boundary_source": "LGD Revenue Village Centroids + Block-Bounded Voronoi Tessellation", "boundary_quality": "DERIVED"}, "geometry": {"type": "Polygon", "coordinates": [[[80.21394, 22.67899], [80.21395, 22.68375], [80.21033, 22.68713], [80.20603, 22.68882], [80.20178, 22.68935], [80.1932, 22.68756], [80.1893, 22.68452], [80.18896, 22.6798], [80.19424, 22.67321], [80.19639, 22.6692], [80.20091, 22.66657], [80.20581, 22.66845], [80.20825, 22.67258], [80.21394, 22.67899]]]}}, {"type": "Feature", "properties": {"state": "Madhya Pradesh", "district": "Mandla", "block": "Nainpur", "gp_name": "Nainpur Gram Panchayat", "state_code": 23, "district_code": 411, "block_code": 3824, "gp_code": 133281, "centroid_lat": 22.5206, "centroid_lon": 80.2214, "area_sq_km": 7.6, "boundary_source": "LGD Revenue Village Centroids + Block-Bounded Voronoi Tessellation", "boundary_quality": "DERIVED"}, "geometry": {"type": "Polygon", "coordinates": [[[80.2335, 22.52021], [80.23381, 22.52491], [80.2301, 22.52814], [80.22611, 22.53019], [80.21748, 22.53034], [80.2129, 22.52907], [80.20953, 22.52563], [80.20922, 22.521], [80.21411, 22.51429], [80.21626, 22.51011], [80.22091, 22.50763], [80.22575, 22.50978], [80.22799, 22.51404], [80.2335, 22.52021]]]}}, {"type": "Feature", "properties": {"state": "Madhya Pradesh", "district": "Mandla", "block": "Nainpur", "gp_name": "Nainpur Rural", "state_code": 23, "district_code": 411, "block_code": 3824, "gp_code": 133282, "centroid_lat": 22.5406, "centroid_lon": 80.2014, "area_sq_km": 7.7, "boundary_source": "LGD Revenue Village Centroids + Block-Bounded Voronoi Tessellation", "boundary_quality": "DERIVED"}, "geometry": {"type": "Polygon", "coordinates": [[[80.21343, 22.54021], [80.21403, 22.54499], [80.21056, 22.54854], [80.206, 22.54997], [80.19755, 22.55015], [80.19308, 22.54889], [80.18968, 22.54556], [80.18925, 22.54099], [80.19643, 22.53046], [80.20091, 22.52765], [80.20564, 22.53008], [80.21343, 22.54021]]]}}, {"type": "Feature", "properties": {"state": "Madhya Pradesh", "district": "Mandla", "block": "Narayanganj", "gp_name": "Narayanganj Gram Panchayat", "state_code": 23, "district_code": 411, "block_code": 3825, "gp_code": 133283, "centroid_lat": 22.434, "centroid_lon": 80.3408, "area_sq_km": 7.8, "boundary_source": "LGD Revenue Village Centroids + Block-Bounded Voronoi Tessellation", "boundary_quality": "DERIVED"}, "geometry": {"type": "Polygon", "coordinates": [[[80.35299, 22.4336], [80.35298, 22.43822], [80.34948, 22.44151], [80.34527, 22.4431], [80.34118, 22.44382], [80.33704, 22.44336], [80.33256, 22.44223], [80.32862, 22.43917], [80.32878, 22.4344], [80.3335, 22.42768], [80.33572, 22.42365], [80.34031, 22.42127], [80.34514, 22.42319], [80.35299, 22.4336]]]}}, {"type": "Feature", "properties": {"state": "Madhya Pradesh", "district": "Mandla", "block": "Narayanganj", "gp_name": "Narayanganj Rural", "state_code": 23, "district_code": 411, "block_code": 3825, "gp_code": 133284, "centroid_lat": 22.454, "centroid_lon": 80.3208, "area_sq_km": 7.9, "boundary_source": "LGD Revenue Village Centroids + Block-Bounded Voronoi Tessellation", "boundary_quality": "DERIVED"}, "geometry": {"type": "Polygon", "coordinates": [[[80.33276, 22.4536], [80.33292, 22.4582], [80.32995, 22.46192], [80.32526, 22.46309], [80.31696, 22.46356], [80.31249, 22.4623], [80.30858, 22.45918], [80.30893, 22.45439], [80.31116, 22.45066], [80.31356, 22.44773], [80.31576, 22.44373], [80.3203, 22.44103], [80.32501, 22.44351], [80.32734, 22.44747], [80.33276, 22.4536]]]}}, {"type": "Feature", "properties": {"state": "Madhya Pradesh", "district": "Mandla", "block": "Niwas", "gp_name": "Niwas Gram Panchayat", "state_code": 23, "district_code": 411, "block_code": 3826, "gp_code": 133285, "centroid_lat": 22.4649, "centroid_lon": 80.4897, "area_sq_km": 8.0, "boundary_source": "LGD Revenue Village Centroids + Block-Bounded Voronoi Tessellation", "boundary_quality": "DERIVED"}, "geometry": {"type": "Polygon", "coordinates": [[[80.50197, 22.46448], [80.50209, 22.46918], [80.49863, 22.47261], [80.49414, 22.47392], [80.49009, 22.47465], [80.48575, 22.47476], [80.48156, 22.47304], [80.4779, 22.46992], [80.4777, 22.46531], [80.48006, 22.46157], [80.48462, 22.45459], [80.4892, 22.45235], [80.49392, 22.45435], [80.50197, 22.46448]]]}}, {"type": "Feature", "properties": {"state": "Madhya Pradesh", "district": "Mandla", "block": "Niwas", "gp_name": "Niwas Rural", "state_code": 23, "district_code": 411, "block_code": 3826, "gp_code": 133286, "centroid_lat": 22.4849, "centroid_lon": 80.4697, "area_sq_km": 8.1, "boundary_source": "LGD Revenue Village Centroids + Block-Bounded Voronoi Tessellation", "boundary_quality": "DERIVED"}, "geometry": {"type": "Polygon", "coordinates": [[[80.4819, 22.48448], [80.48206, 22.48917], [80.47855, 22.49254], [80.4744, 22.49444], [80.46582, 22.49459], [80.46143, 22.49317], [80.45757, 22.49006], [80.45729, 22.48532], [80.46271, 22.47886], [80.46468, 22.4747], [80.4692, 22.47215], [80.47405, 22.47403], [80.4763, 22.4783], [80.4819, 22.48448]]]}}]}