{"type": "FeatureCollection", "features": [{"type": "Feature", "properties": {"state": "Madhya Pradesh", "district": "Panna", "block": "Panna", "gp_name": "Panna Gram Panchayat", "state_code": 23, "district_code": 415, "block_code": 3940, "gp_code": 133337, "centroid_lat": 24.71, "centroid_lon": 80.332, "area_sq_km": 8.2, "boundary_source": "LGD Revenue Village Centroids + Block-Bounded Voronoi Tessellation", "boundary_quality": "DERIVED"}, "geometry": {"type": "Polygon", "coordinates": [[[80.34432, 24.70956], [80.34466, 24.71427], [80.34115, 24.71773], [80.33667, 24.71926], [80.3281, 24.71966], [80.32347, 24.71842], [80.32005, 24.71503], [80.31959, 24.71044], [80.32691, 24.6999], [80.33145, 24.69708], [80.33633, 24.69929], [80.33866, 24.70342], [80.34432, 24.70956]]]}}, {"type": "Feature", "properties": {"state": "Madhya Pradesh", "district": "Panna", "block": "Panna", "gp_name": "Panna Rural", "state_code": 23, "district_code": 415, "block_code": 3940, "gp_code": 133338, "centroid_lat": 24.73, "centroid_lon": 80.312, "area_sq_km": 8.3, "boundary_source": "LGD Revenue Village Centroids + Block-Bounded Voronoi Tessellation", "boundary_quality": "DERIVED"}, "geometry": {"type": "Polygon", "coordinates": [[[80.32418, 24.72957], [80.32474, 24.7343], [80.32095, 24.73756], [80.31663, 24.73917], [80.31242, 24.73978], [80.30345, 24.73844], [80.30015, 24.73498], [80.29961, 24.73044], [80.30201, 24.72663], [80.30469, 24.72382], [80.30687, 24.71983], [80.31144, 24.7169], [80.31619, 24.71963], [80.32418, 24.72957]]]}}, {"type": "Feature", "properties": {"state": "Madhya Pradesh", "district": "Panna", "block": "Ajaygarh", "gp_name": "Ajaygarh Gram Panchayat", "state_code": 23, "district_code": 415, "block_code": 3941, "gp_code": 133339, "centroid_lat": 24.8241, "centroid_lon": 80.2408, "area_sq_km": 8.4, "boundary_source": "LGD Revenue Village Centroids + Block-Bounded Voronoi Tessellation", "boundary_quality": "DERIVED"}, "geometry": {"type": "Polygon", "coordinates": [[[80.25353, 24.82365], [80.25305, 24.82823], [80.2499, 24.83179], [80.24562, 24.83366], [80.24123, 24.83422], [80.23213, 24.83265], [80.22853, 24.82925], [80.22804, 24.82455], [80.23129, 24.82089], [80.23569, 24.81395], [80.24025, 24.81114], [80.24517, 24.8133], [80.24987, 24.82029], [80.25353, 24.82365]]]}}, {"type": "Feature", "properties": {"state": "Madhya Pradesh", "district": "Panna", "block": "Ajaygarh", "gp_name": "Ajaygarh Rural", "state_code": 23, "district_code": 415, "block_code": 3941, "gp_code": 133340, "centroid_lat": 24.8441, "centroid_lon": 80.2208, "area_sq_km": 8.5, "boundary_source": "LGD Revenue Village Centroids + Block-Bounded Voronoi Tessellation", "boundary_quality": "DERIVED"}, "geometry": {"type": "Polygon", "coordinates": [[[80.23336, 24.84366], [80.23321, 24.84829], [80.23004, 24.85191], [80.22551, 24.85345], [80.22121, 24.85389], [80.2169, 24.85371], [80.21248, 24.85229], [80.20837, 24.84932], [80.2086, 24.84453], [80.21343, 24.83787], [80.21564, 24.83385], [80.22026, 24.83121], [80.22507, 24.83357], [80.23336, 24.84366]]]}}, {"type": "Feature", "properties": {"state": "Madhya Pradesh", "district": "Panna", "block": "Gunnor", "gp_name": "Gunnor Gram Panchayat", "state_code": 23, "district_code": 415, "block_code": 3942, "gp_code": 133341, "centroid_lat": 24.7805, "centroid_lon": 80.0932, "area_sq_km": 8.6, "boundary_source": "LGD Revenue Village Centroids + Block-Bounded Voronoi Tessellation", "boundary_quality": "DERIVED"}, "geometry": {"type": "Polygon", "coordinates": [[[80.10574, 24.78007], [80.1057, 24.78473], [80.10236, 24.78826], [80.09361, 24.79049], [80.08454, 24.78902], [80.08117, 24.78554], [80.08047, 24.78093], [80.08586, 24.77428], [80.08803, 24.77021], [80.09269, 24.76795], [80.09751, 24.76989], [80.10013, 24.77369], [80.10574, 24.78007]]]}}, {"type": "Feature", "properties": {"state": "Madhya Pradesh", "district": "Panna", "block": "Gunnor", "gp_name": "Gunnor Rural", "state_code": 23, "district_code": 415, "block_code": 3942, "gp_code": 133342, "centroid_lat": 24.8005, "centroid_lon": 80.0732, "area_sq_km": 8.7, "boundary_source": "LGD Revenue Village Centroids + Block-Bounded Voronoi Tessellation", "boundary_quality": "DERIVED"}, "geometry": {"type": "Polygon", "coordinates": [[[80.08529, 24.80009], [80.08544, 24.80465], [80.08205, 24.808], [80.07779, 24.80963], [80.07361, 24.81051], [80.06939, 24.80986], [80.0649, 24.80866], [80.06074, 24.80571], [80.06088, 24.80092], [80.06329, 24.79714], [80.06606, 24.79445], [80.0681, 24.79035], [80.07268, 24.78768], [80.07757, 24.78976], [80.08008, 24.79374], [80.08283, 24.79647], [80.08529, 24.80009]]]}}, {"type": "Feature", "properties": {"state": "Madhya Pradesh", "district": "Panna", "block": "Pawai", "gp_name": "Pawai Gram Panchayat", "state_code": 23, "district_code": 415, "block_code": 3943, "gp_code": 133343, "centroid_lat": 24.6395, "centroid_lon": 80.0932, "area_sq_km": 8.8, "boundary_source": "LGD Revenue Village Centroids + Block-Bounded Voronoi Tessellation", "boundary_quality": "DERIVED"}, "geometry": {"type": "Polygon", "coordinates": [[[80.10592, 24.63907], [80.10576, 24.64376], [80.1024, 24.64731], [80.09794, 24.64895], [80.09359, 24.64919], [80.08926, 24.6492], [80.08491, 24.64766], [80.08134, 24.64447], [80.0807, 24.63992], [80.08804, 24.62921], [80.09267, 24.62655], [80.09741, 24.62913], [80.09993, 24.63287], [80.10592, 24.63907]]]}}, {"type": "Feature", "properties": {"state": "Madhya Pradesh", "district": "Panna", "block": "Pawai", "gp_name": "Pawai Rural", "state_code": 23, "district_code": 415, "block_code": 3943, "gp_code": 133344, "centroid_lat": 24.6595, "centroid_lon": 80.0732, "area_sq_km": 8.9, "boundary_source": "LGD Revenue Village Centroids + Block-Bounded Voronoi Tessellation", "boundary_quality": "DERIVED"}, "geometry": {"type": "Polygon", "coordinates": [[[80.08588, 24.65907], [80.08558, 24.6637], [80.08247, 24.66736], [80.078, 24.66907], [80.0736, 24.66946], [80.06919, 24.66937], [80.06492, 24.66765], [80.06137, 24.66445], [80.06052, 24.65993], [80.06813, 24.64939], [80.07267, 24.64641], [80.07757, 24.64874], [80.08001, 24.6528], [80.08588, 24.65907]]]}}, {"type": "Feature", "properties": {"state": "Madhya Pradesh", "district": "Panna", "block": "Shahnagar", "gp_name": "Shahnagar Gram Panchayat", "state_code": 23, "district_code": 415, "block_code": 3944, "gp_code": 133345, "centroid_lat": 24.5959, "centroid_lon": 80.2408, "area_sq_km": 9.0, "boundary_source": "LGD Revenue Village Centroids + Block-Bounded Voronoi Tessellation", "boundary_quality": "DERIVED"}, "geometry": {"type": "Polygon", "coordinates": [[[80.25293, 24.59548], [80.25357, 24.60022], [80.2497, 24.60344], [80.24557, 24.6054], [80.24122, 24.60584], [80.23686, 24.60563], [80.23242, 24.60417], [80.22853, 24.60105], [80.22826, 24.59634], [80.23352, 24.58973], [80.23556, 24.58548], [80.24028, 24.58335], [80.24508, 24.58534], [80.25293, 24.59548]]]}}, {"type": "Feature", "properties": {"state": "Madhya Pradesh", "district": "Panna", "block": "Shahnagar", "gp_name": "Shahnagar Rural", "state_code": 23, "district_code": 415, "block_code": 3944, "gp_code": 133346, "centroid_lat": 24.6159, "centroid_lon": 80.2208, "area_sq_km": 9.1, "boundary_source": "LGD Revenue Village Centroids + Block-Bounded Voronoi Tessellation", "boundary_quality": "DERIVED"}, "geometry": {"type": "Polygon", "coordinates": [[[80.23339, 24.61546], [80.23333, 24.62014], [80.23004, 24.62373], [80.22558, 24.6254], [80.21689, 24.62556], [80.2123, 24.62428], [80.20855, 24.62105], [80.20826, 24.61634], [80.21146, 24.61274], [80.21558, 24.60551], [80.22027, 24.60318], [80.22509, 24.60532], [80.22747, 24.60932], [80.23045, 24.61184], [80.23339, 24.61546]]]}}]}