{"type": "FeatureCollection", "features": [{"type": "Feature", "properties": {"state": "Madhya Pradesh", "district": "Rajgarh", "block": "Rajgarh", "gp_name": "Rajgarh Gram Panchayat", "state_code": 23, "district_code": 417, "block_code": 3980, "gp_code": 133361, "centroid_lat": 24.0, "centroid_lon": 76.906, "area_sq_km": 5.6, "boundary_source": "LGD Revenue Village Centroids + Block-Bounded Voronoi Tessellation", "boundary_quality": "DERIVED"}, "geometry": {"type": "Polygon", "coordinates": [[[76.91865, 23.99984], [76.91841, 24.00454], [76.9148, 24.00787], [76.91044, 24.00948], [76.90189, 24.00948], [76.89761, 24.00792], [76.89355, 24.00492], [76.89351, 24.00015], [76.89878, 23.99354], [76.9012, 23.98974], [76.90581, 23.98735], [76.91061, 23.98937], [76.91286, 23.99352], [76.91865, 23.99984]]]}}, {"type": "Feature", "properties": {"state": "Madhya Pradesh", "district": "Rajgarh", "block": "Rajgarh", "gp_name": "Rajgarh Rural", "state_code": 23, "district_code": 417, "block_code": 3980, "gp_code": 133362, "centroid_lat": 24.02, "centroid_lon": 76.886, "area_sq_km": 5.7, "boundary_source": "LGD Revenue Village Centroids + Block-Bounded Voronoi Tessellation", "boundary_quality": "DERIVED"}, "geometry": {"type": "Polygon", "coordinates": [[[76.89873, 24.01984], [76.89819, 24.02446], [76.8951, 24.02814], [76.89044, 24.02948], [76.88614, 24.02988], [76.8818, 24.02968], [76.87742, 24.02809], [76.87357, 24.02491], [76.87387, 24.02015], [76.87856, 24.01335], [76.88123, 24.0098], [76.88582, 24.00733], [76.89066, 24.00925], [76.89514, 24.01639], [76.89873, 24.01984]]]}}, {"type": "Feature", "properties": {"state": "Madhya Pradesh", "district": "Rajgarh", "block": "Biaora", "gp_name": "Biaora Gram Panchayat", "state_code": 23, "district_code": 417, "block_code": 3981, "gp_code": 133363, "centroid_lat": 24.1386, "centroid_lon": 76.818, "area_sq_km": 5.8, "boundary_source": "LGD Revenue Village Centroids + Block-Bounded Voronoi Tessellation", "boundary_quality": "DERIVED"}, "geometry": {"type": "Polygon", "coordinates": [[[76.83013, 24.13845], [76.83026, 24.14309], [76.82684, 24.1465], [76.82239, 24.14798], [76.81814, 24.14846], [76.80919, 24.1469], [76.80583, 24.1434], [76.80541, 24.13875], [76.8107, 24.13207], [76.81296, 24.12783], [76.81781, 24.12548], [76.82271, 24.12776], [76.82485, 24.13215], [76.8277, 24.13478], [76.83013, 24.13845]]]}}, {"type": "Feature", "properties": {"state": "Madhya Pradesh", "district": "Rajgarh", "block": "Biaora", "gp_name": "Biaora Rural", "state_code": 23, "district_code": 417, "block_code": 3981, "gp_code": 133364, "centroid_lat": 24.1586, "centroid_lon": 76.798, "area_sq_km": 5.9, "boundary_source": "LGD Revenue Village Centroids + Block-Bounded Voronoi Tessellation", "boundary_quality": "DERIVED"}, "geometry": {"type": "Polygon", "coordinates": [[[76.81027, 24.15845], [76.81063, 24.16323], [76.80676, 24.16643], [76.80251, 24.16824], [76.79374, 24.16839], [76.78915, 24.16693], [76.78594, 24.16335], [76.78559, 24.15875], [76.78847, 24.15511], [76.79301, 24.14794], [76.79782, 24.1456], [76.80263, 24.14797], [76.81027, 24.15845]]]}}, {"type": "Feature", "properties": {"state": "Madhya Pradesh", "district": "Rajgarh", "block": "Khilchipur", "gp_name": "Khilchipur Gram Panchayat", "state_code": 23, "district_code": 417, "block_code": 3982, "gp_code": 133365, "centroid_lat": 24.1386, "centroid_lon": 76.642, "area_sq_km": 6.0, "boundary_source": "LGD Revenue Village Centroids + Block-Bounded Voronoi Tessellation", "boundary_quality": "DERIVED"}, "geometry": {"type": "Polygon", "coordinates": [[[76.65408, 24.13847], [76.65416, 24.14307], [76.65065, 24.14636], [76.64627, 24.14774], [76.64213, 24.14841], [76.63789, 24.14801], [76.63352, 24.14657], [76.6298, 24.14339], [76.62975, 24.13873], [76.63711, 24.12812], [76.64184, 24.12572], [76.64667, 24.12789], [76.64886, 24.13216], [76.65408, 24.13847]]]}}, {"type": "Feature", "properties": {"state": "Madhya Pradesh", "district": "Rajgarh", "block": "Khilchipur", "gp_name": "Khilchipur Rural", "state_code": 23, "district_code": 417, "block_code": 3982, "gp_code": 133366, "centroid_lat": 24.1586, "centroid_lon": 76.622, "area_sq_km": 6.1, "boundary_source": "LGD Revenue Village Centroids + Block-Bounded Voronoi Tessellation", "boundary_quality": "DERIVED"}, "geometry": {"type": "Polygon", "coordinates": [[[76.63475, 24.15846], [76.63433, 24.16313], [76.63083, 24.16652], [76.62631, 24.16784], [76.61786, 24.16808], [76.61326, 24.16681], [76.60962, 24.16346], [76.60992, 24.15873], [76.61484, 24.15218], [76.61716, 24.14822], [76.62184, 24.14594], [76.62664, 24.14798], [76.63121, 24.15499], [76.63475, 24.15846]]]}}, {"type": "Feature", "properties": {"state": "Madhya Pradesh", "district": "Rajgarh", "block": "Narsinghgarh", "gp_name": "Narsinghgarh Gram Panchayat", "state_code": 23, "district_code": 417, "block_code": 3983, "gp_code": 133367, "centroid_lat": 24.0, "centroid_lon": 76.554, "area_sq_km": 6.2, "boundary_source": "LGD Revenue Village Centroids + Block-Bounded Voronoi Tessellation", "boundary_quality": "DERIVED"}, "geometry": {"type": "Polygon", "coordinates": [[[76.56623, 23.99988], [76.56622, 24.0045], [76.56292, 24.00801], [76.55852, 24.00972], [76.55412, 24.00989], [76.54541, 24.00807], [76.54146, 24.00492], [76.54129, 24.00013], [76.54688, 23.9936], [76.549, 23.98925], [76.55384, 23.98705], [76.55875, 23.98912], [76.56087, 23.99355], [76.56623, 23.99988]]]}}, {"type": "Feature", "properties": {"state": "Madhya Pradesh", "district": "Rajgarh", "block": "Narsinghgarh", "gp_name": "Narsinghgarh Rural", "state_code": 23, "district_code": 417, "block_code": 3983, "gp_code": 133368, "centroid_lat": 24.02, "centroid_lon": 76.534, "area_sq_km": 6.3, "boundary_source": "LGD Revenue Village Centroids + Block-Bounded Voronoi Tessellation", "boundary_quality": "DERIVED"}, "geometry": {"type": "Polygon", "coordinates": [[[76.54638, 24.01988], [76.54665, 24.02466], [76.54301, 24.0281], [76.53845, 24.02957], [76.52984, 24.02951], [76.52525, 24.02821], [76.52185, 24.02476], [76.52145, 24.02013], [76.52918, 24.00964], [76.53385, 24.00705], [76.53875, 24.00913], [76.54117, 24.01327], [76.54638, 24.01988]]]}}, {"type": "Feature", "properties": {"state": "Madhya Pradesh", "district": "Rajgarh", "block": "Sarangpur", "gp_name": "Sarangpur Gram Panchayat", "state_code": 23, "district_code": 417, "block_code": 3984, "gp_code": 133369, "centroid_lat": 23.8614, "centroid_lon": 76.642, "area_sq_km": 6.4, "boundary_source": "LGD Revenue Village Centroids + Block-Bounded Voronoi Tessellation", "boundary_quality": "DERIVED"}, "geometry": {"type": "Polygon", "coordinates": [[[76.6544, 23.86127], [76.65426, 23.86592], [76.65081, 23.86932], [76.64649, 23.87106], [76.63779, 23.87106], [76.6336, 23.86931], [76.62985, 23.86618], [76.62955, 23.86153], [76.6347, 23.85484], [76.63711, 23.85089], [76.64184, 23.84872], [76.64656, 23.85094], [76.64883, 23.85497], [76.6544, 23.86127]]]}}, {"type": "Feature", "properties": {"state": "Madhya Pradesh", "district": "Rajgarh", "block": "Sarangpur", "gp_name": "Sarangpur Rural", "state_code": 23, "district_code": 417, "block_code": 3984, "gp_code": 133370, "centroid_lat": 23.8814, "centroid_lon": 76.622, "area_sq_km": 6.5, "boundary_source": "LGD Revenue Village Centroids + Block-Bounded Voronoi Tessellation", "boundary_quality": "DERIVED"}, "geometry": {"type": "Polygon", "coordinates": [[[76.63465, 23.88127], [76.63442, 23.88598], [76.63099, 23.88948], [76.6263, 23.89065], [76.62213, 23.89144], [76.6179, 23.8908], [76.61354, 23.88936], [76.60946, 23.88633], [76.60991, 23.88153], [76.61269, 23.87797], [76.61701, 23.87067], [76.62184, 23.86861], [76.62667, 23.8707], [76.62912, 23.8747], [76.63465, 23.88127]]]}}, {"type": "Feature", "properties": {"state": "Madhya Pradesh", "district": "Rajgarh", "block": "Zirapur", "gp_name": "Zirapur Gram Panchayat", "state_code": 23, "district_code": 417, "block_code": 3985, "gp_code": 133371, "centroid_lat": 23.8614, "centroid_lon": 76.818, "area_sq_km": 6.6, "boundary_source": "LGD Revenue Village Centroids + Block-Bounded Voronoi Tessellation", "boundary_quality": "DERIVED"}, "geometry": {"type": "Polygon", "coordinates": [[[76.83033, 23.86125], [76.8304, 23.86595], [76.82679, 23.86928], [76.8224, 23.87082], [76.81378, 23.87112], [76.80919, 23.86972], [76.80562, 23.86629], [76.80567, 23.86155], [76.80857, 23.85794], [76.81303, 23.85074], [76.81782, 23.84875], [76.82254, 23.85094], [76.82714, 23.85779], [76.83033, 23.86125]]]}}, {"type": "Feature", "properties": {"state": "Madhya Pradesh", "district": "Rajgarh", "block": "Zirapur", "gp_name": "Zirapur Rural", "state_code": 23, "district_code": 417, "block_code": 3985, "gp_code": 133372, "centroid_lat": 23.8814, "centroid_lon": 76.798, "area_sq_km": 6.7, "boundary_source": "LGD Revenue Village Centroids + Block-Bounded Voronoi Tessellation", "boundary_quality": "DERIVED"}, "geometry": {"type": "Polygon", "coordinates": [[[76.81025, 23.88126], [76.81027, 23.88591], [76.8066, 23.88911], [76.80239, 23.89082], [76.79814, 23.89118], [76.79376, 23.89115], [76.78925, 23.88965], [76.78591, 23.88617], [76.7853, 23.88155], [76.78817, 23.87779], [76.79099, 23.87511], [76.79298, 23.87064], [76.79782, 23.86863], [76.80266, 23.87068], [76.80481, 23.87498], [76.8076, 23.87761], [76.81025, 23.88126]]]}}]}