{"type": "FeatureCollection", "features": [{"type": "Feature", "properties": {"state": "Madhya Pradesh", "district": "Sagar", "block": "Sagar", "gp_name": "Sagar Gram Panchayat", "state_code": 23, "district_code": 420, "block_code": 4040, "gp_code": 133407, "centroid_lat": 23.82, "centroid_lon": 78.926, "area_sq_km": 5.2, "boundary_source": "LGD Revenue Village Centroids + Block-Bounded Voronoi Tessellation", "boundary_quality": "DERIVED"}, "geometry": {"type": "Polygon", "coordinates": [[[78.93836, 23.81968], [78.93868, 23.82446], [78.93475, 23.82761], [78.93054, 23.82934], [78.92193, 23.82979], [78.91733, 23.82844], [78.91365, 23.82508], [78.91341, 23.82032], [78.9187, 23.81365], [78.92089, 23.80949], [78.9256, 23.80687], [78.93047, 23.80924], [78.93288, 23.81331], [78.93836, 23.81968]]]}}, {"type": "Feature", "properties": {"state": "Madhya Pradesh", "district": "Sagar", "block": "Sagar", "gp_name": "Sagar Rural", "state_code": 23, "district_code": 420, "block_code": 4040, "gp_code": 133408, "centroid_lat": 23.84, "centroid_lon": 78.906, "area_sq_km": 5.3, "boundary_source": "LGD Revenue Village Centroids + Block-Bounded Voronoi Tessellation", "boundary_quality": "DERIVED"}, "geometry": {"type": "Polygon", "coordinates": [[[78.91858, 23.83968], [78.91831, 23.84433], [78.91511, 23.84793], [78.91042, 23.84909], [78.90629, 23.84964], [78.90206, 23.84948], [78.89729, 23.84847], [78.89375, 23.84503], [78.89388, 23.84031], [78.89614, 23.83653], [78.89891, 23.83383], [78.90091, 23.82951], [78.90562, 23.82733], [78.91045, 23.82929], [78.91291, 23.83329], [78.91858, 23.83968]]]}}, {"type": "Feature", "properties": {"state": "Madhya Pradesh", "district": "Sagar", "block": "Banda", "gp_name": "Banda Gram Panchayat", "state_code": 23, "district_code": 420, "block_code": 4041, "gp_code": 133409, "centroid_lat": 23.9065, "centroid_lon": 78.8981, "area_sq_km": 5.4, "boundary_source": "LGD Revenue Village Centroids + Block-Bounded Voronoi Tessellation", "boundary_quality": "DERIVED"}, "geometry": {"type": "Polygon", "coordinates": [[[78.91055, 23.90618], [78.91063, 23.9109], [78.90731, 23.91451], [78.90265, 23.91585], [78.89418, 23.91592], [78.88957, 23.91479], [78.88615, 23.91141], [78.88568, 23.90681], [78.88871, 23.9032], [78.89318, 23.89638], [78.89771, 23.89341], [78.90252, 23.89587], [78.90713, 23.90279], [78.91055, 23.90618]]]}}, {"type": "Feature", "properties": {"state": "Madhya Pradesh", "district": "Sagar", "block": "Banda", "gp_name": "Banda Rural", "state_code": 23, "district_code": 420, "block_code": 4041, "gp_code": 133410, "centroid_lat": 23.9265, "centroid_lon": 78.8781, "area_sq_km": 5.5, "boundary_source": "LGD Revenue Village Centroids + Block-Bounded Voronoi Tessellation", "boundary_quality": "DERIVED"}, "geometry": {"type": "Polygon", "coordinates": [[[78.89066, 23.92618], [78.89058, 23.93089], [78.8872, 23.93441], [78.88272, 23.93599], [78.87413, 23.93603], [78.86984, 23.93452], [78.86627, 23.93136], [78.8656, 23.92682], [78.86828, 23.92305], [78.87106, 23.92037], [78.87316, 23.91633], [78.87772, 23.91373], [78.88244, 23.91608], [78.88727, 23.92274], [78.89066, 23.92618]]]}}, {"type": "Feature", "properties": {"state": "Madhya Pradesh", "district": "Sagar", "block": "Bina", "gp_name": "Bina Gram Panchayat", "state_code": 23, "district_code": 420, "block_code": 4042, "gp_code": 133411, "centroid_lat": 23.9655, "centroid_lon": 78.8231, "area_sq_km": 5.6, "boundary_source": "LGD Revenue Village Centroids + Block-Bounded Voronoi Tessellation", "boundary_quality": "DERIVED"}, "geometry": {"type": "Polygon", "coordinates": [[[78.83522, 23.9652], [78.83534, 23.96981], [78.83228, 23.97349], [78.82762, 23.9748], [78.8234, 23.97566], [78.81901, 23.97533], [78.81482, 23.97353], [78.81125, 23.97036], [78.81072, 23.96581], [78.81596, 23.95928], [78.81801, 23.95503], [78.82271, 23.95242], [78.82748, 23.95499], [78.8298, 23.959], [78.83522, 23.9652]]]}}, {"type": "Feature", "properties": {"state": "Madhya Pradesh", "district": "Sagar", "block": "Bina", "gp_name": "Bina Rural", "state_code": 23, "district_code": 420, "block_code": 4042, "gp_code": 133412, "centroid_lat": 23.9855, "centroid_lon": 78.8031, "area_sq_km": 5.7, "boundary_source": "LGD Revenue Village Centroids + Block-Bounded Voronoi Tessellation", "boundary_quality": "DERIVED"}, "geometry": {"type": "Polygon", "coordinates": [[[78.81556, 23.98519], [78.81528, 23.98978], [78.81191, 23.99317], [78.80773, 23.99502], [78.8034, 23.99562], [78.799, 23.99533], [78.79443, 23.9939], [78.79127, 23.99035], [78.79062, 23.98581], [78.79599, 23.97931], [78.79811, 23.97521], [78.80273, 23.97293], [78.80754, 23.97484], [78.81556, 23.98519]]]}}, {"type": "Feature", "properties": {"state": "Madhya Pradesh", "district": "Sagar", "block": "Deori", "gp_name": "Deori Gram Panchayat", "state_code": 23, "district_code": 420, "block_code": 4043, "gp_code": 133413, "centroid_lat": 23.9784, "centroid_lon": 78.725, "area_sq_km": 5.8, "boundary_source": "LGD Revenue Village Centroids + Block-Bounded Voronoi Tessellation", "boundary_quality": "DERIVED"}, "geometry": {"type": "Polygon", "coordinates": [[[78.73747, 23.9781], [78.73738, 23.98276], [78.73392, 23.98617], [78.72964, 23.98797], [78.72099, 23.98799], [78.71647, 23.98666], [78.71294, 23.98334], [78.7129, 23.97869], [78.71761, 23.97196], [78.71982, 23.96771], [78.72464, 23.96584], [78.72945, 23.96773], [78.73747, 23.9781]]]}}, {"type": "Feature", "properties": {"state": "Madhya Pradesh", "district": "Sagar", "block": "Deori", "gp_name": "Deori Rural", "state_code": 23, "district_code": 420, "block_code": 4043, "gp_code": 133414, "centroid_lat": 23.9984, "centroid_lon": 78.705, "area_sq_km": 5.9, "boundary_source": "LGD Revenue Village Centroids + Block-Bounded Voronoi Tessellation", "boundary_quality": "DERIVED"}, "geometry": {"type": "Polygon", "coordinates": [[[78.71716, 23.99811], [78.71757, 24.00283], [78.71376, 24.00603], [78.70957, 24.00782], [78.70529, 24.00849], [78.70103, 24.00791], [78.69657, 24.00657], [78.6931, 24.00327], [78.69238, 23.9987], [78.69759, 23.99194], [78.69989, 23.98787], [78.70463, 23.98532], [78.70939, 23.98788], [78.71172, 23.99189], [78.7146, 23.99447], [78.71716, 23.99811]]]}}, {"type": "Feature", "properties": {"state": "Madhya Pradesh", "district": "Sagar", "block": "Jaisinagar", "gp_name": "Jaisinagar Gram Panchayat", "state_code": 23, "district_code": 420, "block_code": 4044, "gp_code": 133415, "centroid_lat": 23.9409, "centroid_lon": 78.6347, "area_sq_km": 6.0, "boundary_source": "LGD Revenue Village Centroids + Block-Bounded Voronoi Tessellation", "boundary_quality": "DERIVED"}, "geometry": {"type": "Polygon", "coordinates": [[[78.64693, 23.94061], [78.64725, 23.94533], [78.64385, 23.94889], [78.63909, 23.94998], [78.63067, 23.95054], [78.62596, 23.94935], [78.62226, 23.94599], [78.6226, 23.94119], [78.62734, 23.93448], [78.6296, 23.93036], [78.63434, 23.92802], [78.63921, 23.93011], [78.64138, 23.93443], [78.64693, 23.94061]]]}}, {"type": "Feature", "properties": {"state": "Madhya Pradesh", "district": "Sagar", "block": "Jaisinagar", "gp_name": "Jaisinagar Rural", "state_code": 23, "district_code": 420, "block_code": 4044, "gp_code": 133416, "centroid_lat": 23.9609, "centroid_lon": 78.6147, "area_sq_km": 6.1, "boundary_source": "LGD Revenue Village Centroids + Block-Bounded Voronoi Tessellation", "boundary_quality": "DERIVED"}, "geometry": {"type": "Polygon", "coordinates": [[[78.62699, 23.96061], [78.62743, 23.9654], [78.62369, 23.96874], [78.61923, 23.97026], [78.61498, 23.97094], [78.61067, 23.97052], [78.60596, 23.96935], [78.6026, 23.96584], [78.60224, 23.96119], [78.60525, 23.95756], [78.60975, 23.95066], [78.61434, 23.94782], [78.61918, 23.95019], [78.62157, 23.95425], [78.62699, 23.96061]]]}}, {"type": "Feature", "properties": {"state": "Madhya Pradesh", "district": "Sagar", "block": "Kesli", "gp_name": "Kesli Gram Panchayat", "state_code": 23, "district_code": 420, "block_code": 4045, "gp_code": 133417, "centroid_lat": 23.8651, "centroid_lon": 78.5811, "area_sq_km": 6.2, "boundary_source": "LGD Revenue Village Centroids + Block-Bounded Voronoi Tessellation", "boundary_quality": "DERIVED"}, "geometry": {"type": "Polygon", "coordinates": [[[78.59372, 23.86481], [78.59319, 23.86938], [78.58988, 23.87278], [78.58138, 23.87524], [78.57698, 23.87495], [78.57262, 23.87331], [78.56896, 23.87006], [78.56892, 23.86538], [78.57134, 23.86165], [78.57394, 23.85884], [78.57597, 23.85448], [78.58074, 23.8522], [78.58553, 23.85452], [78.59028, 23.86135], [78.59372, 23.86481]]]}}, {"type": "Feature", "properties": {"state": "Madhya Pradesh", "district": "Sagar", "block": "Kesli", "gp_name": "Kesli Rural", "state_code": 23, "district_code": 420, "block_code": 4045, "gp_code": 133418, "centroid_lat": 23.8851, "centroid_lon": 78.5611, "area_sq_km": 6.3, "boundary_source": "LGD Revenue Village Centroids + Block-Bounded Voronoi Tessellation", "boundary_quality": "DERIVED"}, "geometry": {"type": "Polygon", "coordinates": [[[78.57344, 23.88481], [78.57323, 23.88939], [78.57006, 23.89294], [78.56553, 23.89428], [78.56138, 23.89514], [78.55701, 23.89487], [78.55268, 23.89324], [78.54871, 23.89016], [78.54842, 23.88539], [78.55122, 23.8816], [78.55405, 23.87894], [78.55607, 23.87469], [78.56075, 23.87236], [78.56543, 23.87476], [78.56791, 23.87851], [78.57344, 23.88481]]]}}, {"type": "Feature", "properties": {"state": "Madhya Pradesh", "district": "Sagar", "block": "Khurai", "gp_name": "Khurai Gram Panchayat", "state_code": 23, "district_code": 420, "block_code": 4046, "gp_code": 133419, "centroid_lat": 23.7749, "centroid_lon": 78.5811, "area_sq_km": 6.4, "boundary_source": "LGD Revenue Village Centroids + Block-Bounded Voronoi Tessellation", "boundary_quality": "DERIVED"}, "geometry": {"type": "Polygon", "coordinates": [[[78.59359, 23.77461], [78.59367, 23.77935], [78.59006, 23.78274], [78.58138, 23.78499], [78.57713, 23.7844], [78.57276, 23.78298], [78.56911, 23.7798], [78.56886, 23.77518], [78.57376, 23.76848], [78.57594, 23.7642], [78.58075, 23.76225], [78.58552, 23.76433], [78.59024, 23.77117], [78.59359, 23.77461]]]}}, {"type": "Feature", "properties": {"state": "Madhya Pradesh", "district": "Sagar", "block": "Khurai", "gp_name": "Khurai Rural", "state_code": 23, "district_code": 420, "block_code": 4046, "gp_code": 133420, "centroid_lat": 23.7949, "centroid_lon": 78.5611, "area_sq_km": 6.5, "boundary_source": "LGD Revenue Village Centroids + Block-Bounded Voronoi Tessellation", "boundary_quality": "DERIVED"}, "geometry": {"type": "Polygon", "coordinates": [[[78.57351, 23.79461], [78.57359, 23.79933], [78.5698, 23.80251], [78.56567, 23.80437], [78.55705, 23.80458], [78.55265, 23.80307], [78.54892, 23.79988], [78.54893, 23.79518], [78.55137, 23.79145], [78.55408, 23.78876], [78.55609, 23.7845], [78.56075, 23.78208], [78.56554, 23.78428], [78.56803, 23.7882], [78.57351, 23.79461]]]}}, {"type": "Feature", "properties": {"state": "Madhya Pradesh", "district": "Sagar", "block": "Malthon", "gp_name": "Malthon Gram Panchayat", "state_code": 23, "district_code": 420, "block_code": 4047, "gp_code": 133421, "centroid_lat": 23.6991, "centroid_lon": 78.6347, "area_sq_km": 6.6, "boundary_source": "LGD Revenue Village Centroids + Block-Bounded Voronoi Tessellation", "boundary_quality": "DERIVED"}, "geometry": {"type": "Polygon", "coordinates": [[[78.64688, 23.69881], [78.64685, 23.7034], [78.64381, 23.70707], [78.63922, 23.70846], [78.63064, 23.70881], [78.62611, 23.70742], [78.62278, 23.70398], [78.62217, 23.69939], [78.62731, 23.69263], [78.62956, 23.68846], [78.63434, 23.68593], [78.63907, 23.68863], [78.64158, 23.69243], [78.64688, 23.69881]]]}}, {"type": "Feature", "properties": {"state": "Madhya Pradesh", "district": "Sagar", "block": "Malthon", "gp_name": "Malthon Rural", "state_code": 23, "district_code": 420, "block_code": 4047, "gp_code": 133422, "centroid_lat": 23.7191, "centroid_lon": 78.6147, "area_sq_km": 6.7, "boundary_source": "LGD Revenue Village Centroids + Block-Bounded Voronoi Tessellation", "boundary_quality": "DERIVED"}, "geometry": {"type": "Polygon", "coordinates": [[[78.62685, 23.71882], [78.62678, 23.72338], [78.6237, 23.72698], [78.61921, 23.72845], [78.61498, 23.7291], [78.6106, 23.72891], [78.60615, 23.72738], [78.60283, 23.72395], [78.60203, 23.7194], [78.60539, 23.7158], [78.60979, 23.70893], [78.61434, 23.70594], [78.61924, 23.70824], [78.62142, 23.71259], [78.62685, 23.71882]]]}}, {"type": "Feature", "properties": {"state": "Madhya Pradesh", "district": "Sagar", "block": "Rahatgarh", "gp_name": "Rahatgarh Gram Panchayat", "state_code": 23, "district_code": 420, "block_code": 4048, "gp_code": 133423, "centroid_lat": 23.6616, "centroid_lon": 78.725, "area_sq_km": 6.8, "boundary_source": "LGD Revenue Village Centroids + Block-Bounded Voronoi Tessellation", "boundary_quality": "DERIVED"}, "geometry": {"type": "Polygon", "coordinates": [[[78.73747, 23.6613], [78.73715, 23.66589], [78.73377, 23.66926], [78.7296, 23.67112], [78.72528, 23.67157], [78.72099, 23.67122], [78.71669, 23.66967], [78.71301, 23.66652], [78.713, 23.66189], [78.71539, 23.6582], [78.72005, 23.65136], [78.72463, 23.64864], [78.72939, 23.65108], [78.73181, 23.65499], [78.73747, 23.6613]]]}}, {"type": "Feature", "properties": {"state": "Madhya Pradesh", "district": "Sagar", "block": "Rahatgarh", "gp_name": "Rahatgarh Rural", "state_code": 23, "district_code": 420, "block_code": 4048, "gp_code": 133424, "centroid_lat": 23.6816, "centroid_lon": 78.705, "area_sq_km": 6.9, "boundary_source": "LGD Revenue Village Centroids + Block-Bounded Voronoi Tessellation", "boundary_quality": "DERIVED"}, "geometry": {"type": "Polygon", "coordinates": [[[78.71742, 23.6813], [78.71759, 23.68605], [78.71382, 23.68931], [78.70959, 23.6911], [78.70528, 23.69148], [78.69649, 23.68986], [78.69306, 23.68649], [78.69241, 23.6819], [78.69771, 23.67523], [78.69988, 23.671], [78.70464, 23.66895], [78.70942, 23.671], [78.71198, 23.67483], [78.71742, 23.6813]]]}}, {"type": "Feature", "properties": {"state": "Madhya Pradesh", "district": "Sagar", "block": "Rehli", "gp_name": "Rehli Gram Panchayat", "state_code": 23, "district_code": 420, "block_code": 4049, "gp_code": 133425, "centroid_lat": 23.6745, "centroid_lon": 78.8231, "area_sq_km": 7.0, "boundary_source": "LGD Revenue Village Centroids + Block-Bounded Voronoi Tessellation", "boundary_quality": "DERIVED"}, "geometry": {"type": "Polygon", "coordinates": [[[78.83517, 23.6742], [78.83563, 23.67892], [78.83187, 23.68215], [78.82773, 23.68407], [78.81914, 23.68401], [78.81442, 23.68293], [78.81075, 23.67957], [78.81063, 23.67481], [78.81605, 23.66835], [78.81793, 23.66382], [78.82273, 23.66181], [78.82752, 23.66387], [78.83517, 23.6742]]]}}, {"type": "Feature", "properties": {"state": "Madhya Pradesh", "district": "Sagar", "block": "Rehli", "gp_name": "Rehli Rural", "state_code": 23, "district_code": 420, "block_code": 4049, "gp_code": 133426, "centroid_lat": 23.6945, "centroid_lon": 78.8031, "area_sq_km": 7.1, "boundary_source": "LGD Revenue Village Centroids + Block-Bounded Voronoi Tessellation", "boundary_quality": "DERIVED"}, "geometry": {"type": "Polygon", "coordinates": [[[78.81551, 23.69419], [78.8157, 23.69895], [78.812, 23.70226], [78.80765, 23.7039], [78.799, 23.70436], [78.79454, 23.70282], [78.79108, 23.69943], [78.79066, 23.69481], [78.79589, 23.6882], [78.79815, 23.68428], [78.80273, 23.68169], [78.80764, 23.68358], [78.80977, 23.68802], [78.81551, 23.69419]]]}}, {"type": "Feature", "properties": {"state": "Madhya Pradesh", "district": "Sagar", "block": "Shahgarh", "gp_name": "Shahgarh Gram Panchayat", "state_code": 23, "district_code": 420, "block_code": 4050, "gp_code": 133427, "centroid_lat": 23.7335, "centroid_lon": 78.8981, "area_sq_km": 7.2, "boundary_source": "LGD Revenue Village Centroids + Block-Bounded Voronoi Tessellation", "boundary_quality": "DERIVED"}, "geometry": {"type": "Polygon", "coordinates": [[[78.91076, 23.73318], [78.91066, 23.73792], [78.90715, 23.74139], [78.90259, 23.74275], [78.8984, 23.74358], [78.89422, 23.74284], [78.88968, 23.74169], [78.88583, 23.73855], [78.88543, 23.73382], [78.88869, 23.73019], [78.89301, 23.72301], [78.89772, 23.72061], [78.9025, 23.7229], [78.90504, 23.72675], [78.91076, 23.73318]]]}}, {"type": "Feature", "properties": {"state": "Madhya Pradesh", "district": "Sagar", "block": "Shahgarh", "gp_name": "Shahgarh Rural", "state_code": 23, "district_code": 420, "block_code": 4050, "gp_code": 133428, "centroid_lat": 23.7535, "centroid_lon": 78.8781, "area_sq_km": 7.3, "boundary_source": "LGD Revenue Village Centroids + Block-Bounded Voronoi Tessellation", "boundary_quality": "DERIVED"}, "geometry": {"type": "Polygon", "coordinates": [[[78.89037, 23.75319], [78.8902, 23.75776], [78.8873, 23.76152], [78.88254, 23.76265], [78.87839, 23.76333], [78.87411, 23.76311], [78.86948, 23.76188], [78.86626, 23.75837], [78.86589, 23.75381], [78.87104, 23.74734], [78.87312, 23.74324], [78.87771, 23.74045], [78.88252, 23.74287], [78.8849, 23.74689], [78.89037, 23.75319]]]}}]}