{"type": "FeatureCollection", "features": [{"type": "Feature", "properties": {"state": "Madhya Pradesh", "district": "Shajapur", "block": "Shajapur", "gp_name": "Shajapur Gram Panchayat", "state_code": 23, "district_code": 425, "block_code": 4140, "gp_code": 133481, "centroid_lat": 23.41, "centroid_lon": 76.412, "area_sq_km": 7.6, "boundary_source": "LGD Revenue Village Centroids + Block-Bounded Voronoi Tessellation", "boundary_quality": "DERIVED"}, "geometry": {"type": "Polygon", "coordinates": [[[76.42398, 23.40989], [76.4243, 23.41457], [76.42085, 23.41801], [76.41632, 23.41936], [76.41211, 23.42014], [76.40795, 23.41929], [76.40358, 23.41793], [76.40002, 23.41471], [76.39989, 23.41011], [76.40494, 23.40361], [76.40714, 23.39946], [76.41187, 23.39728], [76.41657, 23.39953], [76.42398, 23.40989]]]}}, {"type": "Feature", "properties": {"state": "Madhya Pradesh", "district": "Shajapur", "block": "Shajapur", "gp_name": "Shajapur Rural", "state_code": 23, "district_code": 425, "block_code": 4140, "gp_code": 133482, "centroid_lat": 23.43, "centroid_lon": 76.392, "area_sq_km": 7.7, "boundary_source": "LGD Revenue Village Centroids + Block-Bounded Voronoi Tessellation", "boundary_quality": "DERIVED"}, "geometry": {"type": "Polygon", "coordinates": [[[76.40424, 23.42989], [76.40436, 23.43459], [76.40088, 23.43804], [76.39645, 23.43966], [76.38778, 23.43966], [76.38321, 23.43827], [76.3797, 23.43483], [76.38001, 23.43011], [76.3849, 23.42358], [76.38716, 23.41951], [76.39187, 23.41711], [76.39651, 23.41966], [76.39876, 23.42364], [76.40153, 23.42626], [76.40424, 23.42989]]]}}, {"type": "Feature", "properties": {"state": "Madhya Pradesh", "district": "Shajapur", "block": "Kalapipal", "gp_name": "Kalapipal Gram Panchayat", "state_code": 23, "district_code": 425, "block_code": 4141, "gp_code": 133483, "centroid_lat": 23.53, "centroid_lon": 76.28, "area_sq_km": 7.8, "boundary_source": "LGD Revenue Village Centroids + Block-Bounded Voronoi Tessellation", "boundary_quality": "DERIVED"}, "geometry": {"type": "Polygon", "coordinates": [[[76.29254, 23.5299], [76.29222, 23.53455], [76.28902, 23.53817], [76.28446, 23.53969], [76.27577, 23.53965], [76.27117, 23.53829], [76.26802, 23.53469], [76.26797, 23.5301], [76.2703, 23.52639], [76.27281, 23.52349], [76.27512, 23.51941], [76.27988, 23.51713], [76.28474, 23.51918], [76.28939, 23.52632], [76.29254, 23.5299]]]}}, {"type": "Feature", "properties": {"state": "Madhya Pradesh", "district": "Shajapur", "block": "Kalapipal", "gp_name": "Kalapipal Rural", "state_code": 23, "district_code": 425, "block_code": 4141, "gp_code": 133484, "centroid_lat": 23.55, "centroid_lon": 76.26, "area_sq_km": 7.9, "boundary_source": "LGD Revenue Village Centroids + Block-Bounded Voronoi Tessellation", "boundary_quality": "DERIVED"}, "geometry": {"type": "Polygon", "coordinates": [[[76.27267, 23.5499], [76.27199, 23.55446], [76.26885, 23.55802], [76.26423, 23.55918], [76.26009, 23.55993], [76.25116, 23.55829], [76.24782, 23.55477], [76.24744, 23.5501], [76.25078, 23.54657], [76.25529, 23.53977], [76.25988, 23.53689], [76.26476, 23.53913], [76.26691, 23.54351], [76.27267, 23.5499]]]}}, {"type": "Feature", "properties": {"state": "Madhya Pradesh", "district": "Shajapur", "block": "Mohan Badodiya", "gp_name": "Mohan Badodiya Gram Panchayat", "state_code": 23, "district_code": 425, "block_code": 4142, "gp_code": 133485, "centroid_lat": 23.41, "centroid_lon": 76.148, "area_sq_km": 8.0, "boundary_source": "LGD Revenue Village Centroids + Block-Bounded Voronoi Tessellation", "boundary_quality": "DERIVED"}, "geometry": {"type": "Polygon", "coordinates": [[[76.1603, 23.40991], [76.1605, 23.41467], [76.15659, 23.4178], [76.14809, 23.42012], [76.14377, 23.41964], [76.13947, 23.41799], [76.13586, 23.41475], [76.13578, 23.41009], [76.14092, 23.40357], [76.14315, 23.39943], [76.14789, 23.39719], [76.15261, 23.39948], [76.1603, 23.40991]]]}}, {"type": "Feature", "properties": {"state": "Madhya Pradesh", "district": "Shajapur", "block": "Mohan Badodiya", "gp_name": "Mohan Badodiya Rural", "state_code": 23, "district_code": 425, "block_code": 4142, "gp_code": 133486, "centroid_lat": 23.43, "centroid_lon": 76.128, "area_sq_km": 8.1, "boundary_source": "LGD Revenue Village Centroids + Block-Bounded Voronoi Tessellation", "boundary_quality": "DERIVED"}, "geometry": {"type": "Polygon", "coordinates": [[[76.14001, 23.42991], [76.14026, 23.43458], [76.137, 23.43817], [76.13244, 23.43966], [76.12385, 23.43946], [76.11944, 23.43802], [76.11602, 23.43468], [76.11571, 23.43009], [76.1182, 23.42634], [76.12096, 23.4236], [76.12329, 23.41974], [76.12789, 23.4174], [76.13254, 23.41966], [76.13484, 23.42358], [76.13769, 23.42621], [76.14001, 23.42991]]]}}, {"type": "Feature", "properties": {"state": "Madhya Pradesh", "district": "Shajapur", "block": "Shujalpur", "gp_name": "Shujalpur Gram Panchayat", "state_code": 23, "district_code": 425, "block_code": 4143, "gp_code": 133487, "centroid_lat": 23.29, "centroid_lon": 76.28, "area_sq_km": 8.2, "boundary_source": "LGD Revenue Village Centroids + Block-Bounded Voronoi Tessellation", "boundary_quality": "DERIVED"}, "geometry": {"type": "Polygon", "coordinates": [[[76.29245, 23.2899], [76.29252, 23.29467], [76.28865, 23.29785], [76.28444, 23.29966], [76.2801, 23.29997], [76.27584, 23.2995], [76.27144, 23.29805], [76.26765, 23.29484], [76.2675, 23.2901], [76.27075, 23.28655], [76.27507, 23.27927], [76.27988, 23.27699], [76.28464, 23.27939], [76.28677, 23.28364], [76.29245, 23.2899]]]}}, {"type": "Feature", "properties": {"state": "Madhya Pradesh", "district": "Shajapur", "block": "Shujalpur", "gp_name": "Shujalpur Rural", "state_code": 23, "district_code": 425, "block_code": 4143, "gp_code": 133488, "centroid_lat": 23.31, "centroid_lon": 76.26, "area_sq_km": 8.3, "boundary_source": "LGD Revenue Village Centroids + Block-Bounded Voronoi Tessellation", "boundary_quality": "DERIVED"}, "geometry": {"type": "Polygon", "coordinates": [[[76.27228, 23.3099], [76.27221, 23.31456], [76.26885, 23.31803], [76.26448, 23.31974], [76.25578, 23.31964], [76.25116, 23.31831], [76.24796, 23.31472], [76.24759, 23.3101], [76.25527, 23.2997], [76.25988, 23.29717], [76.26459, 23.2995], [76.26921, 23.30639], [76.27228, 23.3099]]]}}]}