{"type": "FeatureCollection", "features": [{"type": "Feature", "properties": {"state": "Madhya Pradesh", "district": "Shivpuri", "block": "Shivpuri", "gp_name": "Shivpuri Gram Panchayat", "state_code": 23, "district_code": 426, "block_code": 4180, "gp_code": 133495, "centroid_lat": 25.42, "centroid_lon": 77.836, "area_sq_km": 9.0, "boundary_source": "LGD Revenue Village Centroids + Block-Bounded Voronoi Tessellation", "boundary_quality": "DERIVED"}, "geometry": {"type": "Polygon", "coordinates": [[[77.84859, 25.41976], [77.84861, 25.42446], [77.8451, 25.42792], [77.84044, 25.42919], [77.83623, 25.42966], [77.83198, 25.42938], [77.82735, 25.4282], [77.82386, 25.42484], [77.82382, 25.42023], [77.83082, 25.40929], [77.8357, 25.40715], [77.84063, 25.4092], [77.84859, 25.41976]]]}}, {"type": "Feature", "properties": {"state": "Madhya Pradesh", "district": "Shivpuri", "block": "Shivpuri", "gp_name": "Shivpuri Rural", "state_code": 23, "district_code": 426, "block_code": 4180, "gp_code": 133496, "centroid_lat": 25.44, "centroid_lon": 77.816, "area_sq_km": 9.1, "boundary_source": "LGD Revenue Village Centroids + Block-Bounded Voronoi Tessellation", "boundary_quality": "DERIVED"}, "geometry": {"type": "Polygon", "coordinates": [[[77.82853, 25.43976], [77.82822, 25.44432], [77.82507, 25.44789], [77.82055, 25.4494], [77.81623, 25.4499], [77.81185, 25.44968], [77.80755, 25.448], [77.80377, 25.44487], [77.80369, 25.44024], [77.81102, 25.42969], [77.8157, 25.42717], [77.82064, 25.42918], [77.8229, 25.43346], [77.82576, 25.43611], [77.82853, 25.43976]]]}}, {"type": "Feature", "properties": {"state": "Madhya Pradesh", "district": "Shivpuri", "block": "Badarwas", "gp_name": "Badarwas Gram Panchayat", "state_code": 23, "district_code": 426, "block_code": 4181, "gp_code": 133497, "centroid_lat": 25.5331, "centroid_lon": 77.7845, "area_sq_km": 9.2, "boundary_source": "LGD Revenue Village Centroids + Block-Bounded Voronoi Tessellation", "boundary_quality": "DERIVED"}, "geometry": {"type": "Polygon", "coordinates": [[[77.79693, 25.53286], [77.79698, 25.53751], [77.7937, 25.5411], [77.78473, 25.54316], [77.78031, 25.54286], [77.77588, 25.54125], [77.77239, 25.53792], [77.77164, 25.53334], [77.77733, 25.52686], [77.7794, 25.52256], [77.7842, 25.52013], [77.7891, 25.5224], [77.79144, 25.52653], [77.79693, 25.53286]]]}}, {"type": "Feature", "properties": {"state": "Madhya Pradesh", "district": "Shivpuri", "block": "Badarwas", "gp_name": "Badarwas Rural", "state_code": 23, "district_code": 426, "block_code": 4181, "gp_code": 133498, "centroid_lat": 25.5531, "centroid_lon": 77.7645, "area_sq_km": 9.3, "boundary_source": "LGD Revenue Village Centroids + Block-Bounded Voronoi Tessellation", "boundary_quality": "DERIVED"}, "geometry": {"type": "Polygon", "coordinates": [[[77.77726, 25.55286], [77.77686, 25.55747], [77.77354, 25.56096], [77.769, 25.5624], [77.76473, 25.56309], [77.7604, 25.56263], [77.75606, 25.56108], [77.75221, 25.55799], [77.75195, 25.55334], [77.7571, 25.54666], [77.75936, 25.54248], [77.76421, 25.54034], [77.76917, 25.54224], [77.77161, 25.54637], [77.77726, 25.55286]]]}}, {"type": "Feature", "properties": {"state": "Madhya Pradesh", "district": "Shivpuri", "block": "Karera", "gp_name": "Karera Gram Panchayat", "state_code": 23, "district_code": 426, "block_code": 4182, "gp_code": 133499, "centroid_lat": 25.58, "centroid_lon": 77.66, "area_sq_km": 9.4, "boundary_source": "LGD Revenue Village Centroids + Block-Bounded Voronoi Tessellation", "boundary_quality": "DERIVED"}, "geometry": {"type": "Polygon", "coordinates": [[[77.67286, 25.57977], [77.67264, 25.58448], [77.66888, 25.58773], [77.66448, 25.58927], [77.66022, 25.58995], [77.65588, 25.58956], [77.65118, 25.58833], [77.64737, 25.58502], [77.64718, 25.58023], [77.65272, 25.57365], [77.65507, 25.56978], [77.65972, 25.56714], [77.66458, 25.56937], [77.6692, 25.57635], [77.67286, 25.57977]]]}}, {"type": "Feature", "properties": {"state": "Madhya Pradesh", "district": "Shivpuri", "block": "Karera", "gp_name": "Karera Rural", "state_code": 23, "district_code": 426, "block_code": 4182, "gp_code": 133500, "centroid_lat": 25.6, "centroid_lon": 77.64, "area_sq_km": 4.5, "boundary_source": "LGD Revenue Village Centroids + Block-Bounded Voronoi Tessellation", "boundary_quality": "DERIVED"}, "geometry": {"type": "Polygon", "coordinates": [[[77.65231, 25.59978], [77.65248, 25.60442], [77.64897, 25.60782], [77.64448, 25.60928], [77.64022, 25.61002], [77.63583, 25.60967], [77.63118, 25.60832], [77.6277, 25.60488], [77.62773, 25.60022], [77.63277, 25.5937], [77.63507, 25.5898], [77.63972, 25.58737], [77.64466, 25.5892], [77.64937, 25.59628], [77.65231, 25.59978]]]}}, {"type": "Feature", "properties": {"state": "Madhya Pradesh", "district": "Shivpuri", "block": "Khaniyadhana", "gp_name": "Khaniyadhana Gram Panchayat", "state_code": 23, "district_code": 426, "block_code": 4183, "gp_code": 133501, "centroid_lat": 25.5331, "centroid_lon": 77.5355, "area_sq_km": 4.6, "boundary_source": "LGD Revenue Village Centroids + Block-Bounded Voronoi Tessellation", "boundary_quality": "DERIVED"}, "geometry": {"type": "Polygon", "coordinates": [[[77.54771, 25.53289], [77.54823, 25.53763], [77.54446, 25.54092], [77.53992, 25.54228], [77.53571, 25.54316], [77.53128, 25.54286], [77.5266, 25.54149], [77.52282, 25.53812], [77.52266, 25.53332], [77.52829, 25.5268], [77.53051, 25.52273], [77.53523, 25.52022], [77.54, 25.52269], [77.54771, 25.53289]]]}}, {"type": "Feature", "properties": {"state": "Madhya Pradesh", "district": "Shivpuri", "block": "Khaniyadhana", "gp_name": "Khaniyadhana Rural", "state_code": 23, "district_code": 426, "block_code": 4183, "gp_code": 133502, "centroid_lat": 25.5531, "centroid_lon": 77.5155, "area_sq_km": 4.7, "boundary_source": "LGD Revenue Village Centroids + Block-Bounded Voronoi Tessellation", "boundary_quality": "DERIVED"}, "geometry": {"type": "Polygon", "coordinates": [[[77.52768, 25.55289], [77.52779, 25.55747], [77.52432, 25.5608], [77.52003, 25.56251], [77.5114, 25.56259], [77.50702, 25.56109], [77.50326, 25.55795], [77.50319, 25.55331], [77.50844, 25.54693], [77.51055, 25.54281], [77.51523, 25.54004], [77.52019, 25.54225], [77.52255, 25.54646], [77.52768, 25.55289]]]}}, {"type": "Feature", "properties": {"state": "Madhya Pradesh", "district": "Shivpuri", "block": "Kolaras", "gp_name": "Kolaras Gram Panchayat", "state_code": 23, "district_code": 426, "block_code": 4184, "gp_code": 133503, "centroid_lat": 25.42, "centroid_lon": 77.484, "area_sq_km": 4.8, "boundary_source": "LGD Revenue Village Centroids + Block-Bounded Voronoi Tessellation", "boundary_quality": "DERIVED"}, "geometry": {"type": "Polygon", "coordinates": [[[77.49667, 25.41979], [77.4962, 25.42435], [77.49289, 25.42778], [77.48841, 25.42917], [77.4842, 25.4298], [77.47989, 25.42952], [77.47514, 25.42835], [77.47139, 25.42499], [77.47184, 25.42021], [77.47682, 25.41372], [77.47907, 25.40973], [77.48373, 25.40702], [77.48867, 25.40919], [77.49085, 25.41354], [77.4937, 25.41616], [77.49667, 25.41979]]]}}, {"type": "Feature", "properties": {"state": "Madhya Pradesh", "district": "Shivpuri", "block": "Kolaras", "gp_name": "Kolaras Rural", "state_code": 23, "district_code": 426, "block_code": 4184, "gp_code": 133504, "centroid_lat": 25.44, "centroid_lon": 77.464, "area_sq_km": 4.9, "boundary_source": "LGD Revenue Village Centroids + Block-Bounded Voronoi Tessellation", "boundary_quality": "DERIVED"}, "geometry": {"type": "Polygon", "coordinates": [[[77.47661, 25.43979], [77.47635, 25.4444], [77.47318, 25.44804], [77.46858, 25.44954], [77.45978, 25.44977], [77.45512, 25.44837], [77.45145, 25.44497], [77.45182, 25.4402], [77.45683, 25.43373], [77.45908, 25.42975], [77.46374, 25.42742], [77.46849, 25.42963], [77.47661, 25.43979]]]}}, {"type": "Feature", "properties": {"state": "Madhya Pradesh", "district": "Shivpuri", "block": "Narwar", "gp_name": "Narwar Gram Panchayat", "state_code": 23, "district_code": 426, "block_code": 4185, "gp_code": 133505, "centroid_lat": 25.3069, "centroid_lon": 77.5355, "area_sq_km": 5.0, "boundary_source": "LGD Revenue Village Centroids + Block-Bounded Voronoi Tessellation", "boundary_quality": "DERIVED"}, "geometry": {"type": "Polygon", "coordinates": [[[77.54833, 25.30668], [77.54787, 25.31131], [77.5445, 25.31478], [77.54012, 25.31653], [77.53571, 25.31677], [77.52686, 25.31506], [77.52287, 25.31191], [77.52324, 25.30711], [77.53061, 25.29672], [77.53523, 25.29403], [77.54017, 25.29608], [77.54238, 25.3004], [77.54833, 25.30668]]]}}, {"type": "Feature", "properties": {"state": "Madhya Pradesh", "district": "Shivpuri", "block": "Narwar", "gp_name": "Narwar Rural", "state_code": 23, "district_code": 426, "block_code": 4185, "gp_code": 133506, "centroid_lat": 25.3269, "centroid_lon": 77.5155, "area_sq_km": 5.1, "boundary_source": "LGD Revenue Village Centroids + Block-Bounded Voronoi Tessellation", "boundary_quality": "DERIVED"}, "geometry": {"type": "Polygon", "coordinates": [[[77.52835, 25.32668], [77.5282, 25.33143], [77.52458, 25.33484], [77.52011, 25.3365], [77.51138, 25.33643], [77.50682, 25.33509], [77.50316, 25.33179], [77.50282, 25.32712], [77.50819, 25.3205], [77.51051, 25.31652], [77.51524, 25.31424], [77.51999, 25.3165], [77.52246, 25.32033], [77.52835, 25.32668]]]}}, {"type": "Feature", "properties": {"state": "Madhya Pradesh", "district": "Shivpuri", "block": "Pichhore", "gp_name": "Pichhore Gram Panchayat", "state_code": 23, "district_code": 426, "block_code": 4186, "gp_code": 133507, "centroid_lat": 25.26, "centroid_lon": 77.66, "area_sq_km": 5.2, "boundary_source": "LGD Revenue Village Centroids + Block-Bounded Voronoi Tessellation", "boundary_quality": "DERIVED"}, "geometry": {"type": "Polygon", "coordinates": [[[77.67216, 25.25978], [77.67281, 25.26456], [77.66882, 25.26771], [77.66446, 25.26927], [77.66022, 25.26986], [77.65586, 25.26961], [77.65112, 25.2684], [77.64768, 25.2649], [77.64771, 25.26022], [77.65287, 25.25376], [77.65494, 25.24949], [77.65972, 25.24699], [77.66469, 25.2491], [77.66698, 25.25339], [77.67216, 25.25978]]]}}, {"type": "Feature", "properties": {"state": "Madhya Pradesh", "district": "Shivpuri", "block": "Pichhore", "gp_name": "Pichhore Rural", "state_code": 23, "district_code": 426, "block_code": 4186, "gp_code": 133508, "centroid_lat": 25.28, "centroid_lon": 77.64, "area_sq_km": 5.3, "boundary_source": "LGD Revenue Village Centroids + Block-Bounded Voronoi Tessellation", "boundary_quality": "DERIVED"}, "geometry": {"type": "Polygon", "coordinates": [[[77.65238, 25.27978], [77.65235, 25.28439], [77.64875, 25.28765], [77.64453, 25.28942], [77.64021, 25.2898], [77.63591, 25.28949], [77.63155, 25.28799], [77.62797, 25.28478], [77.62739, 25.28023], [77.63067, 25.27668], [77.63503, 25.26967], [77.63972, 25.26726], [77.64459, 25.26932], [77.64928, 25.27631], [77.65238, 25.27978]]]}}, {"type": "Feature", "properties": {"state": "Madhya Pradesh", "district": "Shivpuri", "block": "Pohari", "gp_name": "Pohari Gram Panchayat", "state_code": 23, "district_code": 426, "block_code": 4187, "gp_code": 133509, "centroid_lat": 25.3069, "centroid_lon": 77.7845, "area_sq_km": 5.4, "boundary_source": "LGD Revenue Village Centroids + Block-Bounded Voronoi Tessellation", "boundary_quality": "DERIVED"}, "geometry": {"type": "Polygon", "coordinates": [[[77.79708, 25.30666], [77.797, 25.31133], [77.79356, 25.3148], [77.78909, 25.31642], [77.78472, 25.31673], [77.78044, 25.31636], [77.77601, 25.31494], [77.77213, 25.31183], [77.77167, 25.30714], [77.77699, 25.30035], [77.77935, 25.29624], [77.7842, 25.29379], [77.78912, 25.29614], [77.79384, 25.30318], [77.79708, 25.30666]]]}}, {"type": "Feature", "properties": {"state": "Madhya Pradesh", "district": "Shivpuri", "block": "Pohari", "gp_name": "Pohari Rural", "state_code": 23, "district_code": 426, "block_code": 4187, "gp_code": 133510, "centroid_lat": 25.3269, "centroid_lon": 77.7645, "area_sq_km": 5.5, "boundary_source": "LGD Revenue Village Centroids + Block-Bounded Voronoi Tessellation", "boundary_quality": "DERIVED"}, "geometry": {"type": "Polygon", "coordinates": [[[77.77677, 25.32667], [77.7768, 25.33126], [77.7734, 25.33466], [77.76914, 25.33651], [77.76472, 25.33676], [77.76047, 25.3363], [77.75608, 25.33487], [77.75204, 25.33187], [77.75217, 25.32713], [77.75744, 25.32074], [77.75937, 25.31627], [77.76421, 25.31433], [77.76905, 25.3163], [77.77134, 25.32042], [77.77677, 25.32667]]]}}]}