{"type": "FeatureCollection", "features": [{"type": "Feature", "properties": {"state": "Madhya Pradesh", "district": "Dewas", "block": "Dewas", "gp_name": "Dewas Gram Panchayat", "state_code": 23, "district_code": 434, "block_code": 3560, "gp_code": 133125, "centroid_lat": 22.95, "centroid_lon": 76.236, "area_sq_km": 7.0, "boundary_source": "LGD Revenue Village Centroids + Block-Bounded Voronoi Tessellation", "boundary_quality": "DERIVED"}, "geometry": {"type": "Polygon", "coordinates": [[[76.24796, 22.94991], [76.24836, 22.95463], [76.2449, 22.95811], [76.24035, 22.9595], [76.23181, 22.9596], [76.22744, 22.95806], [76.22352, 22.9549], [76.2236, 22.9501], [76.22902, 22.94364], [76.23111, 22.93932], [76.23589, 22.93739], [76.2407, 22.93923], [76.24796, 22.94991]]]}}, {"type": "Feature", "properties": {"state": "Madhya Pradesh", "district": "Dewas", "block": "Dewas", "gp_name": "Dewas Rural", "state_code": 23, "district_code": 434, "block_code": 3560, "gp_code": 133126, "centroid_lat": 22.97, "centroid_lon": 76.216, "area_sq_km": 7.1, "boundary_source": "LGD Revenue Village Centroids + Block-Bounded Voronoi Tessellation", "boundary_quality": "DERIVED"}, "geometry": {"type": "Polygon", "coordinates": [[[76.22811, 22.96991], [76.22821, 22.97457], [76.22454, 22.97778], [76.22035, 22.97951], [76.21609, 22.97968], [76.21193, 22.97931], [76.20755, 22.97796], [76.20393, 22.97474], [76.2034, 22.9701], [76.20665, 22.9665], [76.21108, 22.95925], [76.21589, 22.95741], [76.2207, 22.95925], [76.22279, 22.96361], [76.22563, 22.96622], [76.22811, 22.96991]]]}}, {"type": "Feature", "properties": {"state": "Madhya Pradesh", "district": "Dewas", "block": "Bagli", "gp_name": "Bagli Gram Panchayat", "state_code": 23, "district_code": 434, "block_code": 3561, "gp_code": 133127, "centroid_lat": 23.0886, "centroid_lon": 76.148, "area_sq_km": 7.2, "boundary_source": "LGD Revenue Village Centroids + Block-Bounded Voronoi Tessellation", "boundary_quality": "DERIVED"}, "geometry": {"type": "Polygon", "coordinates": [[[76.16002, 23.08851], [76.16058, 23.09331], [76.15678, 23.0966], [76.14809, 23.09874], [76.14379, 23.09821], [76.1394, 23.09668], [76.13593, 23.09333], [76.1355, 23.08869], [76.14114, 23.08235], [76.14319, 23.07808], [76.14789, 23.07551], [76.1526, 23.07809], [76.15494, 23.08207], [76.16002, 23.08851]]]}}, {"type": "Feature", "properties": {"state": "Madhya Pradesh", "district": "Dewas", "block": "Bagli", "gp_name": "Bagli Rural", "state_code": 23, "district_code": 434, "block_code": 3561, "gp_code": 133128, "centroid_lat": 23.1086, "centroid_lon": 76.128, "area_sq_km": 7.3, "boundary_source": "LGD Revenue Village Centroids + Block-Bounded Voronoi Tessellation", "boundary_quality": "DERIVED"}, "geometry": {"type": "Polygon", "coordinates": [[[76.14063, 23.10851], [76.14057, 23.11331], [76.13653, 23.11637], [76.13226, 23.1179], [76.12808, 23.1185], [76.12371, 23.11839], [76.11959, 23.1165], [76.11595, 23.11332], [76.11593, 23.10869], [76.12332, 23.09838], [76.12789, 23.09548], [76.13267, 23.09794], [76.14063, 23.10851]]]}}, {"type": "Feature", "properties": {"state": "Madhya Pradesh", "district": "Dewas", "block": "Kannod", "gp_name": "Kannod Gram Panchayat", "state_code": 23, "district_code": 434, "block_code": 3562, "gp_code": 133129, "centroid_lat": 23.0886, "centroid_lon": 75.972, "area_sq_km": 7.4, "boundary_source": "LGD Revenue Village Centroids + Block-Bounded Voronoi Tessellation", "boundary_quality": "DERIVED"}, "geometry": {"type": "Polygon", "coordinates": [[[75.98398, 23.08853], [75.98428, 23.09322], [75.98087, 23.0967], [75.97623, 23.09788], [75.97207, 23.09833], [75.96323, 23.09682], [75.95961, 23.09344], [75.96004, 23.08867], [75.96732, 23.07833], [75.97191, 23.07561], [75.97663, 23.07806], [75.98398, 23.08853]]]}}, {"type": "Feature", "properties": {"state": "Madhya Pradesh", "district": "Dewas", "block": "Kannod", "gp_name": "Kannod Rural", "state_code": 23, "district_code": 434, "block_code": 3562, "gp_code": 133130, "centroid_lat": 23.1086, "centroid_lon": 75.952, "area_sq_km": 7.5, "boundary_source": "LGD Revenue Village Centroids + Block-Bounded Voronoi Tessellation", "boundary_quality": "DERIVED"}, "geometry": {"type": "Polygon", "coordinates": [[[75.96401, 23.10853], [75.9641, 23.11315], [75.96078, 23.11661], [75.95638, 23.11821], [75.95207, 23.11862], [75.94771, 23.11835], [75.94341, 23.11665], [75.93957, 23.11345], [75.93955, 23.10867], [75.94494, 23.10215], [75.94729, 23.09828], [75.95191, 23.09582], [75.95656, 23.09822], [75.95896, 23.10208], [75.96401, 23.10853]]]}}, {"type": "Feature", "properties": {"state": "Madhya Pradesh", "district": "Dewas", "block": "Khategaon", "gp_name": "Khategaon Gram Panchayat", "state_code": 23, "district_code": 434, "block_code": 3563, "gp_code": 133131, "centroid_lat": 22.95, "centroid_lon": 75.884, "area_sq_km": 7.6, "boundary_source": "LGD Revenue Village Centroids + Block-Bounded Voronoi Tessellation", "boundary_quality": "DERIVED"}, "geometry": {"type": "Polygon", "coordinates": [[[75.89595, 22.94993], [75.89611, 22.95457], [75.8927, 22.95796], [75.88842, 22.95971], [75.8799, 22.95932], [75.87528, 22.95817], [75.87168, 22.95481], [75.87181, 22.95007], [75.87429, 22.94634], [75.87698, 22.94357], [75.87915, 22.93934], [75.88392, 22.93728], [75.88878, 22.93913], [75.8911, 22.94334], [75.89595, 22.94993]]]}}, {"type": "Feature", "properties": {"state": "Madhya Pradesh", "district": "Dewas", "block": "Khategaon", "gp_name": "Khategaon Rural", "state_code": 23, "district_code": 434, "block_code": 3563, "gp_code": 133132, "centroid_lat": 22.97, "centroid_lon": 75.864, "area_sq_km": 7.7, "boundary_source": "LGD Revenue Village Centroids + Block-Bounded Voronoi Tessellation", "boundary_quality": "DERIVED"}, "geometry": {"type": "Polygon", "coordinates": [[[75.87623, 22.96993], [75.87623, 22.97461], [75.87296, 22.9782], [75.8683, 22.97946], [75.86406, 22.97996], [75.85522, 22.97823], [75.85183, 22.97474], [75.85152, 22.97007], [75.85488, 22.96656], [75.85924, 22.95953], [75.86392, 22.95701], [75.86854, 22.95968], [75.87321, 22.96641], [75.87623, 22.96993]]]}}, {"type": "Feature", "properties": {"state": "Madhya Pradesh", "district": "Dewas", "block": "Sonkatch", "gp_name": "Sonkatch Gram Panchayat", "state_code": 23, "district_code": 434, "block_code": 3564, "gp_code": 133133, "centroid_lat": 22.8114, "centroid_lon": 75.972, "area_sq_km": 7.8, "boundary_source": "LGD Revenue Village Centroids + Block-Bounded Voronoi Tessellation", "boundary_quality": "DERIVED"}, "geometry": {"type": "Polygon", "coordinates": [[[75.98435, 22.81132], [75.98403, 22.81593], [75.9807, 22.81936], [75.97634, 22.82094], [75.96789, 22.82078], [75.96336, 22.81952], [75.96005, 22.81607], [75.95997, 22.81147], [75.96507, 22.80506], [75.96718, 22.80081], [75.97191, 22.79821], [75.97665, 22.8008], [75.98117, 22.80781], [75.98435, 22.81132]]]}}, {"type": "Feature", "properties": {"state": "Madhya Pradesh", "district": "Dewas", "block": "Sonkatch", "gp_name": "Sonkatch Rural", "state_code": 23, "district_code": 434, "block_code": 3564, "gp_code": 133134, "centroid_lat": 22.8314, "centroid_lon": 75.952, "area_sq_km": 7.9, "boundary_source": "LGD Revenue Village Centroids + Block-Bounded Voronoi Tessellation", "boundary_quality": "DERIVED"}, "geometry": {"type": "Polygon", "coordinates": [[[75.96437, 22.83133], [75.96424, 22.83601], [75.96097, 22.83961], [75.9562, 22.84064], [75.95207, 22.84144], [75.9478, 22.84097], [75.94315, 22.83971], [75.93958, 22.83626], [75.94003, 22.83147], [75.94243, 22.82779], [75.9473, 22.82107], [75.95191, 22.81881], [75.95667, 22.82076], [75.95905, 22.82478], [75.96437, 22.83133]]]}}, {"type": "Feature", "properties": {"state": "Madhya Pradesh", "district": "Dewas", "block": "Tonk Khurd", "gp_name": "Tonk Khurd Gram Panchayat", "state_code": 23, "district_code": 434, "block_code": 3565, "gp_code": 133135, "centroid_lat": 22.8114, "centroid_lon": 76.148, "area_sq_km": 8.0, "boundary_source": "LGD Revenue Village Centroids + Block-Bounded Voronoi Tessellation", "boundary_quality": "DERIVED"}, "geometry": {"type": "Polygon", "coordinates": [[[76.1604, 22.81131], [76.16003, 22.81592], [76.15686, 22.81949], [76.14808, 22.82154], [76.14387, 22.82084], [76.13948, 22.81942], [76.13615, 22.81605], [76.13565, 22.81149], [76.13885, 22.80796], [76.1432, 22.80088], [76.14789, 22.79851], [76.15269, 22.80066], [76.15719, 22.80779], [76.1604, 22.81131]]]}}, {"type": "Feature", "properties": {"state": "Madhya Pradesh", "district": "Dewas", "block": "Tonk Khurd", "gp_name": "Tonk Khurd Rural", "state_code": 23, "district_code": 434, "block_code": 3565, "gp_code": 133136, "centroid_lat": 22.8314, "centroid_lon": 76.128, "area_sq_km": 8.1, "boundary_source": "LGD Revenue Village Centroids + Block-Bounded Voronoi Tessellation", "boundary_quality": "DERIVED"}, "geometry": {"type": "Polygon", "coordinates": [[[76.14002, 22.83131], [76.14039, 22.83606], [76.13653, 22.83919], [76.13219, 22.84058], [76.12808, 22.84111], [76.12395, 22.84066], [76.1194, 22.83949], [76.11601, 22.8361], [76.11561, 22.83149], [76.121, 22.82501], [76.1231, 22.82067], [76.1279, 22.8188], [76.1327, 22.82065], [76.13511, 22.82471], [76.14002, 22.83131]]]}}]}