{"type": "FeatureCollection", "features": [{"type": "Feature", "properties": {"state": "Madhya Pradesh", "district": "Ujjain", "block": "Ujjain", "gp_name": "Ujjain Gram Panchayat", "state_code": 23, "district_code": 435, "block_code": 4260, "gp_code": 133537, "centroid_lat": 23.17, "centroid_lon": 75.956, "area_sq_km": 8.2, "boundary_source": "LGD Revenue Village Centroids + Block-Bounded Voronoi Tessellation", "boundary_quality": "DERIVED"}, "geometry": {"type": "Polygon", "coordinates": [[[75.96833, 23.16992], [75.96838, 23.17465], [75.96459, 23.17783], [75.96029, 23.1794], [75.95607, 23.18007], [75.94727, 23.17818], [75.94412, 23.17464], [75.94353, 23.17008], [75.94669, 23.1665], [75.95114, 23.15934], [75.95591, 23.15719], [75.96058, 23.15958], [75.96284, 23.16359], [75.96564, 23.16624], [75.96833, 23.16992]]]}}, {"type": "Feature", "properties": {"state": "Madhya Pradesh", "district": "Ujjain", "block": "Ujjain", "gp_name": "Ujjain Rural", "state_code": 23, "district_code": 435, "block_code": 4260, "gp_code": 133538, "centroid_lat": 23.19, "centroid_lon": 75.936, "area_sq_km": 8.3, "boundary_source": "LGD Revenue Village Centroids + Block-Bounded Voronoi Tessellation", "boundary_quality": "DERIVED"}, "geometry": {"type": "Polygon", "coordinates": [[[75.94854, 23.18992], [75.94827, 23.19461], [75.94489, 23.19811], [75.94031, 23.19944], [75.93607, 23.19998], [75.9317, 23.19978], [75.92735, 23.1981], [75.92352, 23.19487], [75.92384, 23.19007], [75.93133, 23.17976], [75.93591, 23.17737], [75.94059, 23.17957], [75.94281, 23.18362], [75.94566, 23.18623], [75.94854, 23.18992]]]}}, {"type": "Feature", "properties": {"state": "Madhya Pradesh", "district": "Ujjain", "block": "Badnagar", "gp_name": "Badnagar Gram Panchayat", "state_code": 23, "district_code": 435, "block_code": 4261, "gp_code": 133539, "centroid_lat": 23.3086, "centroid_lon": 75.868, "area_sq_km": 8.4, "boundary_source": "LGD Revenue Village Centroids + Block-Bounded Voronoi Tessellation", "boundary_quality": "DERIVED"}, "geometry": {"type": "Polygon", "coordinates": [[[75.88012, 23.30853], [75.88027, 23.31321], [75.87663, 23.31647], [75.87238, 23.31821], [75.86374, 23.31825], [75.85956, 23.31649], [75.85593, 23.3133], [75.85551, 23.30867], [75.85852, 23.30503], [75.86316, 23.29798], [75.86792, 23.29602], [75.87275, 23.29783], [75.87721, 23.30502], [75.88012, 23.30853]]]}}, {"type": "Feature", "properties": {"state": "Madhya Pradesh", "district": "Ujjain", "block": "Badnagar", "gp_name": "Badnagar Rural", "state_code": 23, "district_code": 435, "block_code": 4261, "gp_code": 133540, "centroid_lat": 23.3286, "centroid_lon": 75.848, "area_sq_km": 8.5, "boundary_source": "LGD Revenue Village Centroids + Block-Bounded Voronoi Tessellation", "boundary_quality": "DERIVED"}, "geometry": {"type": "Polygon", "coordinates": [[[75.86021, 23.32853], [75.86005, 23.33313], [75.8567, 23.33654], [75.8522, 23.33782], [75.84806, 23.33844], [75.84368, 23.3384], [75.8392, 23.33682], [75.83596, 23.33328], [75.83555, 23.32867], [75.83866, 23.32508], [75.84312, 23.31789], [75.84792, 23.31588], [75.85275, 23.31784], [75.85489, 23.32216], [75.85773, 23.32482], [75.86021, 23.32853]]]}}, {"type": "Feature", "properties": {"state": "Madhya Pradesh", "district": "Ujjain", "block": "Ghatiya", "gp_name": "Ghatiya Gram Panchayat", "state_code": 23, "district_code": 435, "block_code": 4262, "gp_code": 133541, "centroid_lat": 23.3086, "centroid_lon": 75.692, "area_sq_km": 8.6, "boundary_source": "LGD Revenue Village Centroids + Block-Bounded Voronoi Tessellation", "boundary_quality": "DERIVED"}, "geometry": {"type": "Polygon", "coordinates": [[[75.70466, 23.30854], [75.70399, 23.31312], [75.70057, 23.31644], [75.69632, 23.31809], [75.69205, 23.31844], [75.68783, 23.31803], [75.68348, 23.31655], [75.67966, 23.31338], [75.67961, 23.30865], [75.68265, 23.30507], [75.68711, 23.29783], [75.69193, 23.29564], [75.6968, 23.29775], [75.69893, 23.30214], [75.70466, 23.30854]]]}}, {"type": "Feature", "properties": {"state": "Madhya Pradesh", "district": "Ujjain", "block": "Ghatiya", "gp_name": "Ghatiya Rural", "state_code": 23, "district_code": 435, "block_code": 4262, "gp_code": 133542, "centroid_lat": 23.3286, "centroid_lon": 75.672, "area_sq_km": 8.7, "boundary_source": "LGD Revenue Village Centroids + Block-Bounded Voronoi Tessellation", "boundary_quality": "DERIVED"}, "geometry": {"type": "Polygon", "coordinates": [[[75.68401, 23.32855], [75.68422, 23.33321], [75.68055, 23.33642], [75.6762, 23.33784], [75.67205, 23.33849], [75.66776, 23.33818], [75.66314, 23.33685], [75.65972, 23.33336], [75.65962, 23.32865], [75.66502, 23.32221], [75.6671, 23.31782], [75.67193, 23.31547], [75.67675, 23.31786], [75.67881, 23.32225], [75.6815, 23.32492], [75.68401, 23.32855]]]}}, {"type": "Feature", "properties": {"state": "Madhya Pradesh", "district": "Ujjain", "block": "Khachrod", "gp_name": "Khachrod Gram Panchayat", "state_code": 23, "district_code": 435, "block_code": 4263, "gp_code": 133543, "centroid_lat": 23.17, "centroid_lon": 75.604, "area_sq_km": 8.8, "boundary_source": "LGD Revenue Village Centroids + Block-Bounded Voronoi Tessellation", "boundary_quality": "DERIVED"}, "geometry": {"type": "Polygon", "coordinates": [[[75.61656, 23.16995], [75.61626, 23.17464], [75.61265, 23.17793], [75.60831, 23.17951], [75.60404, 23.17993], [75.59536, 23.17805], [75.59149, 23.17485], [75.59142, 23.17005], [75.59694, 23.16353], [75.59921, 23.15944], [75.60394, 23.15679], [75.6088, 23.15916], [75.61118, 23.1633], [75.61656, 23.16995]]]}}, {"type": "Feature", "properties": {"state": "Madhya Pradesh", "district": "Ujjain", "block": "Khachrod", "gp_name": "Khachrod Rural", "state_code": 23, "district_code": 435, "block_code": 4263, "gp_code": 133544, "centroid_lat": 23.19, "centroid_lon": 75.584, "area_sq_km": 8.9, "boundary_source": "LGD Revenue Village Centroids + Block-Bounded Voronoi Tessellation", "boundary_quality": "DERIVED"}, "geometry": {"type": "Polygon", "coordinates": [[[75.59629, 23.18995], [75.59657, 23.19476], [75.59295, 23.19821], [75.58404, 23.2001], [75.57977, 23.19955], [75.57534, 23.19807], [75.57162, 23.19479], [75.572, 23.19004], [75.57915, 23.17929], [75.58394, 23.1768], [75.58866, 23.17949], [75.59629, 23.18995]]]}}, {"type": "Feature", "properties": {"state": "Madhya Pradesh", "district": "Ujjain", "block": "Mahidpur", "gp_name": "Mahidpur Gram Panchayat", "state_code": 23, "district_code": 435, "block_code": 4264, "gp_code": 133545, "centroid_lat": 23.0314, "centroid_lon": 75.692, "area_sq_km": 9.0, "boundary_source": "LGD Revenue Village Centroids + Block-Bounded Voronoi Tessellation", "boundary_quality": "DERIVED"}, "geometry": {"type": "Polygon", "coordinates": [[[75.70411, 23.03135], [75.70449, 23.03612], [75.70049, 23.03919], [75.69618, 23.04062], [75.68774, 23.04105], [75.68342, 23.03942], [75.67978, 23.03615], [75.67994, 23.03145], [75.68496, 23.02495], [75.68715, 23.0207], [75.69193, 23.01828], [75.69669, 23.02078], [75.69902, 23.02484], [75.70411, 23.03135]]]}}, {"type": "Feature", "properties": {"state": "Madhya Pradesh", "district": "Ujjain", "block": "Mahidpur", "gp_name": "Mahidpur Rural", "state_code": 23, "district_code": 435, "block_code": 4264, "gp_code": 133546, "centroid_lat": 23.0514, "centroid_lon": 75.672, "area_sq_km": 9.1, "boundary_source": "LGD Revenue Village Centroids + Block-Bounded Voronoi Tessellation", "boundary_quality": "DERIVED"}, "geometry": {"type": "Polygon", "coordinates": [[[75.68438, 23.05135], [75.68415, 23.056], [75.68094, 23.05959], [75.67629, 23.06087], [75.67205, 23.06115], [75.66785, 23.06079], [75.66316, 23.05965], [75.65963, 23.0562], [75.66004, 23.05145], [75.66712, 23.04063], [75.67194, 23.03882], [75.6768, 23.04054], [75.68129, 23.04779], [75.68438, 23.05135]]]}}, {"type": "Feature", "properties": {"state": "Madhya Pradesh", "district": "Ujjain", "block": "Tarana", "gp_name": "Tarana Gram Panchayat", "state_code": 23, "district_code": 435, "block_code": 4265, "gp_code": 133547, "centroid_lat": 23.0314, "centroid_lon": 75.868, "area_sq_km": 9.2, "boundary_source": "LGD Revenue Village Centroids + Block-Bounded Voronoi Tessellation", "boundary_quality": "DERIVED"}, "geometry": {"type": "Polygon", "coordinates": [[[75.88019, 23.03133], [75.88014, 23.03597], [75.87698, 23.03961], [75.87233, 23.04091], [75.86379, 23.04097], [75.8594, 23.03945], [75.8559, 23.03612], [75.85603, 23.03147], [75.86327, 23.021], [75.86792, 23.01827], [75.87278, 23.02053], [75.87712, 23.02785], [75.88019, 23.03133]]]}}, {"type": "Feature", "properties": {"state": "Madhya Pradesh", "district": "Ujjain", "block": "Tarana", "gp_name": "Tarana Rural", "state_code": 23, "district_code": 435, "block_code": 4265, "gp_code": 133548, "centroid_lat": 23.0514, "centroid_lon": 75.848, "area_sq_km": 9.3, "boundary_source": "LGD Revenue Village Centroids + Block-Bounded Voronoi Tessellation", "boundary_quality": "DERIVED"}, "geometry": {"type": "Polygon", "coordinates": [[[75.8606, 23.05133], [75.86043, 23.05609], [75.85657, 23.05924], [75.85217, 23.06056], [75.84806, 23.06099], [75.84387, 23.06078], [75.83956, 23.0593], [75.8356, 23.05623], [75.83557, 23.05147], [75.84102, 23.04501], [75.84326, 23.04099], [75.84792, 23.03844], [75.85265, 23.04084], [75.85727, 23.04779], [75.8606, 23.05133]]]}}]}