{"type": "FeatureCollection", "features": [{"type": "Feature", "properties": {"state": "Madhya Pradesh", "district": "Burhanpur", "block": "Burhanpur", "gp_name": "Burhanpur Gram Panchayat", "state_code": 23, "district_code": 442, "block_code": 3460, "gp_code": 133079, "centroid_lat": 21.3, "centroid_lon": 76.362, "area_sq_km": 7.4, "boundary_source": "LGD Revenue Village Centroids + Block-Bounded Voronoi Tessellation", "boundary_quality": "DERIVED"}, "geometry": {"type": "Polygon", "coordinates": [[[76.37399, 21.2999], [76.37437, 21.30468], [76.37063, 21.30795], [76.36625, 21.30938], [76.36209, 21.30983], [76.35789, 21.30953], [76.35372, 21.30789], [76.35004, 21.30476], [76.34979, 21.3001], [76.35517, 21.29371], [76.35722, 21.28944], [76.36188, 21.28679], [76.3665, 21.28956], [76.37399, 21.2999]]]}}, {"type": "Feature", "properties": {"state": "Madhya Pradesh", "district": "Burhanpur", "block": "Burhanpur", "gp_name": "Burhanpur Rural", "state_code": 23, "district_code": 442, "block_code": 3460, "gp_code": 133080, "centroid_lat": 21.32, "centroid_lon": 76.342, "area_sq_km": 7.5, "boundary_source": "LGD Revenue Village Centroids + Block-Bounded Voronoi Tessellation", "boundary_quality": "DERIVED"}, "geometry": {"type": "Polygon", "coordinates": [[[76.35384, 21.31991], [76.35383, 21.32448], [76.35062, 21.32794], [76.34622, 21.32932], [76.34209, 21.33], [76.33785, 21.32962], [76.33327, 21.32832], [76.33023, 21.32468], [76.32959, 21.3201], [76.3329, 21.31655], [76.33722, 21.30944], [76.34188, 21.30709], [76.34665, 21.30921], [76.34903, 21.3133], [76.35384, 21.31991]]]}}, {"type": "Feature", "properties": {"state": "Madhya Pradesh", "district": "Burhanpur", "block": "Kharkalan", "gp_name": "Kharkalan Gram Panchayat", "state_code": 23, "district_code": 442, "block_code": 3461, "gp_code": 133081, "centroid_lat": 21.3, "centroid_lon": 76.098, "area_sq_km": 7.6, "boundary_source": "LGD Revenue Village Centroids + Block-Bounded Voronoi Tessellation", "boundary_quality": "DERIVED"}, "geometry": {"type": "Polygon", "coordinates": [[[76.11032, 21.29992], [76.10988, 21.30452], [76.10671, 21.30805], [76.10218, 21.30928], [76.09389, 21.30948], [76.08936, 21.30821], [76.08591, 21.30478], [76.08602, 21.30008], [76.09118, 21.2937], [76.09316, 21.28926], [76.0979, 21.28684], [76.10259, 21.28941], [76.10474, 21.29359], [76.10751, 21.29624], [76.11032, 21.29992]]]}}, {"type": "Feature", "properties": {"state": "Madhya Pradesh", "district": "Burhanpur", "block": "Kharkalan", "gp_name": "Kharkalan Rural", "state_code": 23, "district_code": 442, "block_code": 3461, "gp_code": 133082, "centroid_lat": 21.32, "centroid_lon": 76.078, "area_sq_km": 7.7, "boundary_source": "LGD Revenue Village Centroids + Block-Bounded Voronoi Tessellation", "boundary_quality": "DERIVED"}, "geometry": {"type": "Polygon", "coordinates": [[[76.09043, 21.31992], [76.09022, 21.32465], [76.0866, 21.32795], [76.08219, 21.32929], [76.07807, 21.32961], [76.07398, 21.32928], [76.0694, 21.32817], [76.06595, 21.32477], [76.06613, 21.32008], [76.07104, 21.31357], [76.07322, 21.30938], [76.07791, 21.30707], [76.08255, 21.3095], [76.08715, 21.31638], [76.09043, 21.31992]]]}}]}