{"type": "FeatureCollection", "features": [{"type": "Feature", "properties": {"state": "Madhya Pradesh", "district": "Dindori", "block": "Dindori", "gp_name": "Dindori Gram Panchayat", "state_code": 23, "district_code": 443, "block_code": 3600, "gp_code": 133151, "centroid_lat": 22.94, "centroid_lon": 81.266, "area_sq_km": 4.6, "boundary_source": "LGD Revenue Village Centroids + Block-Bounded Voronoi Tessellation", "boundary_quality": "DERIVED"}, "geometry": {"type": "Polygon", "coordinates": [[[81.27815, 22.93952], [81.27827, 22.94415], [81.27499, 22.94764], [81.26646, 22.9499], [81.26227, 22.94947], [81.25792, 22.94816], [81.25422, 22.94507], [81.25357, 22.94049], [81.25615, 22.93667], [81.25892, 22.93398], [81.26074, 22.92953], [81.2654, 22.927], [81.27024, 22.92923], [81.27247, 22.93347], [81.27815, 22.93952]]]}}, {"type": "Feature", "properties": {"state": "Madhya Pradesh", "district": "Dindori", "block": "Dindori", "gp_name": "Dindori Rural", "state_code": 23, "district_code": 443, "block_code": 3600, "gp_code": 133152, "centroid_lat": 22.96, "centroid_lon": 81.246, "area_sq_km": 4.7, "boundary_source": "LGD Revenue Village Centroids + Block-Bounded Voronoi Tessellation", "boundary_quality": "DERIVED"}, "geometry": {"type": "Polygon", "coordinates": [[[81.25792, 22.95953], [81.25836, 22.96418], [81.25485, 22.96752], [81.2507, 22.96935], [81.24646, 22.96995], [81.23785, 22.96822], [81.23402, 22.96516], [81.23372, 22.96049], [81.23662, 22.95683], [81.24089, 22.94983], [81.24541, 22.94729], [81.2503, 22.94908], [81.2525, 22.95344], [81.25792, 22.95953]]]}}, {"type": "Feature", "properties": {"state": "Madhya Pradesh", "district": "Dindori", "block": "Amarpur", "gp_name": "Amarpur Gram Panchayat", "state_code": 23, "district_code": 443, "block_code": 3601, "gp_code": 133153, "centroid_lat": 23.0786, "centroid_lon": 81.178, "area_sq_km": 4.8, "boundary_source": "LGD Revenue Village Centroids + Block-Bounded Voronoi Tessellation", "boundary_quality": "DERIVED"}, "geometry": {"type": "Polygon", "coordinates": [[[81.1899, 23.07813], [81.19032, 23.08276], [81.18684, 23.08611], [81.18278, 23.08811], [81.17846, 23.08854], [81.16965, 23.08701], [81.166, 23.08376], [81.16583, 23.07908], [81.16866, 23.07544], [81.17288, 23.06841], [81.17741, 23.06573], [81.18211, 23.06819], [81.1899, 23.07813]]]}}, {"type": "Feature", "properties": {"state": "Madhya Pradesh", "district": "Dindori", "block": "Amarpur", "gp_name": "Amarpur Rural", "state_code": 23, "district_code": 443, "block_code": 3601, "gp_code": 133154, "centroid_lat": 23.0986, "centroid_lon": 81.158, "area_sq_km": 4.9, "boundary_source": "LGD Revenue Village Centroids + Block-Bounded Voronoi Tessellation", "boundary_quality": "DERIVED"}, "geometry": {"type": "Polygon", "coordinates": [[[81.16994, 23.09813], [81.17019, 23.10272], [81.16708, 23.10631], [81.1628, 23.10815], [81.15846, 23.10865], [81.15414, 23.10836], [81.14995, 23.1067], [81.14601, 23.10376], [81.14554, 23.09909], [81.15279, 23.08822], [81.15742, 23.08589], [81.16234, 23.08763], [81.16468, 23.09187], [81.16994, 23.09813]]]}}, {"type": "Feature", "properties": {"state": "Madhya Pradesh", "district": "Dindori", "block": "Bajag", "gp_name": "Bajag Gram Panchayat", "state_code": 23, "district_code": 443, "block_code": 3602, "gp_code": 133155, "centroid_lat": 23.0786, "centroid_lon": 81.002, "area_sq_km": 5.0, "boundary_source": "LGD Revenue Village Centroids + Block-Bounded Voronoi Tessellation", "boundary_quality": "DERIVED"}, "geometry": {"type": "Polygon", "coordinates": [[[81.01443, 23.07813], [81.01435, 23.08279], [81.01101, 23.08627], [81.00667, 23.08792], [81.00244, 23.08842], [80.99354, 23.0871], [80.99022, 23.08365], [80.98988, 23.07906], [80.99218, 23.07527], [80.99458, 23.07228], [80.99686, 23.06834], [81.00142, 23.06566], [81.0062, 23.06802], [81.00859, 23.07198], [81.01443, 23.07813]]]}}, {"type": "Feature", "properties": {"state": "Madhya Pradesh", "district": "Dindori", "block": "Bajag", "gp_name": "Bajag Rural", "state_code": 23, "district_code": 443, "block_code": 3602, "gp_code": 133156, "centroid_lat": 23.0986, "centroid_lon": 80.982, "area_sq_km": 5.1, "boundary_source": "LGD Revenue Village Centroids + Block-Bounded Voronoi Tessellation", "boundary_quality": "DERIVED"}, "geometry": {"type": "Polygon", "coordinates": [[[80.99414, 23.09814], [80.99455, 23.10286], [80.99089, 23.10618], [80.98657, 23.10773], [80.98243, 23.10823], [80.97824, 23.10808], [80.97388, 23.10675], [80.97034, 23.1036], [80.96987, 23.09906], [80.97475, 23.09242], [80.9769, 23.08842], [80.98144, 23.08608], [80.98613, 23.08817], [80.98867, 23.0919], [80.99414, 23.09814]]]}}, {"type": "Feature", "properties": {"state": "Madhya Pradesh", "district": "Dindori", "block": "Karanjia", "gp_name": "Karanjia Gram Panchayat", "state_code": 23, "district_code": 443, "block_code": 3603, "gp_code": 133157, "centroid_lat": 22.94, "centroid_lon": 80.914, "area_sq_km": 5.2, "boundary_source": "LGD Revenue Village Centroids + Block-Bounded Voronoi Tessellation", "boundary_quality": "DERIVED"}, "geometry": {"type": "Polygon", "coordinates": [[[80.92647, 22.93953], [80.92656, 22.94428], [80.92305, 22.94773], [80.91852, 22.94905], [80.91443, 22.94991], [80.91013, 22.94975], [80.90558, 22.94846], [80.90181, 22.94522], [80.90174, 22.94046], [80.90696, 22.93398], [80.90875, 22.92948], [80.91343, 22.92695], [80.91815, 22.92956], [80.92056, 22.93341], [80.92647, 22.93953]]]}}, {"type": "Feature", "properties": {"state": "Madhya Pradesh", "district": "Dindori", "block": "Karanjia", "gp_name": "Karanjia Rural", "state_code": 23, "district_code": 443, "block_code": 3603, "gp_code": 133158, "centroid_lat": 22.96, "centroid_lon": 80.894, "area_sq_km": 5.3, "boundary_source": "LGD Revenue Village Centroids + Block-Bounded Voronoi Tessellation", "boundary_quality": "DERIVED"}, "geometry": {"type": "Polygon", "coordinates": [[[80.90654, 22.95953], [80.90605, 22.96411], [80.90298, 22.96767], [80.8986, 22.96921], [80.89444, 22.97001], [80.89018, 22.96962], [80.88571, 22.96832], [80.88219, 22.96505], [80.88159, 22.96046], [80.8869, 22.95393], [80.88888, 22.94975], [80.89345, 22.94736], [80.89822, 22.94937], [80.90297, 22.95616], [80.90654, 22.95953]]]}}, {"type": "Feature", "properties": {"state": "Madhya Pradesh", "district": "Dindori", "block": "Mehandwani", "gp_name": "Mehandwani Gram Panchayat", "state_code": 23, "district_code": 443, "block_code": 3604, "gp_code": 133159, "centroid_lat": 22.8014, "centroid_lon": 81.002, "area_sq_km": 5.4, "boundary_source": "LGD Revenue Village Centroids + Block-Bounded Voronoi Tessellation", "boundary_quality": "DERIVED"}, "geometry": {"type": "Polygon", "coordinates": [[[81.01428, 22.80094], [81.01441, 22.80562], [81.01076, 22.80888], [81.00654, 22.8105], [81.00243, 22.81107], [80.99828, 22.81078], [80.99372, 22.80973], [80.9901, 22.80651], [80.98968, 22.80187], [80.99469, 22.79515], [80.99679, 22.79097], [81.00142, 22.78827], [81.00612, 22.79099], [81.01089, 22.79759], [81.01428, 22.80094]]]}}, {"type": "Feature", "properties": {"state": "Madhya Pradesh", "district": "Dindori", "block": "Mehandwani", "gp_name": "Mehandwani Rural", "state_code": 23, "district_code": 443, "block_code": 3604, "gp_code": 133160, "centroid_lat": 22.8214, "centroid_lon": 80.982, "area_sq_km": 5.5, "boundary_source": "LGD Revenue Village Centroids + Block-Bounded Voronoi Tessellation", "boundary_quality": "DERIVED"}, "geometry": {"type": "Polygon", "coordinates": [[[80.99435, 22.82093], [80.99434, 22.8256], [80.99077, 22.82889], [80.98673, 22.83087], [80.98244, 22.83148], [80.97821, 22.83095], [80.97374, 22.82971], [80.97027, 22.82643], [80.9698, 22.82186], [80.97477, 22.81522], [80.97672, 22.81083], [80.98143, 22.80838], [80.98626, 22.81065], [80.98876, 22.8146], [80.99435, 22.82093]]]}}, {"type": "Feature", "properties": {"state": "Madhya Pradesh", "district": "Dindori", "block": "Samnapur", "gp_name": "Samnapur Gram Panchayat", "state_code": 23, "district_code": 443, "block_code": 3605, "gp_code": 133161, "centroid_lat": 22.8014, "centroid_lon": 81.178, "area_sq_km": 5.6, "boundary_source": "LGD Revenue Village Centroids + Block-Bounded Voronoi Tessellation", "boundary_quality": "DERIVED"}, "geometry": {"type": "Polygon", "coordinates": [[[81.19005, 22.80093], [81.19028, 22.80557], [81.18713, 22.80918], [81.18269, 22.81076], [81.17845, 22.8114], [81.16959, 22.80988], [81.16605, 22.80654], [81.16571, 22.80188], [81.16823, 22.79809], [81.17085, 22.7953], [81.17297, 22.79136], [81.17741, 22.78839], [81.18209, 22.79103], [81.18456, 22.79478], [81.19005, 22.80093]]]}}, {"type": "Feature", "properties": {"state": "Madhya Pradesh", "district": "Dindori", "block": "Samnapur", "gp_name": "Samnapur Rural", "state_code": 23, "district_code": 443, "block_code": 3605, "gp_code": 133162, "centroid_lat": 22.8214, "centroid_lon": 81.158, "area_sq_km": 5.7, "boundary_source": "LGD Revenue Village Centroids + Block-Bounded Voronoi Tessellation", "boundary_quality": "DERIVED"}, "geometry": {"type": "Polygon", "coordinates": [[[81.16994, 22.82094], [81.17022, 22.82554], [81.16707, 22.82913], [81.16276, 22.83091], [81.15426, 22.83088], [81.14974, 22.82972], [81.1459, 22.82661], [81.14562, 22.82188], [81.15292, 22.81126], [81.15741, 22.80843], [81.16225, 22.81063], [81.16468, 22.81466], [81.16994, 22.82094]]]}}]}