{"type": "FeatureCollection", "features": [{"type": "Feature", "properties": {"state": "Madhya Pradesh", "district": "Singrauli", "block": "Singrauli", "gp_name": "Singrauli Gram Panchayat", "state_code": 23, "district_code": 638, "block_code": 4220, "gp_code": 133521, "centroid_lat": 24.19, "centroid_lon": 82.802, "area_sq_km": 6.6, "boundary_source": "LGD Revenue Village Centroids + Block-Bounded Voronoi Tessellation", "boundary_quality": "DERIVED"}, "geometry": {"type": "Polygon", "coordinates": [[[82.81404, 24.18938], [82.81418, 24.19391], [82.81132, 24.19764], [82.8068, 24.19915], [82.79824, 24.19987], [82.79377, 24.19845], [82.79019, 24.19522], [82.78979, 24.19063], [82.79459, 24.18392], [82.79678, 24.18005], [82.80121, 24.1771], [82.80599, 24.17954], [82.80853, 24.18329], [82.81404, 24.18938]]]}}, {"type": "Feature", "properties": {"state": "Madhya Pradesh", "district": "Singrauli", "block": "Singrauli", "gp_name": "Singrauli Rural", "state_code": 23, "district_code": 638, "block_code": 4220, "gp_code": 133522, "centroid_lat": 24.21, "centroid_lon": 82.782, "area_sq_km": 6.7, "boundary_source": "LGD Revenue Village Centroids + Block-Bounded Voronoi Tessellation", "boundary_quality": "DERIVED"}, "geometry": {"type": "Polygon", "coordinates": [[[82.79402, 24.20938], [82.79431, 24.21395], [82.79112, 24.21747], [82.78683, 24.21921], [82.78259, 24.21965], [82.77838, 24.21948], [82.77362, 24.2186], [82.76981, 24.21538], [82.76938, 24.21065], [82.77437, 24.20375], [82.77661, 24.19972], [82.78121, 24.19702], [82.78602, 24.19947], [82.78857, 24.20325], [82.79402, 24.20938]]]}}, {"type": "Feature", "properties": {"state": "Madhya Pradesh", "district": "Singrauli", "block": "Baishan", "gp_name": "Baishan Gram Panchayat", "state_code": 23, "district_code": 638, "block_code": 4221, "gp_code": 133523, "centroid_lat": 24.31, "centroid_lon": 82.67, "area_sq_km": 6.8, "boundary_source": "LGD Revenue Village Centroids + Block-Bounded Voronoi Tessellation", "boundary_quality": "DERIVED"}, "geometry": {"type": "Polygon", "coordinates": [[[82.68255, 24.30936], [82.68247, 24.31401], [82.67892, 24.31731], [82.67489, 24.31932], [82.66622, 24.31988], [82.66174, 24.31845], [82.65835, 24.31513], [82.65774, 24.31062], [82.66064, 24.30699], [82.66464, 24.29977], [82.66922, 24.29711], [82.67416, 24.29914], [82.6766, 24.30325], [82.68255, 24.30936]]]}}, {"type": "Feature", "properties": {"state": "Madhya Pradesh", "district": "Singrauli", "block": "Baishan", "gp_name": "Baishan Rural", "state_code": 23, "district_code": 638, "block_code": 4221, "gp_code": 133524, "centroid_lat": 24.33, "centroid_lon": 82.65, "area_sq_km": 6.9, "boundary_source": "LGD Revenue Village Centroids + Block-Bounded Voronoi Tessellation", "boundary_quality": "DERIVED"}, "geometry": {"type": "Polygon", "coordinates": [[[82.66208, 24.32939], [82.66232, 24.33396], [82.65908, 24.33745], [82.65473, 24.33902], [82.64636, 24.33951], [82.64156, 24.33864], [82.63781, 24.33537], [82.63753, 24.33063], [82.64019, 24.32685], [82.6428, 24.32409], [82.64471, 24.31992], [82.64923, 24.31724], [82.65402, 24.3195], [82.66208, 24.32939]]]}}, {"type": "Feature", "properties": {"state": "Madhya Pradesh", "district": "Singrauli", "block": "Chitrangi", "gp_name": "Chitrangi Gram Panchayat", "state_code": 23, "district_code": 638, "block_code": 4222, "gp_code": 133525, "centroid_lat": 24.19, "centroid_lon": 82.538, "area_sq_km": 7.0, "boundary_source": "LGD Revenue Village Centroids + Block-Bounded Voronoi Tessellation", "boundary_quality": "DERIVED"}, "geometry": {"type": "Polygon", "coordinates": [[[82.55051, 24.18938], [82.55037, 24.19399], [82.54719, 24.19756], [82.54284, 24.19927], [82.53433, 24.19955], [82.5296, 24.19859], [82.52594, 24.1953], [82.52572, 24.19061], [82.53077, 24.18405], [82.53267, 24.17979], [82.53726, 24.17747], [82.54209, 24.17933], [82.5446, 24.18325], [82.55051, 24.18938]]]}}, {"type": "Feature", "properties": {"state": "Madhya Pradesh", "district": "Singrauli", "block": "Chitrangi", "gp_name": "Chitrangi Rural", "state_code": 23, "district_code": 638, "block_code": 4222, "gp_code": 133526, "centroid_lat": 24.21, "centroid_lon": 82.518, "area_sq_km": 7.1, "boundary_source": "LGD Revenue Village Centroids + Block-Bounded Voronoi Tessellation", "boundary_quality": "DERIVED"}, "geometry": {"type": "Polygon", "coordinates": [[[82.53042, 24.20938], [82.53067, 24.21409], [82.52734, 24.21769], [82.52267, 24.21893], [82.51857, 24.21971], [82.51428, 24.21968], [82.50982, 24.21836], [82.506, 24.21527], [82.50559, 24.21062], [82.51075, 24.20403], [82.51265, 24.19977], [82.51725, 24.19729], [82.52206, 24.19944], [82.53042, 24.20938]]]}}, {"type": "Feature", "properties": {"state": "Madhya Pradesh", "district": "Singrauli", "block": "Deosar", "gp_name": "Deosar Gram Panchayat", "state_code": 23, "district_code": 638, "block_code": 4223, "gp_code": 133527, "centroid_lat": 24.07, "centroid_lon": 82.67, "area_sq_km": 7.2, "boundary_source": "LGD Revenue Village Centroids + Block-Bounded Voronoi Tessellation", "boundary_quality": "DERIVED"}, "geometry": {"type": "Polygon", "coordinates": [[[82.68236, 24.06938], [82.6822, 24.07394], [82.6789, 24.07732], [82.67466, 24.07892], [82.67058, 24.07968], [82.6664, 24.0794], [82.66186, 24.07834], [82.65805, 24.07527], [82.65756, 24.07063], [82.66005, 24.06679], [82.66274, 24.06403], [82.66453, 24.05953], [82.66924, 24.05726], [82.674, 24.05955], [82.67642, 24.06342], [82.67939, 24.06586], [82.68236, 24.06938]]]}}, {"type": "Feature", "properties": {"state": "Madhya Pradesh", "district": "Singrauli", "block": "Deosar", "gp_name": "Deosar Rural", "state_code": 23, "district_code": 638, "block_code": 4223, "gp_code": 133528, "centroid_lat": 24.09, "centroid_lon": 82.65, "area_sq_km": 7.3, "boundary_source": "LGD Revenue Village Centroids + Block-Bounded Voronoi Tessellation", "boundary_quality": "DERIVED"}, "geometry": {"type": "Polygon", "coordinates": [[[82.66248, 24.08937], [82.66273, 24.09411], [82.65903, 24.09742], [82.65476, 24.0991], [82.65057, 24.09959], [82.6464, 24.09941], [82.64202, 24.09817], [82.63828, 24.09516], [82.63752, 24.09063], [82.64054, 24.08695], [82.64453, 24.07953], [82.64925, 24.07742], [82.6542, 24.07904], [82.65645, 24.08339], [82.65948, 24.08582], [82.66248, 24.08937]]]}}]}