{"type": "FeatureCollection", "features": [{"type": "Feature", "properties": {"state": "Madhya Pradesh", "district": "Agar Malwa", "block": "Agar", "gp_name": "Agar Gram Panchayat", "state_code": 23, "district_code": 660, "block_code": 3300, "gp_code": 133001, "centroid_lat": 23.7, "centroid_lon": 76.152, "area_sq_km": 4.6, "boundary_source": "LGD Revenue Village Centroids + Block-Bounded Voronoi Tessellation", "boundary_quality": "DERIVED"}, "geometry": {"type": "Polygon", "coordinates": [[[76.16402, 23.69991], [76.16404, 23.70449], [76.16088, 23.70805], [76.15644, 23.70966], [76.15209, 23.70979], [76.1479, 23.70932], [76.14358, 23.70788], [76.13995, 23.7047], [76.1397, 23.70009], [76.14728, 23.68975], [76.15189, 23.68705], [76.1567, 23.68931], [76.16402, 23.69991]]]}}, {"type": "Feature", "properties": {"state": "Madhya Pradesh", "district": "Agar Malwa", "block": "Agar", "gp_name": "Agar Rural", "state_code": 23, "district_code": 660, "block_code": 3300, "gp_code": 133002, "centroid_lat": 23.72, "centroid_lon": 76.132, "area_sq_km": 4.7, "boundary_source": "LGD Revenue Village Centroids + Block-Bounded Voronoi Tessellation", "boundary_quality": "DERIVED"}, "geometry": {"type": "Polygon", "coordinates": [[[76.14446, 23.71991], [76.14418, 23.72454], [76.14071, 23.72789], [76.13631, 23.72937], [76.12787, 23.72939], [76.12358, 23.72788], [76.11956, 23.72485], [76.11959, 23.72009], [76.12729, 23.70975], [76.13189, 23.70726], [76.13674, 23.70921], [76.13913, 23.71333], [76.14446, 23.71991]]]}}, {"type": "Feature", "properties": {"state": "Madhya Pradesh", "district": "Agar Malwa", "block": "Badod", "gp_name": "Badod Gram Panchayat", "state_code": 23, "district_code": 660, "block_code": 3301, "gp_code": 133003, "centroid_lat": 23.82, "centroid_lon": 76.02, "area_sq_km": 4.8, "boundary_source": "LGD Revenue Village Centroids + Block-Bounded Voronoi Tessellation", "boundary_quality": "DERIVED"}, "geometry": {"type": "Polygon", "coordinates": [[[76.03209, 23.81992], [76.0321, 23.82452], [76.02903, 23.82819], [76.02008, 23.83007], [76.01583, 23.82945], [76.01149, 23.82795], [76.008, 23.82466], [76.0074, 23.82008], [76.01291, 23.81357], [76.01515, 23.80944], [76.0199, 23.80727], [76.02464, 23.80948], [76.02695, 23.81352], [76.03209, 23.81992]]]}}, {"type": "Feature", "properties": {"state": "Madhya Pradesh", "district": "Agar Malwa", "block": "Badod", "gp_name": "Badod Rural", "state_code": 23, "district_code": 660, "block_code": 3301, "gp_code": 133004, "centroid_lat": 23.84, "centroid_lon": 76.0, "area_sq_km": 4.9, "boundary_source": "LGD Revenue Village Centroids + Block-Bounded Voronoi Tessellation", "boundary_quality": "DERIVED"}, "geometry": {"type": "Polygon", "coordinates": [[[76.01244, 23.83992], [76.01201, 23.84449], [76.00899, 23.84816], [76.00438, 23.84954], [75.99575, 23.84963], [75.99152, 23.84791], [75.98773, 23.84477], [75.98773, 23.84008], [75.99297, 23.83362], [75.99523, 23.82961], [75.9999, 23.82689], [76.0047, 23.82935], [76.00709, 23.83339], [76.01244, 23.83992]]]}}, {"type": "Feature", "properties": {"state": "Madhya Pradesh", "district": "Agar Malwa", "block": "Nalkheda", "gp_name": "Nalkheda Gram Panchayat", "state_code": 23, "district_code": 660, "block_code": 3302, "gp_code": 133005, "centroid_lat": 23.7, "centroid_lon": 75.888, "area_sq_km": 5.0, "boundary_source": "LGD Revenue Village Centroids + Block-Bounded Voronoi Tessellation", "boundary_quality": "DERIVED"}, "geometry": {"type": "Polygon", "coordinates": [[[75.90028, 23.69993], [75.90061, 23.70472], [75.89662, 23.70784], [75.89228, 23.70936], [75.88807, 23.71005], [75.88379, 23.70952], [75.87954, 23.70789], [75.87605, 23.70464], [75.87588, 23.70007], [75.87879, 23.69655], [75.88319, 23.68949], [75.88791, 23.68737], [75.89264, 23.6895], [75.89495, 23.69352], [75.89769, 23.69624], [75.90028, 23.69993]]]}}, {"type": "Feature", "properties": {"state": "Madhya Pradesh", "district": "Agar Malwa", "block": "Nalkheda", "gp_name": "Nalkheda Rural", "state_code": 23, "district_code": 660, "block_code": 3302, "gp_code": 133006, "centroid_lat": 23.72, "centroid_lon": 75.868, "area_sq_km": 5.1, "boundary_source": "LGD Revenue Village Centroids + Block-Bounded Voronoi Tessellation", "boundary_quality": "DERIVED"}, "geometry": {"type": "Polygon", "coordinates": [[[75.88025, 23.71993], [75.88006, 23.72452], [75.87663, 23.72785], [75.87224, 23.72927], [75.86807, 23.73001], [75.86379, 23.72952], [75.85935, 23.72806], [75.85554, 23.72483], [75.85579, 23.72007], [75.85827, 23.71635], [75.86105, 23.71367], [75.86305, 23.70918], [75.86791, 23.70688], [75.87258, 23.70965], [75.87719, 23.71643], [75.88025, 23.71993]]]}}, {"type": "Feature", "properties": {"state": "Madhya Pradesh", "district": "Agar Malwa", "block": "Susner", "gp_name": "Susner Gram Panchayat", "state_code": 23, "district_code": 660, "block_code": 3303, "gp_code": 133007, "centroid_lat": 23.58, "centroid_lon": 76.02, "area_sq_km": 5.2, "boundary_source": "LGD Revenue Village Centroids + Block-Bounded Voronoi Tessellation", "boundary_quality": "DERIVED"}, "geometry": {"type": "Polygon", "coordinates": [[[76.03262, 23.57992], [76.03215, 23.58455], [76.02861, 23.58782], [76.02008, 23.59013], [76.01116, 23.58827], [76.00759, 23.58483], [76.0077, 23.58008], [76.01295, 23.5736], [76.01505, 23.5692], [76.0199, 23.5668], [76.02475, 23.5692], [76.02915, 23.57644], [76.03262, 23.57992]]]}}, {"type": "Feature", "properties": {"state": "Madhya Pradesh", "district": "Agar Malwa", "block": "Susner", "gp_name": "Susner Rural", "state_code": 23, "district_code": 660, "block_code": 3303, "gp_code": 133008, "centroid_lat": 23.6, "centroid_lon": 76.0, "area_sq_km": 5.3, "boundary_source": "LGD Revenue Village Centroids + Block-Bounded Voronoi Tessellation", "boundary_quality": "DERIVED"}, "geometry": {"type": "Polygon", "coordinates": [[[76.0124, 23.59992], [76.01236, 23.60462], [76.00877, 23.60797], [76.00432, 23.60943], [75.99573, 23.60969], [75.99146, 23.60798], [75.98767, 23.6048], [75.9874, 23.60008], [75.99061, 23.59648], [75.99507, 23.58924], [75.9999, 23.58698], [76.00478, 23.58914], [76.00684, 23.59361], [76.0124, 23.59992]]]}}]}