{
  "type": "FeatureCollection",
  "name": "Delhi_Districts",
  "features": [
    {
      "type": "Feature",
      "id": 88,
      "properties": {
        "district_code": 88,
        "district_name": "North West Delhi",
        "state_code": 7,
        "state_name": "Delhi",
        "is_pilot": true,
        "total_blocks": 3,
        "total_gps": 25,
        "centroid_lat": 28.73,
        "centroid_lon": 77.08
      },
      "geometry": {
        "type": "Polygon",
        "coordinates": [
          [
            [
              77.17028,
              28.72858
            ],
            [
              77.17532,
              28.75091
            ],
            [
              77.1657,
              28.77183
            ],
            [
              77.14102,
              28.7819
            ],
            [
              77.12248,
              28.79227
            ],
            [
              77.09985,
              28.79098
            ],
            [
              77.08121,
              28.79123
            ],
            [
              77.06076,
              28.79797
            ],
            [
              77.04215,
              28.79015
            ],
            [
              77.02232,
              28.78261
            ],
            [
              76.99897,
              28.77287
            ],
            [
              76.99204,
              28.7522
            ],
            [
              76.99321,
              28.73131
            ],
            [
              77.01182,
              28.715
            ],
            [
              77.02246,
              28.70187
            ],
            [
              77.03406,
              28.69087
            ],
            [
              77.03783,
              28.66809
            ],
            [
              77.05397,
              28.64992
            ],
            [
              77.07825,
              28.64165
            ],
            [
              77.10342,
              28.64715
            ],
            [
              77.1195,
              28.66715
            ],
            [
              77.12617,
              28.68784
            ],
            [
              77.1338,
              28.70149
            ],
            [
              77.15586,
              28.7108
            ],
            [
              77.17028,
              28.72858
            ]
          ]
        ]
      }
    },
    {
      "type": "Feature",
      "id": 89,
      "properties": {
        "district_code": 89,
        "district_name": "North Delhi",
        "state_code": 7,
        "state_name": "Delhi",
        "is_pilot": false,
        "total_blocks": 2,
        "total_gps": 15,
        "centroid_lat": 28.69,
        "centroid_lon": 77.17
      },
      "geometry": {
        "type": "Polygon",
        "coordinates": [
          [
            [
              77.25686,
              28.68858
            ],
            [
              77.26121,
              28.70996
            ],
            [
              77.24893,
              28.72848
            ],
            [
              77.23388,
              28.74427
            ],
            [
              77.21071,
              28.7496
            ],
            [
              77.19201,
              28.75743
            ],
            [
              77.17138,
              28.75677
            ],
            [
              77.15273,
              28.75125
            ],
            [
              77.13199,
              28.75053
            ],
            [
              77.10925,
              28.74551
            ],
            [
              77.08762,
              28.73368
            ],
            [
              77.07817,
              28.71325
            ],
            [
              77.08353,
              28.69136
            ],
            [
              77.09372,
              28.67326
            ],
            [
              77.11483,
              28.66306
            ],
            [
              77.12169,
              28.6489
            ],
            [
              77.13031,
              28.63182
            ],
            [
              77.1441,
              28.61052
            ],
            [
              77.16806,
              28.59582
            ],
            [
              77.19191,
              28.6122
            ],
            [
              77.21025,
              28.62582
            ],
            [
              77.21415,
              28.64961
            ],
            [
              77.22468,
              28.66096
            ],
            [
              77.2406,
              28.67208
            ],
            [
              77.25686,
              28.68858
            ]
          ]
        ]
      }
    },
    {
      "type": "Feature",
      "id": 90,
      "properties": {
        "district_code": 90,
        "district_name": "Central Delhi",
        "state_code": 7,
        "state_name": "Delhi",
        "is_pilot": false,
        "total_blocks": 1,
        "total_gps": 5,
        "centroid_lat": 28.65,
        "centroid_lon": 77.23
      },
      "geometry": {
        "type": "Polygon",
        "coordinates": [
          [
            [
              77.31885,
              28.64851
            ],
            [
              77.32346,
              28.67041
            ],
            [
              77.30933,
              28.68864
            ],
            [
              77.28934,
              28.70039
            ],
            [
              77.27103,
              28.71003
            ],
            [
              77.25131,
              28.71522
            ],
            [
              77.23137,
              28.71459
            ],
            [
              77.21196,
              28.71412
            ],
            [
              77.19424,
              28.70705
            ],
            [
              77.17172,
              28.70332
            ],
            [
              77.15398,
              28.69037
            ],
            [
              77.13896,
              28.6731
            ],
            [
              77.14435,
              28.65138
            ],
            [
              77.15988,
              28.63464
            ],
            [
              77.17237,
              28.62188
            ],
            [
              77.18311,
              28.61013
            ],
            [
              77.18946,
              28.5906
            ],
            [
              77.2037,
              28.56938
            ],
            [
              77.22802,
              28.55611
            ],
            [
              77.25332,
              28.567
            ],
            [
              77.26963,
              28.58671
            ],
            [
              77.274,
              28.60969
            ],
            [
              77.28825,
              28.61902
            ],
            [
              77.29812,
              28.63267
            ],
            [
              77.31885,
              28.64851
            ]
          ]
        ]
      }
    },
    {
      "type": "Feature",
      "id": 92,
      "properties": {
        "district_code": 92,
        "district_name": "New Delhi",
        "state_code": 7,
        "state_name": "Delhi",
        "is_pilot": false,
        "total_blocks": 1,
        "total_gps": 5,
        "centroid_lat": 28.6139,
        "centroid_lon": 77.209
      },
      "geometry": {
        "type": "Polygon",
        "coordinates": [
          [
            [
              77.29316,
              28.6125
            ],
            [
              77.30229,
              28.6343
            ],
            [
              77.28667,
              28.65177
            ],
            [
              77.27088,
              28.66648
            ],
            [
              77.25086,
              28.67518
            ],
            [
              77.2296,
              28.67701
            ],
            [
              77.21042,
              28.68146
            ],
            [
              77.19064,
              28.67912
            ],
            [
              77.16962,
              28.67671
            ],
            [
              77.14999,
              28.6679
            ],
            [
              77.12955,
              28.65608
            ],
            [
              77.11322,
              28.63819
            ],
            [
              77.12384,
              28.61526
            ],
            [
              77.13897,
              28.59854
            ],
            [
              77.15409,
              28.58709
            ],
            [
              77.16255,
              28.57438
            ],
            [
              77.16981,
              28.55644
            ],
            [
              77.18194,
              28.53086
            ],
            [
              77.20705,
              28.52063
            ],
            [
              77.23251,
              28.53026
            ],
            [
              77.24659,
              28.55388
            ],
            [
              77.25361,
              28.57303
            ],
            [
              77.26702,
              28.58304
            ],
            [
              77.27783,
              28.5964
            ],
            [
              77.29316,
              28.6125
            ]
          ]
        ]
      }
    },
    {
      "type": "Feature",
      "id": 95,
      "properties": {
        "district_code": 95,
        "district_name": "South Delhi",
        "state_code": 7,
        "state_name": "Delhi",
        "is_pilot": false,
        "total_blocks": 2,
        "total_gps": 15,
        "centroid_lat": 28.53,
        "centroid_lon": 77.21
      },
      "geometry": {
        "type": "Polygon",
        "coordinates": [
          [
            [
              77.30191,
              28.52847
            ],
            [
              77.3067,
              28.55116
            ],
            [
              77.29432,
              28.57114
            ],
            [
              77.27028,
              28.58127
            ],
            [
              77.25212,
              28.59172
            ],
            [
              77.23027,
              28.59214
            ],
            [
              77.21136,
              28.59521
            ],
            [
              77.19185,
              28.59451
            ],
            [
              77.17038,
              28.59323
            ],
            [
              77.15275,
              28.58243
            ],
            [
              77.12781,
              28.57367
            ],
            [
              77.11729,
              28.55353
            ],
            [
              77.12199,
              28.5314
            ],
            [
              77.14058,
              28.51476
            ],
            [
              77.15127,
              28.50129
            ],
            [
              77.16162,
              28.4888
            ],
            [
              77.17124,
              28.47312
            ],
            [
              77.1825,
              28.44553
            ],
            [
              77.2081,
              28.43896
            ],
            [
              77.2331,
              28.44778
            ],
            [
              77.24955,
              28.4668
            ],
            [
              77.25817,
              28.48583
            ],
            [
              77.26732,
              28.49949
            ],
            [
              77.27863,
              28.51254
            ],
            [
              77.30191,
              28.52847
            ]
          ]
        ]
      }
    },
    {
      "type": "Feature",
      "id": 96,
      "properties": {
        "district_code": 96,
        "district_name": "South West Delhi",
        "state_code": 7,
        "state_name": "Delhi",
        "is_pilot": false,
        "total_blocks": 2,
        "total_gps": 15,
        "centroid_lat": 28.57,
        "centroid_lon": 76.99
      },
      "geometry": {
        "type": "Polygon",
        "coordinates": [
          [
            [
              77.0758,
              28.56871
            ],
            [
              77.07928,
              28.58969
            ],
            [
              77.07272,
              28.61052
            ],
            [
              77.05315,
              28.62388
            ],
            [
              77.02898,
              28.62735
            ],
            [
              77.00978,
              28.63104
            ],
            [
              76.99116,
              28.63145
            ],
            [
              76.97281,
              28.63063
            ],
            [
              76.95194,
              28.63045
            ],
            [
              76.92877,
              28.62584
            ],
            [
              76.91001,
              28.61231
            ],
            [
              76.9009,
              28.59245
            ],
            [
              76.90547,
              28.57121
            ],
            [
              76.91388,
              28.55316
            ],
            [
              76.93671,
              28.54385
            ],
            [
              76.94149,
              28.52855
            ],
            [
              76.94715,
              28.50688
            ],
            [
              76.96251,
              28.48501
            ],
            [
              76.98823,
              28.47584
            ],
            [
              77.01227,
              28.49137
            ],
            [
              77.02988,
              28.50658
            ],
            [
              77.03455,
              28.52932
            ],
            [
              77.04657,
              28.54003
            ],
            [
              77.06252,
              28.55168
            ],
            [
              77.0758,
              28.56871
            ]
          ]
        ]
      }
    },
    {
      "type": "Feature",
      "id": 97,
      "properties": {
        "district_code": 97,
        "district_name": "West Delhi",
        "state_code": 7,
        "state_name": "Delhi",
        "is_pilot": false,
        "total_blocks": 2,
        "total_gps": 10,
        "centroid_lat": 28.64,
        "centroid_lon": 77.07
      },
      "geometry": {
        "type": "Polygon",
        "coordinates": [
          [
            [
              77.15914,
              28.63861
            ],
            [
              77.15852,
              28.65945
            ],
            [
              77.14972,
              28.67896
            ],
            [
              77.13137,
              28.69225
            ],
            [
              77.11221,
              28.70195
            ],
            [
              77.08968,
              28.70054
            ],
            [
              77.07133,
              28.7074
            ],
            [
              77.05223,
              28.70281
            ],
            [
              77.03414,
              28.69703
            ],
            [
              77.0118,
              28.69311
            ],
            [
              76.99078,
              28.68194
            ],
            [
              76.97709,
              28.66345
            ],
            [
              76.98467,
              28.64128
            ],
            [
              77.00007,
              28.62459
            ],
            [
              77.01661,
              28.61386
            ],
            [
              77.01986,
              28.59724
            ],
            [
              77.02861,
              28.57916
            ],
            [
              77.04298,
              28.55676
            ],
            [
              77.06823,
              28.54984
            ],
            [
              77.09326,
              28.55768
            ],
            [
              77.10868,
              28.57841
            ],
            [
              77.1184,
              28.59577
            ],
            [
              77.12605,
              28.61028
            ],
            [
              77.13776,
              28.62285
            ],
            [
              77.15914,
              28.63861
            ]
          ]
        ]
      }
    }
  ]
}